,address,checkins,city,country,created,distance,group_id,group_photo,icon,latitude,longitude,pid,place_id,title,type,updated
0,—É–ª–∏—Ü–∞ –ú–æ–∏—Å–µ–µ–Ω–∫–æ 22,3,,,1513990294,20,,,https://vk.com/images/places/place.png,59.937573,30.387388,19764372,19764372,–º–æ–∏—Å–µ–µ–Ω–∫–æ 22,21,1522952829.0
1,"–ù–æ–≤–≥–æ—Ä–æ–¥—Å–∫–∞—è —É–ª., 18",3,,,1446481322,50,,,https://vk.com/images/places/place.png,59.937186,30.386493,13273891,13273891,–Ω–æ–≤–≥–æ—Ä–æ–¥—Å–∫–∞—è –º–æ–∏—Å–µ–µ–Ω–∫–æ,21,1481741192.0
2,"–ú–æ–∏—Å–µ–µ–Ω–∫–æ —É–ª. 22, –§–∞–±—Ä–∏–∫–∞ –ë–µ–±–µ–ª—è",4,2.0,1.0,1532569394,52,40394408.0,https://vk.com/images/community_50.png?ava=1,https://vk.com/images/places/place.png,59.937734,30.387904,2767515,2767515,MUGGERS,21,1435302079.0
3,"–ú–æ–∏—Å–µ–µ–Ω–∫–æ —É–ª., 22",1,,,1450256413,56,,,https://vk.com/images/places/place.png,59.937735,30.387969,13635220,13635220,"–ö–ì–ü ""–ë–µ–±–µ–ª—è"" (–ì–° ""–ê–∫–∞–¥–æ-–¢–µ–ª–µ–∫–æ–º"")",21,1450256422.0
4,Gastronom21,2,2.0,1.0,1500454257,62,150540633.0,https://pp.userapi.com/c824504/v824504115/54960/liCZPAAHosA.jpg?ava=1,https://vk.com/images/places/place.png,59.93731,30.38803,18634565,18634565,–ì–∞—Å—Ç—Ä–æ–Ω–æ–º 21,21,1514045680.0
5,—É–ª–∏—Ü–∞ –ú–æ–∏—Å–µ–µ–Ω–∫–æ,6,,,1382600112,68,,,https://vk.com/images/places/place.png,59.938037,30.387803,6755243,6755243,–ú–æ–∏—Å–µ–µ–Ω–∫–æ –¥. 24,21,1530939975.0
6,–î–µ–¥–æ–≤–∏—á–∏,1,,,1533899778,68,,,https://vk.com/images/places/place.png,59.938111,30.386504,21543481,21543481,–ü–æ–∫—Ä–æ–≤—Å–∫–∏–π —Ö—Ä–∞–º,21,1533899781.0
7,—É–ª–∏—Ü–∞ –ú–æ–∏—Å–µ–µ–Ω–∫–æ 22,6,,,1368455102,78,,,https://vk.com/images/places/place.png,59.937775,30.388365,5479383,5479383,Bercut,21,1419068460.0
8,—É–ª–∏—Ü–∞ –ù–æ–≤–≥–æ—Ä–æ–¥—Å–∫–∞—è 15,14,,,1388820080,94,,,https://vk.com/images/places/place.png,59.937123,30.388492,7346076,7346076,–ù–æ–≤–≥–æ—Ä–æ–¥—Å–∫–∞—è 13,21,1511512622.0
9,–ú–æ–∏—Å–µ–µ–Ω–∫–æ 22–∞,4,2.0,1.0,1280742023,118,,,https://vk.com/images/places/restaraunt.png,59.937779,30.389099,1477,1477,–¢—Ä–æ–ø–∏–∫–∏,3,1533813459.0
10,,29,,,1404590337,193,,,https://vk.com/images/places/place.png,59.93758,30.383543,8962668,8962668,–ù–∞–±–µ—Ä–µ–∂–Ω–∞—è —Ä–µ–∫–∏ —Ñ–æ–Ω—Ç–∞–Ω–∫–∏ 21,21,1536585459.0
11,—É–ª–∏—Ü–∞ –ù–æ–≤–≥–æ—Ä–æ–¥—Å–∫–∞—è,3,,,1368202142,151,,,https://vk.com/images/places/place.png,59.938643,30.388663,5448423,5448423,–†–î#13,21,1461747533.0
12,"–°–∞–Ω–∫—Ç-–ü–µ—Ç–µ—Ä–±—É—Ä–≥, —É–ª. –ú–æ–∏—Å–µ–µ–Ω–∫–æ –¥. 24, –•–∏–º—á–∏—Å—Ç–∫–∞ Clean-Expert",2,2.0,1.0,1532569010,151,48329352.0,https://sun9-4.userapi.com/c620324/v620324582/fc3d/O4OFU4kgGTc.jpg?ava=1,https://vk.com/images/places/place.png,59.937643,30.389737,4471029,4471029,‚Ä¢‚óè–•–∏–º—á–∏—Å—Ç–∫–∞ –≤ –°–∞–Ω–∫—Ç-–ü–µ—Ç–µ—Ä–±—É—Ä–≥–µ –ö–ª–∏–Ω –≠–∫—Å–ø–µ—Ä—Ç ‚óè‚Ä¢,21,1419339430.0
13,—É–ª–∏—Ü–∞ –ú–æ–∏—Å–µ–µ–Ω–∫–æ 20,2,,,1406946060,163,,,https://vk.com/images/places/place.png,59.938609,30.389085,9186034,9186034,–î–µ–≥—Ç—è—Ä–Ω—ã–π –ø–µ—Ä–µ—É–ª–æ–∫ 6,21,1528459582.0
14,,9,,,1467386953,175,,,https://vk.com/images/places/place.png,59.938655,30.384766,15378009,15378009,"–°–∞–Ω–∫—Ç-–ø–∏—Ç–µ—Ä–±—É—Ä–≥,",21,1534586719.0
15,187600,6,,,1423939395,177,,,https://vk.com/images/places/place.png,59.935971,30.386632,11000623,11000623,"–°–∞–Ω–∫—Ç-–ü–µ—Ç–µ—Ä–±—É—Ä–≥, –ù–æ–≤–≥–æ—Ä–æ–¥—Å–∫–∞—è, –¥. 13",21,1511467017.0
16,,3,,,1402704253,174,,,https://vk.com/images/places/place.png,59.938505,30.384533,8784217,8784217,–ù–æ—á–Ω–æ–π –ø–∏—Ç–µ—Ä,21,1510480997.0
17,,1,,,1485472689,182,,,https://vk.com/images/places/place.png,59.938472,30.384297,17253184,17253184,–î–µ–≥—Ç—è—Ä–Ω—ã–π –ø–µ—Ä–µ—É–ª–æ–∫ 11 –ë,21,1527594572.0
18,,3,,,1377887851,193,,,https://vk.com/images/places/place.png,59.93758,30.383543,6323894,6323894,"–ú–æ–∏—Å–µ–µ–Ω–∫–æ —É–ª, –¥.14",21,1501613304.0
19,–î–µ–≥—Ç—è—Ä–Ω—ã–π –ø–µ—Ä–µ—É–ª–æ–∫,1,,,1535986627,201,,,https://vk.com/images/places/place.png,59.939361,30.38662,21653277,21653277,–ö–æ–º–∏—Ç–µ—Ç –ø–æ –ø—Ä–æ–º—ã—à–ª–µ–Ω–Ω–æ–π –ø–æ–ª–∏—Ç–∏–∫–µ –∏ –∏–Ω–Ω–æ–≤–∞—Ü–∏—è–º –°–ü–±,21,1535986630.0
20,—É–ª–∏—Ü–∞ 10-—è –°–æ–≤–µ—Ç—Å–∫–∞—è,74,,,1453628180,298,,,https://vk.com/images/places/place.png,59.935578,30.383398,13956734,13956734,St. Petersburg St. Isaac's Cathedral,21,1537102016.0
21,"—É–ª–∏—Ü–∞ –ú–æ–∏—Å–µ–µ–Ω–∫–æ, 23, –¶–µ–Ω—Ç—Ä –æ—Å—Ç–µ–æ–ø–∞—Ç–∏–∏ –°–º–∏—Ä–Ω–æ–≤–∞ –í–∞–¥–∏–º–∞",3,2.0,1.0,1532710777,209,41981383.0,https://pp.userapi.com/c622822/v622822978/514a3/3jCIZF8d34w.jpg?ava=1,https://vk.com/images/places/place.png,59.937551,30.383258,12606377,12606377,–¶–µ–Ω—Ç—Ä –æ—Å—Ç–µ–æ–ø–∞—Ç–∏–∏ –°–º–∏—Ä–Ω–æ–≤–∞ –í–∞–¥–∏–º–∞ (–°–ü–±),21,1515056487.0
22,"—É–ª.–ú–æ–∏—Å–µ–µ–Ω–∫–æ, 39",3,,,1488900363,218,,,https://vk.com/images/places/place.png,59.937301,30.390915,17610736,17610736,–ê–Ω–≥–∞—Ä,21,1520518876.0
23,,10,,,1442487397,263,,,https://vk.com/images/places/place.png,59.935624,30.384282,12904885,12904885,"–≥.–°–∞–Ω–∫—Ç-–ø–µ—Ç–µ—Ä–±—É—Ä–≥,–Ω–∞–±–µ—Ä–µ–∂–Ω–∞—è —Ä–µ–∫–∏ –§–æ–Ω—Ç–∞–Ω–∫–∏",21,1536852302.0
24,–°–ü–±,2,,,1437823872,246,,,https://vk.com/images/places/place.png,59.935592,30.384989,12430316,12430316,"–ö–∏—Ä–∏–ª–ª–æ–≤—Å–∫–∞—è,17",21,1507719050.0
25,—É–ª–∏—Ü–∞ 10-—è –°–æ–≤–µ—Ç—Å–∫–∞—è,24,,,1453626578,313,,,https://vk.com/images/places/place.png,59.93541,30.383377,13956508,13956508,St. Petersburg Palace Square,21,1529851676.0
26,"—É–ª. –ú–æ–µ—Å–µ–µ–Ω–∫–æ 39 –∞, –∫—É–∑–Ω–∏—Ü–∞ –ú–∏–∫–æ–ª–∞ –∫—É–∑–Ω–µ—Ü",1,2.0,1.0,1532566268,257,82389772.0,https://pp.userapi.com/c623228/v623228976/132ec/9vP7NyGnbvA.jpg?ava=1,https://vk.com/images/places/place.png,59.936823,30.391407,10570035,10570035,–ö–æ–≤–∞–Ω—ã–µ –ø–æ–¥–∞—Ä–∫–∏ –∏ —Å—É–≤–µ–Ω–∏—Ä—ã –æ—Ç –∫—É–∑–Ω–∏—Ü—ã –≤ –°–ü–±,21,1447153387.0
27,"–°–æ–≤–µ—Ç—Å–∫–∞—è 10-—è —É–ª. –¥.18, –°—Ç—É–¥–∏—è –∑–≤—É–∫–æ–∑–∞–ø–∏—Å–∏ –ê–Ω—Ç–∞–Ω–¥–∞",15,2.0,1.0,1532569328,292,49290256.0,https://pp.userapi.com/c836435/v836435465/5d50/66w-ZxQZkAg.jpg?ava=1,https://vk.com/images/places/place.png,59.936111,30.382631,4765632,4765632,–°—Ç—É–¥–∏—è –∑–≤—É–∫–æ–∑–∞–ø–∏—Å–∏ - –ú–∞—Å—Ç–µ—Ä—Å–∫–∞—è –∑–≤—É–∫–∞(–ê–ù–¢–ê–ù–î–ê),21,1528620865.0
28,"–ö–∏—Ä–∏–ª–ª–æ–≤—Å–∫–∞—è —É–ª–∏—Ü–∞, 18",1,,,1494282113,275,,,https://vk.com/images/places/place.png,59.936045,30.38311,18112111,18112111,"–¢–æ–±i –øi–∑–¥–∞, –±–µ–≥i",21,1502744249.0
29,"—É–ª–∏—Ü–∞ –ú–æ–∏—Å–µ–µ–Ω–∫–æ, 41",3,,,1501613424,297,,,https://vk.com/images/places/place.png,59.937426,30.392351,18738219,18738219,–°–∞–Ω–∫—Ç-–ü–µ—Ç–µ—Ä–±—É—Ä–≥ —É–ª –º–æ–∏—Å–µ–µ–Ω–∫–æ 27,21,1534844703.0
30,10 —Å–æ–≤–µ—Ç—Å–∫–∞—è –¥.18,1,,,1487947718,300,,,https://vk.com/images/places/place.png,59.936079,30.382501,17513846,17513846,–∞–Ω—Ç–∞–Ω–¥–∞ rec.,21,1487947722.0
31,—É–ª–∏—Ü–∞ –ö–∏—Ä–∏–ª–ª–æ–≤—Å–∫–∞—è 16,1,,,1425952961,304,,,https://vk.com/images/places/place.png,59.936073,30.382438,11221936,11221936,–ú–∞—è–∫–æ–≤—Å–∫–∞—è 37,21,1425952970.0
32,,7,,,1500944646,330,,,https://vk.com/images/places/place.png,59.936251,30.381683,18678531,18678531,–°–æ—Å–Ω–æ–≤—ã–π –ë–æ—Ä –≥–æ—Ä–æ–¥,21,1533491604.0
33,—É–ª–∏—Ü–∞ –ù–æ–≤–≥–æ—Ä–æ–¥—Å–∫–∞—è 8,4,,,1462741489,324,,,https://vk.com/images/places/place.png,59.934864,30.384799,14914977,14914977,–ù–æ–≤–≥–æ—Ä–æ–¥—Å–∫–∞—è —É–ª–∏—Ü–∞ 8,21,1525544539.0
34,"–°–æ–≤–µ—Ç—Å–∫–∞—è 10-—è —É–ª, 17, –∫–≤ 20",9,2.0,1.0,1532565914,351,75277383.0,https://pp.userapi.com/c618124/v618124138/11084/_253Zrxp7AM.jpg?ava=1,https://vk.com/images/places/place.png,59.936079,30.381445,9224233,9224233,–º—É–∑–µ–π-–∫–≤–∞—Ä—Ç–∏—Ä–∞ –ê–ª–ª–∏–ª—É–µ–≤—ã—Ö,21,1536514297.0
35,"—É–ª. –ú–æ–∏—Å–µ–µ–Ω–∫–æ, 41",5,,,1457084543,347,,,https://vk.com/images/places/place.png,59.937012,30.393175,14329834,14329834,–º–æ–∏—Å–µ–Ω–∫–æ 41,21,1527683475.0
36,—É–ª–∏—Ü–∞ –ö–∏—Ä–∏–ª–ª–æ–≤—Å–∫–∞—è 16,5,,,1395171102,352,,,https://vk.com/images/places/place.png,59.935446,30.382292,8024371,8024371,10 —Å–æ–≤–µ—Ç—Å–∫–∞—è 21,21,1496864627.0
37,"–ú–æ–∏—Å–µ–µ–Ω–∫–æ —É–ª., 43",3,2.0,1.0,1532578767,348,131731391.0,https://pp.userapi.com/c840231/v840231685/a2b4/e7PgrtetFfk.jpg?ava=1,https://vk.com/images/places/place.png,59.937396,30.393279,16488512,16488512,–ö–æ–≤—Ä–∏–∫–∏ WoodRoom luxury,21,1484156847.0
38,–°–∏–Ω–æ–ø—Å–∫–∞—è –Ω–∞–±–µ—Ä–µ–∂–Ω–∞—è –¥. 72,2,,,1375449062,382,,,https://vk.com/images/places/place.png,59.937119,30.393829,6109368,6109368,–£ —Ç–µ—Ç–∏),21,1482080193.0
39,"Forshe, –û–ü–ì",0,314.0,2.0,1532561412,19,59983190.0,https://pp.userapi.com/c636625/v636625605/2c6ce/2fp41h3ahOk.jpg?ava=1,https://vk.com/images/places/place.png,59.937382,30.386943,7094341,7094341,Forshe,21,
40,"–ì–û–í–ù–û–ß–ê–¢–°–ö–ê–Ø –£–õ–ò–¶–ê, –ì–û–í–ù–û",0,2.0,1.0,1532579711,19,112651565.0,https://pp.userapi.com/c628729/v628729187/324e8/8aqqoOsJ-3Y.jpg?ava=1,https://vk.com/images/places/place.png,59.937382,30.386943,13952861,13952861,–ì–û–í–ù–û–ß–ê–¢ –ê–≤–∞—Ç–∞—Ä–∏–∏,21,
41,"Flow Agency, Flow Agency - –º–∞—Ä–∫–µ—Ç–∏–Ω–≥–æ–≤–æ–µ –∞–≥–µ–Ω—Ç—Å—Ç–≤–æ",0,2.0,1.0,1533722885,52,161910208.0,https://pp.userapi.com/c846124/v846124296/8bb2c/zR7VdTzAapE.jpg?ava=1,https://vk.com/images/places/place.png,59.937734,30.387904,20252203,20252203,Flow Agency,21,
42,"–ú–æ–∏—Å–µ–µ–Ω–∫–æ –¥.22 —Ç–µ–ª. 8904-553-31-01, –û–û–û""–ê–ª—å–ø–∞—Å""",0,2.0,1.0,1532562515,52,90891799.0,https://pp.userapi.com/c623920/v623920444/292d7/LuZkiPrygbA.jpg?ava=1,https://vk.com/images/places/place.png,59.937734,30.387904,11422788,11422788,–¢—Ä—É–¥–æ–≤–æ–π –ø–∞—Ç–µ–Ω—Ç –≤ –°–ü–±,21,1494823913.0
43,"–ú–æ–∏—Å–µ–µ–Ω–∫–æ —É–ª. –¥. 39, –†–µ–∑–∫–∞ –ü–ª–æ—Ç–µ—Ä–æ–º | –ü–ª–æ—Ç—Ç–µ—Ä–Ω–∞—è —Ä–µ–∑–∫–∞ –≤ –°–ø–±",0,2.0,1.0,1532572407,62,76729541.0,https://pp.userapi.com/c840024/v840024488/365cd/kqlAleQ8kR4.jpg?ava=1,https://vk.com/images/places/place.png,59.93731,30.38803,14452795,14452795,–ü–ª–æ—Ç—Ç–µ—Ä–Ω–∞—è —Ä–µ–∑–∫–∞ –≤ –°–ø–±,21,
44,–ú–æ–∏—Å–µ–µ–Ω–∫–æ —É–ª. –¥.39,0,2.0,1.0,1532568687,62,61629620.0,https://pp.userapi.com/c841321/v841321784/775b8/8sW2Rcvxbu4.jpg?ava=1,https://vk.com/images/places/place.png,59.93731,30.38803,7540413,7540413,"–û–û–û""–ê–î–í–ï–†–¢–ö–ê"" | –†–µ–∫–ª–∞–º–Ω–æ–µ –ø—Ä–æ–∏–∑–≤–æ–¥—Å—Ç–≤–æ",21,
45,–ú–æ–∏—Å–µ–µ–Ω–∫–æ —É–ª. –¥. 39,0,2.0,1.0,1532559470,62,71820629.0,https://pp.userapi.com/c844417/v844417180/2a4c/UxcVx_IdV8I.jpg?ava=1,https://vk.com/images/places/place.png,59.93731,30.38803,8592606,8592606,–ë—É–∫–≤—ã –∏–∑ –ø–µ–Ω–æ–ø–ª–∞—Å—Ç–∞,21,
46,"–ù–æ–≤–≥–æ—Ä–æ–¥—Å–∫–∞—è —É–ª., 18",0,2.0,1.0,1532577385,66,143631452.0,https://pp.userapi.com/c836133/v836133633/3a4f5/wI-vj2mHKsM.jpg?ava=1,https://vk.com/images/places/place.png,59.937056,30.386383,17988115,17988115,Baby pranks - –æ–Ω–ª–∞–π–Ω –º–∞–≥–∞–∑–∏–Ω –¥–µ—Ç—Å–∫–∏—Ö —Ç–æ–≤–∞—Ä–æ–≤,21,
47,–ù–æ–≤–≥–æ—Ä–æ–¥—Å–∫–∞—è —É–ª.,0,2.0,1.0,1532562760,72,73872160.0,https://vk.com/images/community_50.png?ava=1,https://vk.com/images/places/place.png,59.936913,30.387191,14979601,14979601,–°—É–≤–æ—Ä–æ–≤—Ü—ã 3 –†–î–ù,21,
48,"–ú–æ–∏—Å–µ–µ–Ω–∫–æ —É–ª., 22",0,2.0,1.0,1532566727,98,86630261.0,https://pp.userapi.com/c623228/v623228499/17fae/yxPQBS2JmYA.jpg?ava=1,https://vk.com/images/places/place.png,59.937571,30.385263,13192156,13192156,"–ê—Ä—Ç-–ú–∞—Å—Ç–µ—Ä—Å–∫–∞—è ""–ê–Ω—Ç–∏–∫–≤–∞""",21,
49,"–ú–æ–∏—Å–µ–µ–Ω–∫–æ —É–ª., –°–∞–Ω–∫—Ç-–ü–µ—Ç–µ—Ä–±—É—Ä–≥, –¥. 43",0,2.0,1.0,1532570045,98,39510647.0,https://pp.userapi.com/c848624/v848624922/e6fc/UzNNib4yem4.jpg?ava=1,https://vk.com/images/places/place.png,59.937571,30.385263,3544981,3544981,–ö–û–ù–¶–ï–ü–¢ –ø—Å–∏—Ö–æ–ª–æ–≥–∏–∏,21,
50,"–ú–æ–∏—Å–µ–µ–Ω–∫–æ —É–ª., –¥. 22",0,2.0,1.0,1532580118,98,126102063.0,https://pp.userapi.com/c631629/v631629628/4c52b/woQEWliZorA.jpg?ava=1,https://vk.com/images/places/place.png,59.937571,30.385263,15656849,15656849,–ê–°–ì –°—Ç—Ä–∞—Ö–æ–≤–∞–Ω–∏–µ,21,
51,"—É–ª–∏—Ü–∞ –ú–æ–∏—Å–µ–µ–Ω–∫–æ, 22–ë, –æ—Ñ–∏—Å 12, Taxi Racer",0,2.0,1.0,1532579587,105,147895123.0,https://pp.userapi.com/c841632/v841632160/c13e/zUAMPIbAQz0.jpg?ava=1,https://vk.com/images/places/place.png,59.937968,30.38873,18546492,18546492,Taxi Racer. –ü–æ–¥–∫–ª—é—á–µ–Ω–∏–µ –∫ —Å–ª—É–∂–±–∞–º —Ç–∞–∫—Å–∏,21,
52,"–ú–æ–∏—Å–µ–µ–Ω–∫–æ —É–ª., –¥. 43, –æ—Ñ –ê2-22",0,2.0,1.0,1532563233,117,43798662.0,https://pp.userapi.com/RY7wA8VLdPDdNUFEFB_9iFMV2gjd3JCHOGe_ew/ZF-MOALIGog.jpg?ava=1,https://vk.com/images/places/place.png,59.937468,30.384913,3613138,3613138,"–ê–ù ""–ì—Ä—É–ø–ø–∞ –ø–∞—Ä—É—Å"" —Ñ–∏–ª–∏–∞–ª –≤ –°–∞–Ω–∫—Ç-–ü–µ—Ç–µ—Ä–±—É—Ä–≥–µ",21,
53,"–ú–æ–∏—Å–µ–µ–Ω–∫–æ —É–ª., –ù–∞—à –ê–¥—Ä–µ—Å",0,2.0,1.0,1364637604,117,51802826.0,https://vk.com/images/community_50.png?ava=1,https://vk.com/images/places/home.png,59.937468,30.384913,5033755,5033755,—Å—Ç–æ,1,
54,—É–ª–∏—Ü–∞ –ú–æ–∏—Å–µ–µ–Ω–∫–æ,0,,,1467538689,118,,,https://vk.com/images/places/place.png,59.937779,30.389099,15391147,15391147,Beautylab by JR SPb,21,1467538698.0
55,"""–ü–°–ë ""–ñ–ò–õ–°–¢–†–û–ô"", ""–ü–°–ë –ñ–ò–õ–°–¢–†–û–ô""",0,2.0,1.0,1532581204,145,129403040.0,https://pp.userapi.com/c837624/v837624875/177a/wvpHlN377AY.jpg?ava=1,https://vk.com/images/places/place.png,59.936458,30.385613,16155910,16155910,"""–ü–°–ë ""–ñ–ò–õ–°–¢–†–û–ô""",21,
56,"–¶–ï–ù–¢–† –ü–û–ú–û–©–ò –ú–ò–ì–†–ê–ù–¢–ê–ú –í –°–ê–ù–ö–¢-–ü–ï–¢–ï–†–ë–£–†–ì–ï, –¶–ï–ù–¢–† –ü–û–ú–û–©–ò –ú–ò–ì–†–ê–ù–¢–ê–ú –í –°–ê–ù–ö–¢-–ü–ï–¢–ï–†–ë–£–†–ì–ï –ò –õ–ï–ù–ò–ì–†–ê–î–°–ö–û–ô –û–ë–õ–ê–°–¢–ò",0,2.0,1.0,1532578803,150,153092460.0,https://pp.userapi.com/c840524/v840524838/8368/FexQrFHtwDA.jpg?ava=1,https://vk.com/images/places/place.png,59.938703,30.38847,19020918,19020918,–¶–ï–ù–¢–† –ü–û–ú–û–©–ò –ú–ò–ì–†–ê–ù–¢–ê–ú –í –°–ê–ù–ö–¢-–ü–ï–¢–ï–†–ë–£–†–ì–ï,21,
57,"Laserday. –ù–∞—Ä—É–∂–Ω–∞—è —Ä–µ–∫–ª–∞–º–∞. –ë–µ–≥—É—â–∏–µ —Å—Ç—Ä–æ–∫–∏, –°–∞–Ω–∫—Ç-–ü–µ—Ç–µ—Ä–±—É—Ä–≥, —É–ª.–ù–æ–≤–≥–æ—Ä–æ–¥—Å–∫–∞—è –¥.13",0,2.0,1.0,1532567617,150,62785032.0,https://pp.userapi.com/c620327/v620327371/e44c/xqO2G3LgbGw.jpg?ava=1,https://vk.com/images/places/place.png,59.93621,30.387266,9638959,9638959,Laserday. –ù–∞—Ä—É–∂–Ω–∞—è —Ä–µ–∫–ª–∞–º–∞. –ë–µ–≥—É—â–∏–µ —Å—Ç—Ä–æ–∫–∏,21,
58,"Ulitsa Antonova-Ovseyenko, 25",0,,,1533240882,156,,,https://vk.com/images/places/place.png,59.936871,30.384568,21505135,21505135,–ö–∏—Ä–∏–ª–æ–≤—Å–∫–∞—è 21,21,
59,"–ö–∏—Ä–∏–ª–ª–æ–≤—Å–∫–∞—è —É–ª., –¥. 21, –°–∞–Ω–∫—Ç-–ü–µ—Ç–µ—Ä–±—É—Ä–≥",0,2.0,1.0,1532574243,163,57940508.0,https://pp.userapi.com/yfgLwzBzaDSFAf8KeQDyV4ogP3s7WnQbLsrNFw/kTVQGJDMjjY.jpg?ava=1,https://vk.com/images/places/place.png,59.936801,30.384499,6352854,6352854,"–°–º–∞–∑–æ—á–Ω—ã–µ –º–∞—Ç–µ—Ä–∏–∞–ª—ã PETRO-CANADA, CHEVRON,TEXACO",21,
60,"—É–ª. –ú–æ–∏—Å–µ–µ–Ω–∫–æ, 25",0,,,1443900213,177,,,https://vk.com/images/places/place.png,59.937495,30.383844,13036784,13036784,"—É–ª. –ú–æ–∏—Å–µ–µ–Ω–∫–æ, 25",21,1443900221.0
61,"—É–ª–∏—Ü–∞ –ú–æ–∏—Å–µ–µ–Ω–∫–æ, 24–ê, –ì–∞–ª–µ–Ω–æ–§–∞—Ä–º¬Æ",0,2.0,1.0,1534418008,194,34490417.0,https://sun9-2.userapi.com/c831308/v831308521/c1e65/4b0t0tkTiZg.jpg?ava=1,https://vk.com/images/places/place.png,59.937792,30.390476,21479026,21479026,–ì–∞–ª–µ–Ω–æ–§–∞—Ä–º,21,
62,"–ö–∏—Ä–∏–ª–ª–æ–≤—Å–∫–∞—è —É–ª–∏—Ü–∞, –ë–¶ –í–æ—Å—Ö–æ–¥",0,2.0,1.0,1533044327,197,74404396.0,https://pp.userapi.com/c638022/v638022480/4cd8b/voWo_7mtWpg.jpg?ava=1,https://vk.com/images/places/place.png,59.936633,30.383992,9057531,9057531,"–í–Ω–µ–¥–æ—Ä–æ–∂–Ω—ã–π –∏–Ω—Ç–µ—Ä–Ω–µ—Ç-–º–∞–≥–∞–∑–∏–Ω ""Secura Pro""",21,
63,"–ù–æ–≤–≥–æ—Ä–æ–¥—Å–∫–∞—è —É–ª., –¥. 12–∞",0,2.0,1.0,1532566646,198,40709592.0,https://pp.userapi.com/XQ0JaPkB1QMvruV7351o5Hq2NBpyBuEC6FRrHg/gYBVnHInzi8.jpg?ava=1,https://vk.com/images/places/place.png,59.936079,30.38502,16733014,16733014,KUHNI-EXPO –ù–æ–≤–µ–π—à–∏–µ —Ç–µ—Ö–Ω–æ–ª–æ–≥–∏–∏ –¥–ª—è –í–∞—à–µ–π –∫—É—Ö–Ω–∏,21,
64,"–ö–∏—Ä–∏–ª–ª–æ–≤—Å–∫–∞—è —É–ª. 22, –ü–æ–º–µ—â–µ–Ω–∏–µ 5-–Ω",0,2.0,1.0,1532557967,216,8333655.0,https://pp.userapi.com/c450/g8333655/c_512428d8.jpg?ava=1,https://vk.com/images/places/place.png,59.936634,30.383601,3143501,3143501,–í –°–í–Ø–ó–ò –° –û–¢–ö–†–´–¢–ò–ï–ú –ú–ò–ù–ò –ì–û–°–¢–ò–ù–ò–¶ ( –û–¢–ï–õ–¨ ) –ê–ö–¶–ò,21,
65,"–ö–∏—Ä–∏–ª–ª–æ–≤—Å–∫–∞—è 17, –ü—É–Ω–∫—Ç –≤—ã–¥–∞—á–∏ –∑–∞–∫–∞–∑–∞",0,2.0,1.0,1533025237,228,88276002.0,https://pp.userapi.com/c824501/v824501836/1978d3/cAeUt5qQVp8.jpg?ava=1,https://vk.com/images/places/place.png,59.936242,30.383862,19547842,19547842,#FUTBOLKISPB,21,
66,"–°–∞–Ω–∫—Ç-–ü–µ—Ç–µ—Ä–±—É—Ä–≥, –ú–æ–∏—Å–µ–µ–Ω–∫–æ —É–ª. 39",0,2.0,1.0,1532569378,242,48391964.0,https://pp.userapi.com/c626819/v626819059/476a/qTpXppZbWRY.jpg?ava=1,https://vk.com/images/places/place.png,59.936471,30.390792,7696197,7696197,SPBprint.net,21,
67,"–ù–æ–≤–≥–æ—Ä–æ–¥—Å–∫–∞—è —É–ª–∏—Ü–∞, 13",0,,,1505394949,255,,,https://vk.com/images/places/place.png,59.935376,30.388456,19072839,19072839,–ù–ü–§ –ó–∞–≤–æ–¥ –ò–∑–º–µ—Ä–æ–Ω,21,1505394952.0
68,–ú–æ—Ç–æ –†–µ–º–æ–Ω—Ç,0,2.0,1.0,1532563080,258,68829066.0,https://vk.com/images/community_50.png?ava=1,https://vk.com/images/places/place.png,59.936728,30.391363,8129318,8129318,–ú–æ—Ç–æ –†–µ–º–æ–Ω—Ç,21,
69,,0,,,1434996820,269,,,https://vk.com/images/places/place.png,59.936026,30.383276,12159741,12159741,–≥–¥–µ-—Ç–æ –Ω–∞ –ø–µ—Ç—Ä–æ–≥–µ,21,1434996834.0
70,"—É–ª–∏—Ü–∞ –ú–æ–∏—Å–µ–µ–Ω–∫–æ, 39A, –°–¢–£–î–ò–Ø –ë–õ–ï–°–ö–ê !!!",0,2.0,1.0,1532566479,275,95280613.0,https://pp.userapi.com/c639520/v639520465/1df05/AcqwFKOpDuo.jpg?ava=1,https://vk.com/images/places/place.png,59.937223,30.391923,17739603,17739603,–°–¢–£–î–ò–Ø –ë–õ–ï–°–ö–ê **–ü–û–õ–ò–†–û–í–ö–ê**–î–ï–¢–ï–ô–õ–ò–ù–ì**,21,1494842754.0
71,"10-—è –°–æ–≤–µ—Ç—Å–∫–∞—è, –¥–æ–º 20, –¢–û–†–¢–´ –∏ –ü–ò–†–û–ñ–ù–´–ï  –ù–ê –ó–ê–ö–ê–ó ""–ú–∞–º–∞ –õ–∏–∑—ã""",0,2.0,1.0,1532560220,283,74624353.0,https://pp.userapi.com/c847221/v847221970/28cdb/3BKy2fZQHS4.jpg?ava=1,https://vk.com/images/places/place.png,59.935809,30.383314,9099670,9099670,"–¢–æ—Ä—Ç—ã  –Ω–∞ –∑–∞–∫–∞–∑  ""–ú–∞–º–∞ –õ–∏–∑—ã"" –°–ü–± (–ü–∏—Ç–µ—Ä, —Ü–µ–Ω—Ç—Ä)",21,
72,10 —è —Å–æ–≤–µ—Ç—Å–∫–∞—è 18 –∏–ª–∏ –ö–∏—Ä–∏–ª–ª–æ–≤—Å–∫–∞—è 18,0,,,1444590292,291,,,https://vk.com/images/places/place.png,59.93599,30.382817,13100005,13100005,–ö—Å—é—à–∫–∏–Ω –¥–æ–º ),21,1444590314.0
73,"–ù–æ–≤–æ–ª–∏—Ç–æ–≤—Å–∫–∞—è —É–ª–∏—Ü–∞, 15–ª–∏—Ç–ë",0,,,1487947551,293,,,https://vk.com/images/places/place.png,59.936084,30.382651,17513825,17513825,10 —Å–æ–≤–µ—Ç—Å–∫–∞—è,21,1487947556.0
74,–ö–∏—Ä–∏–ª–ª–æ–≤—Å–∫–∞—è —É–ª–∏—Ü–∞,0,,,1452884963,304,,,https://vk.com/images/places/place.png,59.936073,30.382438,13879705,13879705,–§–∏—Ç–Ω–µ—Å 24 –Ω–æ–≤–æ-—Ä—ã–±–∏–Ω—Å–∫–∞—è,21,
75,"—É–ª–∏—Ü–∞ –ú–æ–∏—Å–µ–µ–Ω–∫–æ, 39–ê–ì, –¶–µ–Ω—Ç—Ä–∞–ª—å–Ω—ã–π-1",0,2.0,1.0,1534794203,304,117220101.0,https://pp.userapi.com/c841028/v841028381/4fe83/PxelHj4wNnQ.jpg?ava=1,https://vk.com/images/places/place.png,59.936535,30.392086,19747668,19747668,"–î–µ—Ç—Å–∫–æ-—é–Ω–æ—à–µ—Å–∫–∞—è —Ñ—É—Ç–±–æ–ª—å–Ω–∞—è —à–∫–æ–ª–∞ ""–î–µ–ª—å—Ç–∞""",21,1526130719.0
76,—É–ª–∏—Ü–∞ –°–æ–≤–µ—Ç—Å–∫–∞—è 10-—è 23,0,,,1379686339,307,,,https://vk.com/images/places/place.png,59.935107,30.384467,6487151,6487151,–°–º–æ–ª—å–Ω–∏–Ω—Å–∫–∏–π –ê–≤—Ç–æ—Ü–µ–Ω—Ç—Ä,21,1398273647.0
77,"–ö–∏—Ä–∏–ª–ª–æ–≤—Å–∫–∞—è —É–ª., –º.–ü–ª–æ—â–∞–¥—å –í–æ—Å—Ç–∞–Ω–∏—è",0,2.0,1.0,1532573739,308,44970442.0,https://pp.userapi.com/hch4BIBmnq8C_wVFdaqTj3J4JTZA5_vCMdXbVw/af6y3op-id0.jpg?ava=1,https://vk.com/images/places/place.png,59.935674,30.382963,3937875,3937875,–°–∞—Ö–∞—Ä–Ω–∞—è —ç–ø–∏–ª—è—Ü–∏—è –®—É–≥–∞—Ä–∏–Ω–≥ (–¥–∏–ø–∏–ª—è—Ü–∏—è —Å–∞—Ö–∞—Ä–Ω–æ–π –ø,21,1357416738.0
78,"–°–æ–±—Å—Ç–≤–µ–Ω–Ω—ã–π –ø—Ä–æ—Å–ø–µ–∫—Ç, 34",0,,,1488648786,308,,,https://vk.com/images/places/place.png,59.935003,30.384871,17585850,17585850,–º–æ–∏—Å–µ–µ–Ω–∫–æ,21,
79,–°–æ–≤–µ—Ç—Å–∫–∞—è 10-—è —É–ª. –î–æ–º 14,0,2.0,1.0,1532582039,311,151784687.0,https://pp.userapi.com/c836238/v836238236/6c2c5/9BIW7R9EpH4.jpg?ava=1,https://vk.com/images/places/place.png,59.936417,30.381921,18835893,18835893,–ú–∞–Ω–∏–∫—é—Ä —Å–ø–±,21,
80,"JDM Garage SPB „Éâ„É™„Éï„Éà „Ç¨„É¨„Éº„Ç∏, JDM Garage SPB Â†±„Ç¨„É¨„Éº„Ç∏",0,2.0,1.0,1532558698,323,19112049.0,https://pp.userapi.com/c824503/v824503343/ad629/du6ejfHoqQI.jpg?ava=1,https://vk.com/images/places/place.png,59.936769,30.39262,12116262,12116262,JDM Garage SPB „Éâ„É™„Éï„Éà „Ç¨„É¨„Éº„Ç∏,21,
81,—É–ª–∏—Ü–∞ 10-—è –°–æ–≤–µ—Ç—Å–∫–∞—è 17,0,,,1433416893,353,,,https://vk.com/images/places/place.png,59.935993,30.381491,12008283,12008283,–î–æ–º –ê–ª–ª–∏–ª—É–µ–≤—ã—Ö,21,1433416908.0
82,—É–ª. –ú–æ–∏—Å–µ–µ–Ω–∫–æ –¥. 43,0,2.0,1.0,1532570173,365,23803336.0,https://pp.userapi.com/c10760/g23803336/e_76d61584.jpg?ava=1,https://vk.com/images/places/place.png,59.937238,30.393554,3477106,3477106,–°—Ä–æ—á–Ω–æ–µ –∏–∑–≥–æ—Ç–æ–≤–ª–µ–Ω–∏–µ –ø–µ—á–∞—Ç–µ–π –ø–æ –æ—Ç—Ç–∏—Å–∫—É,21,
83,"–ú–æ–∏—Å–µ–µ–Ω–∫–æ —É–ª.43, ""Ext - Int""",0,2.0,1.0,1532580157,367,100815665.0,https://pp.userapi.com/c637330/v637330103/603a6/G93VeokaL90.jpg?ava=1,https://vk.com/images/places/place.png,59.937332,30.393599,12809820,12809820,"–ê—Ä—Ö–∏—Ç–µ–∫—Ç—É—Ä–Ω–æ–µ –∞—Ç–µ–ª—å–µ ""Ext - Int""",21,
84,–î–µ–≥—Ç—è—Ä–Ω—ã–π –ø–µ—Ä–µ—É–ª–æ–∫,1,,,1535986627,23,,,https://vk.com/images/places/place.png,59.939361,30.38662,21653277,21653277,–ö–æ–º–∏—Ç–µ—Ç –ø–æ –ø—Ä–æ–º—ã—à–ª–µ–Ω–Ω–æ–π –ø–æ–ª–∏—Ç–∏–∫–µ –∏ –∏–Ω–Ω–æ–≤–∞—Ü–∏—è–º –°–ü–±,21,1535986630.0
85,—É–ª–∏—Ü–∞ –ö–∏—Ä–æ—á–Ω–∞—è,4,,,1399438537,49,,,https://vk.com/images/places/place.png,59.93986,30.386821,8469394,8469394,–ì–µ–Ω–µ–∑–∏—Å —Ü–µ–Ω—Ç—Ä —Ä–µ–ø—Ä–æ–¥—É–∫—Ü–∏–∏,21,1533193209.0
86,,101,,,1440931993,101,,,https://vk.com/images/places/place.png,59.940133,30.385863,12744597,12744597,"–ü—Ä–∏–º–æ—Ä—Å–∫–æ–µ —à–æ—Å—Å–µ, –ö–æ–º–∞—Ä–æ–≤–æ, –°–∞–Ω–∫—Ç-–ü–µ—Ç–µ—Ä–±—É—Ä–≥, –†–æ—Å—Å–∏—è, 197733",21,1537106459.0
87,"–ö–∏—Ä–æ—á–Ω–∞—è —É–ª–∏—Ü–∞, 64",46,,,1391630477,140,,,https://vk.com/images/places/place.png,59.940666,30.386548,7655204,7655204,–ö–∏—Ä–æ—á–Ω–∞—è 64,21,1531168955.0
88,,3,,,1440511297,100,,,https://vk.com/images/places/place.png,59.940161,30.385957,12700196,12700196,—É–ª–∏—Ü–∞ –ë–∞–ª—á—É–≥ 1 –ú–æ—Å–∫–≤–∞ –†–æ—Å—Å–∏—è 115035,21,1507306040.0
89,"–î–µ–≥—Ç—è—Ä–Ω—ã–π –ø–µ—Ä., 11",104,,,1444140814,174,,,https://vk.com/images/places/place.png,59.939054,30.383978,13058524,13058524,–ù–µ–≤—Å–∫–∞—è —Ä–∞—Ç—É—à–∞,21,1536913272.0
90,—É–ª–∏—Ü–∞ –ù–æ–≤–≥–æ—Ä–æ–¥—Å–∫–∞—è 17,3,,,1448121421,115,,,https://vk.com/images/places/place.png,59.939139,30.389015,13430402,13430402,"–°–∞–Ω–∫—Ç-–ü–µ—Ç–µ—Ä–±—É—Ä–≥, —É–ª.–ì–∞–≤—Ä—Å–∫–∞—è,6",21,1487418513.0
91,—É–ª–∏—Ü–∞ –ù–æ–≤–≥–æ—Ä–æ–¥—Å–∫–∞—è,3,,,1368202142,126,,,https://vk.com/images/places/place.png,59.938643,30.388663,5448423,5448423,–†–î#13,21,1461747533.0
92,,25,,,1469252357,172,,,https://vk.com/images/places/place.png,59.940958,30.387586,15570956,15570956,–°–∞–Ω–∫—Ç-–ü–µ—Ç–µ—Ä–±—É—Ä–≥üôà‚ô•Ô∏è,21,1534181201.0
93,,9,,,1467386953,152,,,https://vk.com/images/places/place.png,59.938655,30.384766,15378009,15378009,"–°–∞–Ω–∫—Ç-–ø–∏—Ç–µ—Ä–±—É—Ä–≥,",21,1534586719.0
94,–ö–∏—Ä–æ—á–Ω–∞—è —É–ª. –¥–æ–º 64,3,2.0,1.0,1532575167,146,29872863.0,https://pp.userapi.com/1w19PQVvMkzDqMFPPeo7rishCMhZTMUsARnQXg/MENvQdbRFFs.jpg?ava=1,https://vk.com/images/places/place.png,59.940713,30.386431,3473848,3473848,"–®–∫–æ–ª–∞ —Ä–∏—Å–æ–≤–∞–Ω–∏—è ""–ê–†–¢–µ—Ä–∏—è""",21,1493233119.0
95,—É–ª–∏—Ü–∞ –ú–æ–∏—Å–µ–µ–Ω–∫–æ 20,2,,,1406946060,146,,,https://vk.com/images/places/place.png,59.938609,30.389085,9186034,9186034,–î–µ–≥—Ç—è—Ä–Ω—ã–π –ø–µ—Ä–µ—É–ª–æ–∫ 6,21,1528459582.0
96,,9,,,1480437413,159,,,https://vk.com/images/places/place.png,59.940632,30.385473,16758556,16758556,–ö–æ–Ω–Ω–æ–≥–≤–∞—Ä–¥–µ–π—Å–∫–∏–π –±—É–ª—å–≤–∞—Ä 21,21,1530218319.0
97,–î–µ–¥–æ–≤–∏—á–∏,1,,,1533899778,149,,,https://vk.com/images/places/place.png,59.938111,30.386504,21543481,21543481,–ü–æ–∫—Ä–æ–≤—Å–∫–∏–π —Ö—Ä–∞–º,21,1533899781.0
98,—É–ª–∏—Ü–∞ –ú–æ–∏—Å–µ–µ–Ω–∫–æ,6,,,1382600112,160,,,https://vk.com/images/places/place.png,59.938037,30.387803,6755243,6755243,–ú–æ–∏—Å–µ–µ–Ω–∫–æ –¥. 24,21,1530939975.0
99,,3,,,1402704253,172,,,https://vk.com/images/places/place.png,59.938505,30.384533,8784217,8784217,–ù–æ—á–Ω–æ–π –ø–∏—Ç–µ—Ä,21,1510480997.0
100,–î–µ–≥—Ç—è—Ä–Ω—ã–π –ø–µ—Ä–µ—É–ª–æ–∫ 28,6,,,1390612287,180,,,https://vk.com/images/places/place.png,59.939912,30.383933,7535967,7535967,Getto Centr,21,1461098296.0
101,—É–ª–∏—Ü–∞ –ö–∏—Ä–æ—á–Ω–∞—è 61,7,,,1372093436,182,,,https://vk.com/images/places/place.png,59.941059,30.386631,5830631,5830631,–†–µ–∑–∏–¥–µ–Ω—Ü–∏—è –Ω–∞ –ö–∏—Ä–æ—á–Ω–æ–π,21,1495462039.0
102,—É–ª–∏—Ü–∞ –ö–∏—Ä–æ—á–Ω–∞—è 61,4,,,1371845125,188,,,https://vk.com/images/places/place.png,59.941116,30.386621,5811397,5811397,–†–µ–∑–∏–¥–µ–Ω—Ü–∏—è –Ω–∞ –°—É–≤–æ—Ä–æ–≤—Å–∫–æ–º,21,1534939653.0
103,–î–µ–≥—Ç—è—Ä–Ω—ã–π –ø–µ—Ä–µ—É–ª–æ–∫ 28,1,,,1497610360,184,,,https://vk.com/images/places/place.png,59.939964,30.383882,18397001,18397001,–î–µ–≥—Ç—è—Ä–Ω—ã–π –ø–µ—Ä–µ—É–ª–æ–∫ 28,21,1530566442.0
104,,1,,,1485472689,185,,,https://vk.com/images/places/place.png,59.938472,30.384297,17253184,17253184,–î–µ–≥—Ç—è—Ä–Ω—ã–π –ø–µ—Ä–µ—É–ª–æ–∫ 11 –ë,21,1527594572.0
105,–°—É–≤–æ—Ä–æ–≤—Å–∫–∏–π 43,8,,,1377771373,198,,,https://vk.com/images/places/place.png,59.938841,30.383649,6310526,6310526,–ê–º—Å—Ç–µ—Ä–¥–∞–º —Å–∞–ª–æ–Ω –∫—Ä–∞—Å–æ—Ç—ã,21,1511129818.0
106,—É–ª–∏—Ü–∞ –ú–æ–∏—Å–µ–µ–Ω–∫–æ 14,7,,,1408269005,197,,,https://vk.com/images/places/place.png,59.938735,30.38376,9312567,9312567,"–ê–û–î–ö ""–ù–µ–≤—Å–∫–∞—è —Ä–∞—Ç—É—à–∞"" - SITE",21,1532279817.0
107,"–ú–æ–∏—Å–µ–µ–Ω–∫–æ —É–ª. 22, –§–∞–±—Ä–∏–∫–∞ –ë–µ–±–µ–ª—è",4,2.0,1.0,1532569394,194,40394408.0,https://vk.com/images/community_50.png?ava=1,https://vk.com/images/places/place.png,59.937734,30.387904,2767515,2767515,MUGGERS,21,1435302079.0
108,—É–ª–∏—Ü–∞ –ú–æ–∏—Å–µ–µ–Ω–∫–æ 22,6,,,1368455102,198,,,https://vk.com/images/places/place.png,59.937775,30.388365,5479383,5479383,Bercut,21,1419068460.0
109,–ö–∏—Ä–æ—á–Ω–∞—è 64,18,,,1441915419,224,,,https://vk.com/images/places/place.png,59.941007,30.384521,12851320,12851320,"–†–µ–∑–∏–¥–µ–Ω—Ü–∏—è –∫—Ä–∞—Å–æ—Ç—ã ""Versailles""",21,1537161771.0
110,"—É–ª–∏—Ü–∞ –ú–æ–∏—Å–µ–µ–Ω–∫–æ, 24–ê",4,2.0,1.0,1532559219,197,38225391.0,https://pp.userapi.com/c604722/v604722850/30539/AZN_UdB-7sQ.jpg?ava=1,https://vk.com/images/places/place.png,59.938998,30.390463,11293987,11293987,"–í–∏–ª–ª–∏ –º–∞—à–∏–Ω–∞. –ú–æ—Ç–æ—Ç—Ä–µ–Ω–∞–∂–µ—Ä, –°–ü–±",21,1509274368.0
111,"–ú–æ–∏—Å–µ–µ–Ω–∫–æ —É–ª., 22",1,,,1450256413,195,,,https://vk.com/images/places/place.png,59.937735,30.387969,13635220,13635220,"–ö–ì–ü ""–ë–µ–±–µ–ª—è"" (–ì–° ""–ê–∫–∞–¥–æ-–¢–µ–ª–µ–∫–æ–º"")",21,1450256422.0
112,—É–ª–∏—Ü–∞ –ú–æ–∏—Å–µ–µ–Ω–∫–æ 22,3,,,1513990294,207,,,https://vk.com/images/places/place.png,59.937573,30.387388,19764372,19764372,–º–æ–∏—Å–µ–µ–Ω–∫–æ 22,21,1522952829.0
113,–ú–æ–∏—Å–µ–µ–Ω–∫–æ 22–∞,4,2.0,1.0,1280742023,216,,,https://vk.com/images/places/restaraunt.png,59.937779,30.389099,1477,1477,–¢—Ä–æ–ø–∏–∫–∏,3,1533813459.0
114,,29,,,1404590337,282,,,https://vk.com/images/places/place.png,59.93758,30.383543,8962668,8962668,–ù–∞–±–µ—Ä–µ–∂–Ω–∞—è —Ä–µ–∫–∏ —Ñ–æ–Ω—Ç–∞–Ω–∫–∏ 21,21,1536585459.0
115,"–î–µ–≥—Ç—è—Ä–Ω—ã–π –ø–µ—Ä., 1/8",1,2.0,1.0,1532564669,219,31059804.0,https://pp.userapi.com/c625521/v625521014/1e3c0/KPKRbA4RJg0.jpg?ava=1,https://vk.com/images/places/place.png,59.939956,30.383233,2748825,2748825,–ú–∞—Å—Ç–µ—Ä—Å–∫–∞—è –ú–∞—Ç–ß–∞—Å—Ç—å,21,1516826630.0
116,—É–ª–∏—Ü–∞ –Ø—Ä–æ—Å–ª–∞–≤—Å–∫–∞—è 2,3,,,1482267996,236,,,https://vk.com/images/places/place.png,59.941536,30.386439,16937882,16937882,"–ê–ø—Ç–µ–∫–∞—Ä—Å–∫–∞—è –Ω–∞–±–µ—Ä–µ–∂–Ω–∞—è, 20",21,1486142795.0
117,Gastronom21,2,2.0,1.0,1500454257,242,150540633.0,https://pp.userapi.com/c824504/v824504115/54960/liCZPAAHosA.jpg?ava=1,https://vk.com/images/places/place.png,59.93731,30.38803,18634565,18634565,–ì–∞—Å—Ç—Ä–æ–Ω–æ–º 21,21,1514045680.0
118,—É–ª–∏—Ü–∞ –ù–æ–≤–≥–æ—Ä–æ–¥—Å–∫–∞—è 15,14,,,1388820080,269,,,https://vk.com/images/places/place.png,59.937123,30.388492,7346076,7346076,–ù–æ–≤–≥–æ—Ä–æ–¥—Å–∫–∞—è 13,21,1511512622.0
119,"–ù–æ–≤–≥–æ—Ä–æ–¥—Å–∫–∞—è —É–ª., 18",3,,,1446481322,251,,,https://vk.com/images/places/place.png,59.937186,30.386493,13273891,13273891,–Ω–æ–≤–≥–æ—Ä–æ–¥—Å–∫–∞—è –º–æ–∏—Å–µ–µ–Ω–∫–æ,21,1481741192.0
120,"–°–∞–Ω–∫—Ç-–ü–µ—Ç–µ—Ä–±—É—Ä–≥, —É–ª. –ú–æ–∏—Å–µ–µ–Ω–∫–æ –¥. 24, –•–∏–º—á–∏—Å—Ç–∫–∞ Clean-Expert",2,2.0,1.0,1532569010,249,48329352.0,https://sun9-4.userapi.com/c620324/v620324582/fc3d/O4OFU4kgGTc.jpg?ava=1,https://vk.com/images/places/place.png,59.937643,30.389737,4471029,4471029,‚Ä¢‚óè–•–∏–º—á–∏—Å—Ç–∫–∞ –≤ –°–∞–Ω–∫—Ç-–ü–µ—Ç–µ—Ä–±—É—Ä–≥–µ –ö–ª–∏–Ω –≠–∫—Å–ø–µ—Ä—Ç ‚óè‚Ä¢,21,1419339430.0
121,–î–µ–≥—Ç—è—Ä–Ω—ã–π –ø–µ—Ä–µ—É–ª–æ–∫ 26,1,,,1505044708,261,,,https://vk.com/images/places/place.png,59.940387,30.382739,19041942,19041942,"Pereulok Degtyarnyy 7, 191144 Sankt Petersburg",21,1523722702.0
122,,3,,,1377887851,282,,,https://vk.com/images/places/place.png,59.93758,30.383543,6323894,6323894,"–ú–æ–∏—Å–µ–µ–Ω–∫–æ —É–ª, –¥.14",21,1501613304.0
123,"—É–ª–∏—Ü–∞ –ú–æ–∏—Å–µ–µ–Ω–∫–æ, 23, –¶–µ–Ω—Ç—Ä –æ—Å—Ç–µ–æ–ø–∞—Ç–∏–∏ –°–º–∏—Ä–Ω–æ–≤–∞ –í–∞–¥–∏–º–∞",3,2.0,1.0,1532710777,295,41981383.0,https://pp.userapi.com/c622822/v622822978/514a3/3jCIZF8d34w.jpg?ava=1,https://vk.com/images/places/place.png,59.937551,30.383258,12606377,12606377,–¶–µ–Ω—Ç—Ä –æ—Å—Ç–µ–æ–ø–∞—Ç–∏–∏ –°–º–∏—Ä–Ω–æ–≤–∞ –í–∞–¥–∏–º–∞ (–°–ü–±),21,1515056487.0
124,"–î–µ–≥—Ç—è—Ä–Ω—ã–π –ø–µ—Ä–µ—É–ª–æ–∫, 1",3,,,1409083072,316,,,https://vk.com/images/places/place.png,59.938714,30.381518,9404181,9404181,"–î–µ–≥—Ç—è—Ä–Ω—ã–π –ø–µ—Ä–µ—É–ª–æ–∫, 1",21,1444130340.0
125,—É–ª–∏—Ü–∞ –ú–æ–∏—Å–µ–µ–Ω–∫–æ,7,,,1412456973,330,,,https://vk.com/images/places/place.png,59.937593,30.382367,9759616,9759616,–ö–∏—Ä–∏–ª–ª–æ–≤—Å–∫–∞—è 22,21,1488358340.0
126,187600,6,,,1423939395,385,,,https://vk.com/images/places/place.png,59.935971,30.386632,11000623,11000623,"–°–∞–Ω–∫—Ç-–ü–µ—Ç–µ—Ä–±—É—Ä–≥, –ù–æ–≤–≥–æ—Ä–æ–¥—Å–∫–∞—è, –¥. 13",21,1511467017.0
127,—É–ª–∏—Ü–∞ –ú–æ–∏—Å–µ–µ–Ω–∫–æ 8–í,3,,,1463315843,411,,,https://vk.com/images/places/place.png,59.937716,30.380481,14972177,14972177,–°–º–æ–ª—å–Ω–∏–Ω—Å–∫–∏–π –ø–∞—Ä–∫,21,1532716600.0
128,—É–ª–∏—Ü–∞ –ú–æ–∏—Å–µ–µ–Ω–∫–æ 8–í,1,,,1384687911,406,,,https://vk.com/images/places/place.png,59.937784,30.380506,6962935,6962935,–ë–µ—Ä–µ–Ω–¥–µ–µ–≤–æ,21,1468099573.0
129,"–¶–ï–ù–¢–† –ü–û–ú–û–©–ò –ú–ò–ì–†–ê–ù–¢–ê–ú –í –°–ê–ù–ö–¢-–ü–ï–¢–ï–†–ë–£–†–ì–ï, –¶–ï–ù–¢–† –ü–û–ú–û–©–ò –ú–ò–ì–†–ê–ù–¢–ê–ú –í –°–ê–ù–ö–¢-–ü–ï–¢–ï–†–ë–£–†–ì–ï –ò –õ–ï–ù–ò–ì–†–ê–î–°–ö–û–ô –û–ë–õ–ê–°–¢–ò",0,2.0,1.0,1532578803,114,153092460.0,https://pp.userapi.com/c840524/v840524838/8368/FexQrFHtwDA.jpg?ava=1,https://vk.com/images/places/place.png,59.938703,30.38847,19020918,19020918,–¶–ï–ù–¢–† –ü–û–ú–û–©–ò –ú–ò–ì–†–ê–ù–¢–ê–ú –í –°–ê–ù–ö–¢-–ü–ï–¢–ï–†–ë–£–†–ì–ï,21,
130,"—É–ª–∏—Ü–∞ –ú–æ–∏—Å–µ–µ–Ω–∫–æ, 22–ë, –æ—Ñ–∏—Å 12, Taxi Racer",0,2.0,1.0,1532579587,188,147895123.0,https://pp.userapi.com/c841632/v841632160/c13e/zUAMPIbAQz0.jpg?ava=1,https://vk.com/images/places/place.png,59.937968,30.38873,18546492,18546492,Taxi Racer. –ü–æ–¥–∫–ª—é—á–µ–Ω–∏–µ –∫ —Å–ª—É–∂–±–∞–º —Ç–∞–∫—Å–∏,21,
131,"Flow Agency, Flow Agency - –º–∞—Ä–∫–µ—Ç–∏–Ω–≥–æ–≤–æ–µ –∞–≥–µ–Ω—Ç—Å—Ç–≤–æ",0,2.0,1.0,1533722885,194,161910208.0,https://pp.userapi.com/c846124/v846124296/8bb2c/zR7VdTzAapE.jpg?ava=1,https://vk.com/images/places/place.png,59.937734,30.387904,20252203,20252203,Flow Agency,21,
132,"–ú–æ–∏—Å–µ–µ–Ω–∫–æ –¥.22 —Ç–µ–ª. 8904-553-31-01, –û–û–û""–ê–ª—å–ø–∞—Å""",0,2.0,1.0,1532562515,194,90891799.0,https://pp.userapi.com/c623920/v623920444/292d7/LuZkiPrygbA.jpg?ava=1,https://vk.com/images/places/place.png,59.937734,30.387904,11422788,11422788,–¢—Ä—É–¥–æ–≤–æ–π –ø–∞—Ç–µ–Ω—Ç –≤ –°–ü–±,21,1494823913.0
133,–î–µ–≥—Ç—è—Ä–Ω—ã–π –ø–µ—Ä–µ—É–ª–æ–∫,0,,,1371323664,198,,,https://vk.com/images/places/place.png,59.938841,30.383649,5764793,5764793,_____,21,1377903722.0
134,—É–ª–∏—Ü–∞ –ú–æ–∏—Å–µ–µ–Ω–∫–æ,0,,,1467538689,216,,,https://vk.com/images/places/place.png,59.937779,30.389099,15391147,15391147,Beautylab by JR SPb,21,1467538698.0
135,"Forshe, –û–ü–ì",0,314.0,2.0,1532561412,227,59983190.0,https://pp.userapi.com/c636625/v636625605/2c6ce/2fp41h3ahOk.jpg?ava=1,https://vk.com/images/places/place.png,59.937382,30.386943,7094341,7094341,Forshe,21,
136,"–ì–û–í–ù–û–ß–ê–¢–°–ö–ê–Ø –£–õ–ò–¶–ê, –ì–û–í–ù–û",0,2.0,1.0,1532579711,227,112651565.0,https://pp.userapi.com/c628729/v628729187/324e8/8aqqoOsJ-3Y.jpg?ava=1,https://vk.com/images/places/place.png,59.937382,30.386943,13952861,13952861,–ì–û–í–ù–û–ß–ê–¢ –ê–≤–∞—Ç–∞—Ä–∏–∏,21,
137,"–ú–æ–∏—Å–µ–µ–Ω–∫–æ —É–ª., –°–∞–Ω–∫—Ç-–ü–µ—Ç–µ—Ä–±—É—Ä–≥, –¥. 43",0,2.0,1.0,1532570045,228,39510647.0,https://pp.userapi.com/c848624/v848624922/e6fc/UzNNib4yem4.jpg?ava=1,https://vk.com/images/places/place.png,59.937571,30.385263,3544981,3544981,–ö–û–ù–¶–ï–ü–¢ –ø—Å–∏—Ö–æ–ª–æ–≥–∏–∏,21,
138,"–ú–æ–∏—Å–µ–µ–Ω–∫–æ —É–ª., 22",0,2.0,1.0,1532566727,228,86630261.0,https://pp.userapi.com/c623228/v623228499/17fae/yxPQBS2JmYA.jpg?ava=1,https://vk.com/images/places/place.png,59.937571,30.385263,13192156,13192156,"–ê—Ä—Ç-–ú–∞—Å—Ç–µ—Ä—Å–∫–∞—è ""–ê–Ω—Ç–∏–∫–≤–∞""",21,
139,"–ú–æ–∏—Å–µ–µ–Ω–∫–æ —É–ª., –¥. 22",0,2.0,1.0,1532580118,228,126102063.0,https://pp.userapi.com/c631629/v631629628/4c52b/woQEWliZorA.jpg?ava=1,https://vk.com/images/places/place.png,59.937571,30.385263,15656849,15656849,–ê–°–ì –°—Ç—Ä–∞—Ö–æ–≤–∞–Ω–∏–µ,21,
140,–ö–∏—Ä–æ—á–Ω–∞—è —É–ª. 62/1,0,2.0,1.0,1532560671,236,58315125.0,https://pp.userapi.com/c628024/v628024170/47aa/ywA8TRhmuWE.jpg?ava=1,https://vk.com/images/places/place.png,59.941114,30.384419,10417584,10417584,In Interior Studio,21,1526193276.0
141,—É–ª–∏—Ü–∞ –Ø—Ä–æ—Å–ª–∞–≤—Å–∫–∞—è 2,0,,,1426977251,242,,,https://vk.com/images/places/place.png,59.941588,30.386417,11335005,11335005,Torino-Savona,21,
142,"–ë–µ–ª–æ—Ä—É—Å—Å–∫–∞—è —É–ª., 14",0,,,1462813264,242,,,https://vk.com/images/places/place.png,59.941062,30.384136,14921490,14921490,–∫–∏—Ä–æ—á–Ω–∞—è —É–ª 24,21,1462813269.0
143,–ú–æ–∏—Å–µ–µ–Ω–∫–æ —É–ª. –¥.39,0,2.0,1.0,1532568687,242,61629620.0,https://pp.userapi.com/c841321/v841321784/775b8/8sW2Rcvxbu4.jpg?ava=1,https://vk.com/images/places/place.png,59.93731,30.38803,7540413,7540413,"–û–û–û""–ê–î–í–ï–†–¢–ö–ê"" | –†–µ–∫–ª–∞–º–Ω–æ–µ –ø—Ä–æ–∏–∑–≤–æ–¥—Å—Ç–≤–æ",21,
144,"–ú–æ–∏—Å–µ–µ–Ω–∫–æ —É–ª. –¥. 39, –†–µ–∑–∫–∞ –ü–ª–æ—Ç–µ—Ä–æ–º | –ü–ª–æ—Ç—Ç–µ—Ä–Ω–∞—è —Ä–µ–∑–∫–∞ –≤ –°–ø–±",0,2.0,1.0,1532572407,242,76729541.0,https://pp.userapi.com/c840024/v840024488/365cd/kqlAleQ8kR4.jpg?ava=1,https://vk.com/images/places/place.png,59.93731,30.38803,14452795,14452795,–ü–ª–æ—Ç—Ç–µ—Ä–Ω–∞—è —Ä–µ–∑–∫–∞ –≤ –°–ø–±,21,
145,–ú–æ–∏—Å–µ–µ–Ω–∫–æ —É–ª. –¥. 39,0,2.0,1.0,1532559470,242,71820629.0,https://pp.userapi.com/c844417/v844417180/2a4c/UxcVx_IdV8I.jpg?ava=1,https://vk.com/images/places/place.png,59.93731,30.38803,8592606,8592606,–ë—É–∫–≤—ã –∏–∑ –ø–µ–Ω–æ–ø–ª–∞—Å—Ç–∞,21,
146,–ø–µ—Ä–µ—É–ª–æ–∫ 26,0,,,1373618775,246,,,https://vk.com/images/places/place.png,59.940357,30.383012,5954704,5954704,–ò–Ω—Å—Ç–∏—Ç—É—Ç –æ—Ö—Ä–∞–Ω—ã –∏ —Ç—Ä—É–¥–∞,21,1373618780.0
147,"–ú–æ–∏—Å–µ–µ–Ω–∫–æ —É–ª., –ù–∞—à –ê–¥—Ä–µ—Å",0,2.0,1.0,1364637604,247,51802826.0,https://vk.com/images/community_50.png?ava=1,https://vk.com/images/places/home.png,59.937468,30.384913,5033755,5033755,—Å—Ç–æ,1,
148,"–º–æ–∏—Å–µ–µ–Ω–∫–æ 24 –∞, –§–∞—Ä–º–∞—Ü–µ–≤—Ç–∏—á–µ—Å–∫–∞—è —Ñ–∞–±—Ä–∏–∫–∞",0,2.0,1.0,1361996619,247,50331981.0,https://pp.userapi.com/c308527/v308527938/4fed/qZf_dYpXoLw.jpg?ava=1,https://vk.com/images/places/home.png,59.938536,30.391084,4798796,4798796,–ê–Ω—Ç–∏—Ü–µ–ª–ª—é–ª–∏—Ç–Ω–∞—è –ª–∏–Ω–∏—è –∫–æ—Å–º–µ—Ç–∏–∫–∏ –æ—Ç –ø—Ä–æ–∏–∑–≤–æ–¥–∏—Ç–µ–ª—è,1,
149,"–ú–æ–∏—Å–µ–µ–Ω–∫–æ —É–ª., –¥. 43, –æ—Ñ –ê2-22",0,2.0,1.0,1532563233,247,43798662.0,https://pp.userapi.com/RY7wA8VLdPDdNUFEFB_9iFMV2gjd3JCHOGe_ew/ZF-MOALIGog.jpg?ava=1,https://vk.com/images/places/place.png,59.937468,30.384913,3613138,3613138,"–ê–ù ""–ì—Ä—É–ø–ø–∞ –ø–∞—Ä—É—Å"" —Ñ–∏–ª–∏–∞–ª –≤ –°–∞–Ω–∫—Ç-–ü–µ—Ç–µ—Ä–±—É—Ä–≥–µ",21,
150,"—É–ª–∏—Ü–∞ –ú–æ–∏—Å–µ–µ–Ω–∫–æ, 24–ê, –ì–∞–ª–µ–Ω–æ–§–∞—Ä–º¬Æ",0,2.0,1.0,1534418008,264,34490417.0,https://sun9-2.userapi.com/c831308/v831308521/c1e65/4b0t0tkTiZg.jpg?ava=1,https://vk.com/images/places/place.png,59.937792,30.390476,21479026,21479026,–ì–∞–ª–µ–Ω–æ–§–∞—Ä–º,21,
151,"–ù–æ–≤–≥–æ—Ä–æ–¥—Å–∫–∞—è —É–ª., 18",0,2.0,1.0,1532577385,266,143631452.0,https://pp.userapi.com/c836133/v836133633/3a4f5/wI-vj2mHKsM.jpg?ava=1,https://vk.com/images/places/place.png,59.937056,30.386383,17988115,17988115,Baby pranks - –æ–Ω–ª–∞–π–Ω –º–∞–≥–∞–∑–∏–Ω –¥–µ—Ç—Å–∫–∏—Ö —Ç–æ–≤–∞—Ä–æ–≤,21,
152,"—É–ª. –ú–æ–∏—Å–µ–µ–Ω–∫–æ, 25",0,,,1443900213,278,,,https://vk.com/images/places/place.png,59.937495,30.383844,13036784,13036784,"—É–ª. –ú–æ–∏—Å–µ–µ–Ω–∫–æ, 25",21,1443900221.0
153,–ù–æ–≤–≥–æ—Ä–æ–¥—Å–∫–∞—è —É–ª.,0,2.0,1.0,1532562760,279,73872160.0,https://vk.com/images/community_50.png?ava=1,https://vk.com/images/places/place.png,59.936913,30.387191,14979601,14979601,–°—É–≤–æ—Ä–æ–≤—Ü—ã 3 –†–î–ù,21,
154,"Ulitsa Antonova-Ovseyenko, 25",0,,,1533240882,315,,,https://vk.com/images/places/place.png,59.936871,30.384568,21505135,21505135,–ö–∏—Ä–∏–ª–æ–≤—Å–∫–∞—è 21,21,
155,"–ö–∏—Ä–∏–ª–ª–æ–≤—Å–∫–∞—è —É–ª., –¥. 21, –°–∞–Ω–∫—Ç-–ü–µ—Ç–µ—Ä–±—É—Ä–≥",0,2.0,1.0,1532574243,324,57940508.0,https://pp.userapi.com/yfgLwzBzaDSFAf8KeQDyV4ogP3s7WnQbLsrNFw/kTVQGJDMjjY.jpg?ava=1,https://vk.com/images/places/place.png,59.936801,30.384499,6352854,6352854,"–°–º–∞–∑–æ—á–Ω—ã–µ –º–∞—Ç–µ—Ä–∏–∞–ª—ã PETRO-CANADA, CHEVRON,TEXACO",21,
156,"""–ü–°–ë ""–ñ–ò–õ–°–¢–†–û–ô"", ""–ü–°–ë –ñ–ò–õ–°–¢–†–û–ô""",0,2.0,1.0,1532581204,339,129403040.0,https://pp.userapi.com/c837624/v837624875/177a/wvpHlN377AY.jpg?ava=1,https://vk.com/images/places/place.png,59.936458,30.385613,16155910,16155910,"""–ü–°–ë ""–ñ–ò–õ–°–¢–†–û–ô""",21,
157,"–ú–æ–∏—Å–µ–µ–Ω–∫–æ —É–ª. 19, SPb",0,2.0,1.0,1536913992,342,171333674.0,https://sun9-4.userapi.com/c830709/v830709935/190c68/wyB4Vvr2ABw.jpg?ava=1,https://vk.com/images/places/place.png,59.937346,30.382496,21698863,21698863,5–∞ —à–∫–æ–ª–∞ 5 –¶–µ–Ω—Ç—Ä–∞–ª—å–Ω–æ–≥–æ —Ä–∞–π–æ–Ω–∞,21,
158,"Laserday. –ù–∞—Ä—É–∂–Ω–∞—è —Ä–µ–∫–ª–∞–º–∞. –ë–µ–≥—É—â–∏–µ —Å—Ç—Ä–æ–∫–∏, –°–∞–Ω–∫—Ç-–ü–µ—Ç–µ—Ä–±—É—Ä–≥, —É–ª.–ù–æ–≤–≥–æ—Ä–æ–¥—Å–∫–∞—è –¥.13",0,2.0,1.0,1532567617,358,62785032.0,https://pp.userapi.com/c620327/v620327371/e44c/xqO2G3LgbGw.jpg?ava=1,https://vk.com/images/places/place.png,59.93621,30.387266,9638959,9638959,Laserday. –ù–∞—Ä—É–∂–Ω–∞—è —Ä–µ–∫–ª–∞–º–∞. –ë–µ–≥—É—â–∏–µ —Å—Ç—Ä–æ–∫–∏,21,
159,—É–ª–∏—Ü–∞ –ú–æ–∏—Å–µ–µ–Ω–∫–æ 8–í,0,,,1433363695,422,,,https://vk.com/images/places/place.png,59.937981,30.380013,12004258,12004258,–£–ª.–ú–æ–∏—Å—Å–µ–µ–Ω–∫–æ –¥.8/10,21,
160,—É–ª–∏—Ü–∞ –ö–∏—Ä–æ—á–Ω–∞—è 61,4,,,1371845125,30,,,https://vk.com/images/places/place.png,59.941116,30.386621,5811397,5811397,–†–µ–∑–∏–¥–µ–Ω—Ü–∏—è –Ω–∞ –°—É–≤–æ—Ä–æ–≤—Å–∫–æ–º,21,1534939653.0
161,,25,,,1469252357,49,,,https://vk.com/images/places/place.png,59.940958,30.387586,15570956,15570956,–°–∞–Ω–∫—Ç-–ü–µ—Ç–µ—Ä–±—É—Ä–≥üôà‚ô•Ô∏è,21,1534181201.0
162,—É–ª–∏—Ü–∞ –ö–∏—Ä–æ—á–Ω–∞—è 61,7,,,1372093436,34,,,https://vk.com/images/places/place.png,59.941059,30.386631,5830631,5830631,–†–µ–∑–∏–¥–µ–Ω—Ü–∏—è –Ω–∞ –ö–∏—Ä–æ—á–Ω–æ–π,21,1495462039.0
163,"–ö–∏—Ä–æ—á–Ω–∞—è —É–ª–∏—Ü–∞, 64",46,,,1391630477,75,,,https://vk.com/images/places/place.png,59.940666,30.386548,7655204,7655204,–ö–∏—Ä–æ—á–Ω–∞—è 64,21,1531168955.0
164,—É–ª–∏—Ü–∞ –Ø—Ä–æ—Å–ª–∞–≤—Å–∫–∞—è 2,3,,,1482267996,41,,,https://vk.com/images/places/place.png,59.941536,30.386439,16937882,16937882,"–ê–ø—Ç–µ–∫–∞—Ä—Å–∫–∞—è –Ω–∞–±–µ—Ä–µ–∂–Ω–∞—è, 20",21,1486142795.0
165,–ö–∏—Ä–æ—á–Ω–∞—è —É–ª. –¥–æ–º 64,3,2.0,1.0,1532575167,73,29872863.0,https://pp.userapi.com/1w19PQVvMkzDqMFPPeo7rishCMhZTMUsARnQXg/MENvQdbRFFs.jpg?ava=1,https://vk.com/images/places/place.png,59.940713,30.386431,3473848,3473848,"–®–∫–æ–ª–∞ —Ä–∏—Å–æ–≤–∞–Ω–∏—è ""–ê–†–¢–µ—Ä–∏—è""",21,1493233119.0
166,,101,,,1440931993,144,,,https://vk.com/images/places/place.png,59.940133,30.385863,12744597,12744597,"–ü—Ä–∏–º–æ—Ä—Å–∫–æ–µ —à–æ—Å—Å–µ, –ö–æ–º–∞—Ä–æ–≤–æ, –°–∞–Ω–∫—Ç-–ü–µ—Ç–µ—Ä–±—É—Ä–≥, –†–æ—Å—Å–∏—è, 197733",21,1537106459.0
167,,9,,,1480437413,113,,,https://vk.com/images/places/place.png,59.940632,30.385473,16758556,16758556,–ö–æ–Ω–Ω–æ–≥–≤–∞—Ä–¥–µ–π—Å–∫–∏–π –±—É–ª—å–≤–∞—Ä 21,21,1530218319.0
168,–ö–∏—Ä–æ—á–Ω–∞—è 64,18,,,1441915419,143,,,https://vk.com/images/places/place.png,59.941007,30.384521,12851320,12851320,"–†–µ–∑–∏–¥–µ–Ω—Ü–∏—è –∫—Ä–∞—Å–æ—Ç—ã ""Versailles""",21,1537161771.0
169,,3,,,1440511297,139,,,https://vk.com/images/places/place.png,59.940161,30.385957,12700196,12700196,—É–ª–∏—Ü–∞ –ë–∞–ª—á—É–≥ 1 –ú–æ—Å–∫–≤–∞ –†–æ—Å—Å–∏—è 115035,21,1507306040.0
170,—É–ª–∏—Ü–∞ –ö–æ—Å—Ç—Ä–æ–º—Å–∫–∞—è 4,14,,,1405783458,164,,,https://vk.com/images/places/place.png,59.94254,30.388633,9074710,9074710,442 –û–∫—Ä—É–∂–Ω–æ–π –í–æ–µ–Ω–Ω—ã–π –ö–ª–∏–Ω–∏—á–µ—Å–∫–∏–π –ì–æ—Å–ø–∏—Ç–∞–ª—å,21,1528543563.0
171,"–°—É–≤–æ—Ä–æ–≤—Å–∫–∏–π –ø—Ä–æ—Å–ø–µ–∫—Ç, 63–ê",8,,,1472744706,164,,,https://vk.com/images/places/place.png,59.942545,30.385419,15950785,15950785,442-–π –í–æ–µ–Ω–Ω—ã–π –û–∫—Ä—É–∂–Ω–æ–π –≥–æ—Å–ø–∏—Ç–∞–ª—å,21,1529484103.0
172,"–ö–æ—Å—Ç—Ä–æ–º—Å–∫–∞—è —É–ª., 4",7,,,1431282566,163,,,https://vk.com/images/places/place.png,59.94224,30.389291,11797868,11797868,–∫–æ—Å—Ç—Ä–æ–º—Å–∫–∞—è —É–ª–∏—Ü–∞ 4,21,1520673262.0
173,—É–ª–∏—Ü–∞ –ö–∏—Ä–æ—á–Ω–∞—è,4,,,1399438537,160,,,https://vk.com/images/places/place.png,59.93986,30.386821,8469394,8469394,–ì–µ–Ω–µ–∑–∏—Å —Ü–µ–Ω—Ç—Ä —Ä–µ–ø—Ä–æ–¥—É–∫—Ü–∏–∏,21,1533193209.0
174,"–ù–æ–≤–≥–æ—Ä–æ–¥—Å–∫–∞—è —É–ª., 24–ê",1,,,1382260443,162,,,https://vk.com/images/places/place.png,59.942536,30.388583,6722760,6722760,–í–ú–ì 442,21,1417807985.0
175,"–°—É–≤–æ—Ä–æ–≤—Å–∫–∏–π –ø—Ä–æ—Å–ø., 63",15,,,1406929421,195,,,https://vk.com/images/places/place.png,59.942124,30.383928,9185605,9185605,—Å—É–≤–æ—Ä–æ–≤—Å–∫–∏–π –ø—Ä–æ—Å–ø–µ–∫—Ç –¥–æ–º 63,21,1524377913.0
176,—É–ª–∏—Ü–∞ –ù–æ–≤–≥–æ—Ä–æ–¥—Å–∫–∞—è,22,,,1421503377,211,,,https://vk.com/images/places/place.png,59.940896,30.390732,10722041,10722041,–ë–∏–∑–Ω–µ—Å —Ü–µ–Ω—Ç—Ä –ë–∞–∑–µ–ª—å,21,1535136871.0
177,—É–ª–∏—Ü–∞ –ö–æ—Å—Ç—Ä–æ–º—Å–∫–∞—è 4,7,,,1498296404,188,,,https://vk.com/images/places/place.png,59.942708,30.388893,18451745,18451745,–£–ª. –ö–æ—Å—Ç—Ä–æ–º—Å–∫–∞—è 4 –†–æ–¥–∏–ª—å–Ω—ã–π –¥–æ–º 13,21,1532160063.0
178,,1,,,1504089387,179,,,https://vk.com/images/places/place.png,59.940936,30.390161,18960637,18960637,"–¢–≤–µ—Ä—Å–∫–∞—è —É–ª., 10 –°—Ç—É–¥–∏—è –î—ã—Ö–∞–Ω–∏–µ –¢–µ–ª–∞",21,1504089395.0
179,"–ù–æ–≤–≥–æ—Ä–æ–¥—Å–∫–∞—è —É–ª–∏—Ü–∞, 23",2,,,1504515418,189,,,https://vk.com/images/places/place.png,59.940857,30.390306,18998352,18998352,—Å—É–ø–µ—Ä–º–∞—Ä–∫–µ—Ç –õ–µ–Ω—Ç–∞,21,1537130212.0
180,—É–ª–∏—Ü–∞ –ù–æ–≤–≥–æ—Ä–æ–¥—Å–∫–∞—è,3,,,1471272335,205,,,https://vk.com/images/places/place.png,59.941049,30.390679,15786793,15786793,–ë–∞–∑–µ–ª—å,21,1507560149.0
181,–°—É–≤–æ—Ä–æ–≤—Å–∫–∏–π –ø—Ä–æ—Å–ø–µ–∫—Ç 50-52,210,,,1367310255,294,,,https://vk.com/images/places/place.png,59.943708,30.384807,5344482,5344482,–ê—Ä–±–∏—Ç—Ä–∞–∂–Ω—ã–π —Å—É–¥ –≥–æ—Ä–æ–¥–∞ –°–∞–Ω–∫—Ç-–ü–µ—Ç–µ—Ä–±—É—Ä–≥–∞ –∏ –õ–µ–Ω–∏–Ω–≥—Ä–∞–¥—Å–∫–æ–π –æ–±–ª–∞—Å—Ç–∏,21,1537183089.0
182,"–°–ü–±, –ù–æ–≤–≥–æ—Ä–æ–¥—Å–∫–∞—è —É–ª–∏—Ü–∞ –¥–æ–º.23, –ë–¶ ""–ë–∞–∑–µ–ª—å"", 3 —ç—Ç–∞–∂, –æ—Ñ–∏—Å 344, –®–∫–æ–ª–∞ —Ç–∞–Ω—Ü–µ–≤ ""–≠–∫—Å–ø—Ä–æ–º—Ç""",3,2.0,1.0,1532558067,206,202876.0,https://pp.userapi.com/c824603/v824603560/182308/R7TIW5WPfGM.jpg?ava=1,https://vk.com/images/places/place.png,59.94079,30.39059,2829399,2829399,"–®–∫–æ–ª–∞ —Ç–∞–Ω—Ü–µ–≤ ""–≠–∫—Å–ø—Ä–æ–º—Ç"", —Ç–∞–Ω—Ü–µ–≤–∞–ª—å–Ω–∞—è —Å—Ç—É–¥–∏—è!",21,1519569099.0
183,"–°–ü–±, –ù–æ–≤–≥–æ—Ä–æ–¥—Å–∫–∞—è —É–ª., 23, –ë–¶ ""–ë–∞–∑–µ–ª—å"", —Ü–µ–Ω—Ç—Ä–∞–ª—å–Ω—ã–π –≤—Ö–æ–¥, 3 —ç—Ç–∞–∂., –®–∫–æ–ª–∞ —Ç–∞–Ω—Ü–µ–≤ ""–≠–∫—Å–ø—Ä–æ–º—Ç""",1,2.0,1.0,1532558736,206,10566094.0,https://pp.userapi.com/c636516/v636516149/1cc99/N1MfzLNDDMY.jpg?ava=1,https://vk.com/images/places/place.png,59.94079,30.39059,2177897,2177897,"–°–≤–∞–¥–µ–±–Ω—ã–π —Ç–∞–Ω–µ—Ü –∂–µ–Ω–∏—Ö–∞ –∏ –Ω–µ–≤–µ—Å—Ç—ã, –ø–æ—Å—Ç–∞–Ω–æ–≤–∫–∞",21,1374245454.0
184,"–°–ü–±, –ù–æ–≤–≥–æ—Ä–æ–¥—Å–∫–∞—è —É–ª., –¥–æ–º 23, –ë–¶ ""–ë–∞–∑–µ–ª—å"", 3 —ç—Ç–∞–∂, –æ—Ñ–∏—Å 344, –®–∫–æ–ª–∞ —Ç–∞–Ω—Ü–µ–≤ ""–≠–∫—Å–ø—Ä–æ–º—Ç""",1,2.0,1.0,1532558508,206,10554095.0,https://pp.userapi.com/c845220/v845220337/f854c/HrptI2miCVw.jpg?ava=1,https://vk.com/images/places/place.png,59.94079,30.39059,15771151,15771151,"–¢–∞–Ω—Ü—ã –¥–ª—è –¥–µ—Ç–µ–π —à–∫–æ–ª–∞! –î–µ—Ç—Å–∫–∏–µ —Ç–∞–Ω—Ü—ã, –∫—Ä—É–∂–∫–∏!",21,1481576131.0
185,"–Ω–æ–≤–≥–æ—Ä–æ–¥—Å–∫–∞—è 23, —á–µ—Ä–Ω—ã—à–µ–≤—Å–∫–∞—è",1,2.0,1.0,1532558652,206,13035133.0,https://pp.userapi.com/c840539/v840539993/21b94/bgOMwMbQUIQ.jpg?ava=1,https://vk.com/images/places/place.png,59.94079,30.39059,6210244,6210244,PILIM nail studio,21,1524515236.0
186,"–°–ü–±, –ù–æ–≤–≥–æ—Ä–æ–¥—Å–∫–∞—è —É–ª–∏—Ü–∞ –¥–æ–º.23, –ë–¶ ""–ë–∞–∑–µ–ª—å"", 3 —ç—Ç–∞–∂, –æ—Ñ–∏—Å 344, –®–∫–æ–ª–∞ —Ç–∞–Ω—Ü–µ–≤ ""–≠–∫—Å–ø—Ä–æ–º—Ç""",1,2.0,1.0,1532558709,206,10855713.0,https://pp.userapi.com/c850528/v850528083/913e/rk2drKPVDE4.jpg?ava=1,https://vk.com/images/places/place.png,59.94079,30.39059,15771146,15771146,"–®–ö–û–õ–ê –¢–ê–ù–¶–ê –ñ–ò–í–û–¢–ê. –í–æ—Å—Ç–æ—á–Ω—ã–π —Ç–∞–Ω–µ—Ü, —Å—Ç—É–¥–∏—è.",21,1509146198.0
187,"–î–µ–≥—Ç—è—Ä–Ω—ã–π –ø–µ—Ä., 11",104,,,1444140814,301,,,https://vk.com/images/places/place.png,59.939054,30.383978,13058524,13058524,–ù–µ–≤—Å–∫–∞—è —Ä–∞—Ç—É—à–∞,21,1536913272.0
188,—É–ª–∏—Ü–∞ –ù–æ–≤–≥–æ—Ä–æ–¥—Å–∫–∞—è,3,,,1471194275,213,,,https://vk.com/images/places/place.png,59.941443,30.39085,15777641,15777641,Teak house,21,1505721866.0
189,–î–µ–≥—Ç—è—Ä–Ω—ã–π –ø–µ—Ä–µ—É–ª–æ–∫,1,,,1535986627,216,,,https://vk.com/images/places/place.png,59.939361,30.38662,21653277,21653277,–ö–æ–º–∏—Ç–µ—Ç –ø–æ –ø—Ä–æ–º—ã—à–ª–µ–Ω–Ω–æ–π –ø–æ–ª–∏—Ç–∏–∫–µ –∏ –∏–Ω–Ω–æ–≤–∞—Ü–∏—è–º –°–ü–±,21,1535986630.0
190,—É–ª–∏—Ü–∞ –ù–æ–≤–≥–æ—Ä–æ–¥—Å–∫–∞—è 26,3,,,1424103690,224,,,https://vk.com/images/places/place.png,59.941634,30.391007,11018746,11018746,Soleans travel,21,1506410047.0
191,–î–µ–≥—Ç—è—Ä–Ω—ã–π –ø–µ—Ä–µ—É–ª–æ–∫ 28,6,,,1390612287,231,,,https://vk.com/images/places/place.png,59.939912,30.383933,7535967,7535967,Getto Centr,21,1461098296.0
192,—É–ª–∏—Ü–∞ –ö–∞–≤–∞–ª–µ—Ä–≥–∞—Ä–¥—Å–∫–∞—è,25,,,1439408102,282,,,https://vk.com/images/places/place.png,59.942841,30.382995,12588502,12588502,"–°–∞–Ω–∫—Ç-–ü–µ—Ç–µ—Ä–±—É—Ä–≥,–ù–µ–≤—Å–∫–∏–π –ø—Ä–æ—Å–ø–µ—Ä–∫ –¥–æ–º 60",21,1532118818.0
193,–î–µ–≥—Ç—è—Ä–Ω—ã–π –ø–µ—Ä–µ—É–ª–æ–∫ 28,1,,,1497610360,229,,,https://vk.com/images/places/place.png,59.939964,30.383882,18397001,18397001,–î–µ–≥—Ç—è—Ä–Ω—ã–π –ø–µ—Ä–µ—É–ª–æ–∫ 28,21,1530566442.0
194,–ù–∞–±. –†–µ–∫–∏ –§–æ–Ω—Ç–∞–Ω–∫–∏ 49–ê,79,,,1452374842,345,,,https://vk.com/images/places/place.png,59.941599,30.380853,13825897,13825897,"–ê–ª–µ–∫—Å–∞–Ω–¥—Ä–∏–π—Å–∫–∏–π —Ç–µ–∞—Ç—Ä, –ù–æ–≤–∞—è –°—Ü–µ–Ω–∞",21,1535722112.0
195,—É–ª–∏—Ü–∞ –ö–∏—Ä–æ—á–Ω–∞—è 55,3,,,1498152616,252,,,https://vk.com/images/places/place.png,59.941299,30.382482,18442065,18442065,–ú–æ—Ö–æ–≤–∞—è —É–ª–∏—Ü–∞ 30,21,1537130130.0
196,"–î–µ–≥—Ç—è—Ä–Ω—ã–π –ø–µ—Ä., 1/8",1,2.0,1.0,1532564669,258,31059804.0,https://pp.userapi.com/c625521/v625521014/1e3c0/KPKRbA4RJg0.jpg?ava=1,https://vk.com/images/places/place.png,59.939956,30.383233,2748825,2748825,–ú–∞—Å—Ç–µ—Ä—Å–∫–∞—è –ú–∞—Ç–ß–∞—Å—Ç—å,21,1516826630.0
197,–î–µ–≥—Ç—è—Ä–Ω—ã–π –ø–µ—Ä–µ—É–ª–æ–∫ 26,1,,,1505044708,259,,,https://vk.com/images/places/place.png,59.940387,30.382739,19041942,19041942,"Pereulok Degtyarnyy 7, 191144 Sankt Petersburg",21,1523722702.0
198,–°—É–≤–æ—Ä–æ–≤—Å–∫–∏–π 51,6,,,1482522529,282,,,https://vk.com/images/places/place.png,59.942841,30.382995,16959943,16959943,KiDo restaurant,21,1518879267.0
199,–°—É–≤–æ—Ä–æ–≤—Å–∫–∏–π –ø—Ä–æ—Å–ø–µ–∫—Ç 63,4,,,1394091772,278,,,https://vk.com/images/places/place.png,59.942593,30.38274,7910084,7910084,Carita,21,1493423388.0
200,—É–ª–∏—Ü–∞ –ö–∞–≤–∞–ª–µ—Ä–≥–∞—Ä–¥—Å–∫–∞—è,2,,,1448530743,281,,,https://vk.com/images/places/place.png,59.94282,30.382989,13469359,13469359,"–°–º–æ–ª—å–Ω—ã–π –ø—Ä–æ–µ–∑–¥, 1",21,1450443024.0
201,,3,,,1477380157,295,,,https://vk.com/images/places/place.png,59.943316,30.383567,16433621,16433621,–°—É–≤–æ—Ä–æ–≤—Å–∫–∏–π –ø—Ä–æ—Å–ø–µ–∫—Ç 50-52,21,1528534438.0
202,"–ö–∞–≤–∞–ª–µ—Ä–≥–∞—Ä–¥—Å–∫–∞—è —É–ª., 4",9,,,1385157181,313,,,https://vk.com/images/places/place.png,59.943241,30.382952,7010189,7010189,–∫–∞–≤–∞–ª–µ—Ä–≥–∞—Ä–¥—Å–∫–∞—è 4,21,1496835193.0
203,"–°—É–≤–æ—Ä–æ–≤—Å–∫–∏–π –ø—Ä–æ—Å–ø–µ–∫—Ç, 50-52",1,,,1534746025,295,,,https://vk.com/images/places/place.png,59.943642,30.384513,21587356,21587356,–ê—Ä–±–∏—Ç—Ä–∞–∂–Ω—ã–π —Å—É–¥,21,1534746028.0
204,"–°—É–≤–æ—Ä–æ–≤—Å–∫–∏–π –ø—Ä–æ—Å–ø–µ–∫—Ç, 61",4,,,1502881164,306,,,https://vk.com/images/places/place.png,59.94171,30.381578,18850805,18850805,–§—Ä–∞–Ω—á–µ—Å–∫–æ,21,1531044798.0
205,,9,,,1467386953,319,,,https://vk.com/images/places/place.png,59.938655,30.384766,15378009,15378009,"–°–∞–Ω–∫—Ç-–ø–∏—Ç–µ—Ä–±—É—Ä–≥,",21,1534586719.0
206,–°—É–≤–æ—Ä–æ–≤—Å–∫–∏–π –ø—Ä–æ—Å–ø–µ–∫—Ç 50-52,6,,,1484771256,318,,,https://vk.com/images/places/place.png,59.943851,30.384409,17179725,17179725,–ê—Ä–±–∏—Ç—Ä–∞–∂–Ω—ã–π —Å—É–¥ –°–∞–Ω–∫—Ç-–ü–µ—Ç–µ—Ä–±—É—Ä–≥–∞,21,1531385595.0
207,–°—É–≤–æ—Ä–æ–≤—Å–∫–∏–π –ø—Ä–æ—Å–ø–µ–∫—Ç 50,2,,,1490259886,308,,,https://vk.com/images/places/place.png,59.943818,30.384697,17745687,17745687,"–°–∞–Ω–∫—Ç-–ø–µ—Ç–µ—Ä–±—É—Ä–≥, —Å—É–≤–æ—Ä–æ–≤—Å–∫–∏–π –ø—Ä–æ—Å–ø–µ–∫—Ç",21,1529773272.0
208,–°—É–≤–æ—Ä–æ–≤—Å–∫–∏–π 43,8,,,1377771373,331,,,https://vk.com/images/places/place.png,59.938841,30.383649,6310526,6310526,–ê–º—Å—Ç–µ—Ä–¥–∞–º —Å–∞–ª–æ–Ω –∫—Ä–∞—Å–æ—Ç—ã,21,1511129818.0
209,,153,,,1496941575,442,,,https://vk.com/images/places/place.png,59.940101,30.379444,18341506,18341506,–§–∏–Ω—Å–∫–∏–π –∑–∞–ª–∏–≤ –ø.–†–µ–ø–∏–Ω–æ,21,1537183059.0
210,–°—É–≤–æ—Ä–æ–≤—Å–∫–∏–π –ø—Ä–æ—Å–ø–µ–∫—Ç,1,,,1532720248,320,,,https://vk.com/images/places/place.png,59.943924,30.384661,21461556,21461556,Agios Nikolaos Creece,21,1532720254.0
211,—É–ª–∏—Ü–∞ –ú–æ–∏—Å–µ–µ–Ω–∫–æ 14,7,,,1408269005,338,,,https://vk.com/images/places/place.png,59.938735,30.38376,9312567,9312567,"–ê–û–î–ö ""–ù–µ–≤—Å–∫–∞—è —Ä–∞—Ç—É—à–∞"" - SITE",21,1532279817.0
212,"–°—É–≤–æ—Ä–æ–≤—Å–∫–∏–π –ø—Ä–æ—Å–ø–µ–∫—Ç, 42",14,,,1483890038,370,,,https://vk.com/images/places/place.png,59.94145,30.380385,17084015,17084015,–ö–∏—Ç –ë—É—Ä–≥–µ—Ä,21,1525376420.0
213,,3,,,1402704253,340,,,https://vk.com/images/places/place.png,59.938505,30.384533,8784217,8784217,–ù–æ—á–Ω–æ–π –ø–∏—Ç–µ—Ä,21,1510480997.0
214,,1,,,1485472689,349,,,https://vk.com/images/places/place.png,59.938472,30.384297,17253184,17253184,–î–µ–≥—Ç—è—Ä–Ω—ã–π –ø–µ—Ä–µ—É–ª–æ–∫ 11 –ë,21,1527594572.0
215,–î–µ–¥–æ–≤–∏—á–∏,1,,,1533899778,355,,,https://vk.com/images/places/place.png,59.938111,30.386504,21543481,21543481,–ü–æ–∫—Ä–æ–≤—Å–∫–∏–π —Ö—Ä–∞–º,21,1533899781.0
216,"–°–∞–Ω–∫—Ç-–ü–µ—Ç–µ—Ä–±—É—Ä–≥, –û–ª–µ–≥–∞ –î—É–¥–∏—á–∞",2,,,1481850264,361,,,https://vk.com/images/places/place.png,59.941645,30.380575,16897744,16897744,"–ö—É–ø—á–∏–Ω–æ, –û–ª–µ–≥–∞ –î—É–¥–∏—á–∞",21,1523210409.0
217,–°—É–≤–æ—Ä–æ–≤—Å–∫–∏–π –ø—Ä. 40,10,2.0,1.0,1532571583,388,43893947.0,https://pp.userapi.com/c625528/v625528928/6d30/_zf9KJQw9DY.jpg?ava=1,https://vk.com/images/places/place.png,59.941344,30.380044,3883917,3883917,Penny nails,21,1477745494.0
218,–ó–∞—è—á–∏–π –ø–µ—Ä–µ—É–ª–æ–∫ 4–∫3,15,,,1389549854,420,,,https://vk.com/images/places/place.png,59.940201,30.379792,7424031,7424031,–†–µ—Å—Ç–æ—Ä–∞–Ω le mare√©,21,1524254206.0
219,–°—É–≤–æ—Ä–æ–≤—Å–∫–∏–π –ø—Ä–æ—Å–ø–µ–∫—Ç 47,4,,,1476095942,388,,,https://vk.com/images/places/place.png,59.941257,30.380053,16301473,16301473,–°—É–≤–æ—Ä–æ–≤—Å–∫–∏–π –ø—Ä–æ—Å–ø–µ–∫—Ç 47,21,1523793058.0
220,–ø—Ä–æ—Å–ø–µ–∫—Ç –ª–∏—Ç–µ–π–Ω—ã–π 28,7,,,1372235715,411,,,https://vk.com/images/places/place.png,59.940483,30.379823,5841887,5841887,–ª–∏—Ç–µ–π–Ω—ã–π 28,21,1519933841.0
221,–°—É–≤–æ—Ä–æ–≤—Å–∫–∏–π –ø—Ä–æ—Å–ø–µ–∫—Ç,4,,,1397308326,412,,,https://vk.com/images/places/place.png,59.940876,30.379657,8259829,8259829,"Bullhouse, –°—É–≤–æ—Ä–æ–≤—Å–∫–∏–π –ø—Ä., –¥. 36",21,1476365966.0
222,"–°—É–≤–æ—Ä–æ–≤—Å–∫–∏–π –ø—Ä–æ—Å–ø–µ–∫—Ç, 39",2,,,1376066342,408,,,https://vk.com/images/places/place.png,59.939844,30.380295,6163065,6163065,–°—Ç—É–¥–∏—è —Ç–∞–Ω—Ü–∞ –∏ —Å—á–∞—Å—Ç—å—è –ê—Ä—Ç–µ–º–∞ –ù–µ–∫—Ä–∞—Å–æ–≤–∞,21,1402954023.0
223,–ø—Ä–æ—Å–ø–µ–∫—Ç –õ–∏—Ç–µ–π–Ω—ã–π 25,2,,,1372237301,411,,,https://vk.com/images/places/place.png,59.940483,30.379823,5842076,5842076,–≥–ª–∞–∑–Ω–∞—è —Ç—Ä–∞–≤–º–∞,21,1434717370.0
224,"–°—É–≤–æ—Ä–æ–≤—Å–∫–∏–π –ø—Ä. 55, –°–∞–Ω–∫—Ç-–ü–µ—Ç–µ—Ä–±—É—Ä–≥",2,2.0,1.0,1532563288,444,53890419.0,https://pp.userapi.com/c837524/v837524585/3cf2d/cL-cQhgIb2U.jpg?ava=1,https://vk.com/images/places/place.png,59.94028,30.379298,18133857,18133857,Corolina.ru - –º—É–ª–∏–Ω–µ DMC,21,1511981127.0
225,–°—É–≤–æ—Ä–æ–≤—Å–∫–∏–π –ø—Ä–æ—Å–ø–µ–∫—Ç 53,2,,,1458921379,447,,,https://vk.com/images/places/place.png,59.940342,30.379221,14524781,14524781,Sobko lounge 55,21,1498785005.0
226,–°—É–≤–æ—Ä–æ–≤—Å–∫–∏–π –ø—Ä–æ—Å–ø. 51,2,2.0,1.0,1280742123,477,,,https://vk.com/images/places/restaraunt.png,59.94015,30.378759,7192,7192,–ë–∞–Ω–∑–∞–π,3,1348472917.0
227,–°—É–≤–æ—Ä–æ–≤—Å–∫–∏–π 51,1,,,1425716764,479,,,https://vk.com/images/places/place.png,59.940133,30.378735,11197110,11197110,–¶–≤–µ—Ç–æ—á–Ω—ã–π –¥–æ–º–∏–∫ Ginza,21,1505653087.0
228,—É–ª–∏—Ü–∞ –Ø—Ä–æ—Å–ª–∞–≤—Å–∫–∞—è 2,0,,,1426977251,46,,,https://vk.com/images/places/place.png,59.941588,30.386417,11335005,11335005,Torino-Savona,21,
229,–ö–∏—Ä–æ—á–Ω–∞—è —É–ª. 62/1,0,2.0,1.0,1532560671,146,58315125.0,https://pp.userapi.com/c628024/v628024170/47aa/ywA8TRhmuWE.jpg?ava=1,https://vk.com/images/places/place.png,59.941114,30.384419,10417584,10417584,In Interior Studio,21,1526193276.0
230,"–ë–µ–ª–æ—Ä—É—Å—Å–∫–∞—è —É–ª., 14",0,,,1462813264,162,,,https://vk.com/images/places/place.png,59.941062,30.384136,14921490,14921490,–∫–∏—Ä–æ—á–Ω–∞—è —É–ª 24,21,1462813269.0
231,—É–ª–∏—Ü–∞ –ö–æ—Å—Ç—Ä–æ–º—Å–∫–∞—è,0,,,1535562486,172,,,https://vk.com/images/places/place.png,59.941795,30.389949,21631591,21631591,Sankt-,21,
232,"–ù–æ–≤–≥–æ—Ä–æ–¥—Å–∫–∞—è —É–ª–∏—Ü–∞, 23, –õ–µ–Ω—Ç–∞",0,2.0,1.0,1537082392,195,135299238.0,https://pp.userapi.com/c845420/v845420106/eee61/yHT_ac0G8XM.jpg?ava=1,https://vk.com/images/places/place.png,59.940888,30.390436,21673991,21673991,Pilim Nail Studio SPb,21,
233,"–ù–æ–≤–≥–æ—Ä–æ–¥—Å–∫–∞—è —É–ª–∏—Ü–∞, 23, –õ–µ–Ω—Ç–∞",0,2.0,1.0,1533211567,195,102538517.0,https://pp.userapi.com/ch_dtqwDo7u1pH-6NteKF0Qu3r4zaypLlbE2ig/3_ooqQg4Htc.jpg?ava=1,https://vk.com/images/places/place.png,59.940888,30.390436,14920016,14920016,UPROFI ‚Ä¢ –ü–æ–¥–∫–ª—é—á–∞–µ–º –∫ Uber ‚Ä¢ –Ø–Ω–¥–µ–∫—Å –¢–∞–∫—Å–∏ ‚Ä¢ Gett,21,
234,"–ù–æ–≤–≥–æ—Ä–æ–¥—Å–∫–∞—è —É–ª. –¥–æ–º 23, –æ—Ñ–∏—Å 209, –ê–º–ü–∏–†-–ò–Ω–≤–µ—Å—Ç",0,2.0,1.0,1532574111,206,30491684.0,https://pp.userapi.com/c322323/v322323836/797f/olTY4l2kFRk.jpg?ava=1,https://vk.com/images/places/place.png,59.94079,30.39059,11721937,11721937,–ê–º–ü–∏–† - –ò–Ω–≤–µ—Å—Ç–∏—Ü–∏–æ–Ω–Ω–∞—è –∫–æ–º–ø–∞–Ω–∏—è,21,
235,"—É–ª. –ù–æ–≤–≥–æ—Ä–æ–¥—Å–∫–∞—è –¥. 23. –æ—Ñ 343, –°—Ç—É–¥–∏—è –ø–µ—á–∞—Ç–∏ B&amp;S",0,2.0,1.0,1536238188,206,157867592.0,https://pp.userapi.com/c841426/v841426814/43fb9/P21B9E-rOYM.jpg?ava=1,https://vk.com/images/places/place.png,59.94079,30.39059,19751766,19751766,"–°—Ç—É–¥–∏—è –ø–µ—á–∞—Ç–∏ B&amp;S print: –¥–∏–∑–∞–π–Ω, –ø–æ–ª–∏–≥—Ä–∞—Ñ–∏—è.",21,
236,"—É–ª. –ù–æ–≤–≥–æ—Ä–æ–¥—Å–∫–∞—è, –¥ 23, TMEnergy",0,2.0,1.0,1534396033,206,53955858.0,https://pp.userapi.com/uvPWiUJTn9pPKK8W69cQZSZb9peeqLS6ks4nHQ/gTTY6Bn9LyU.jpg?ava=1,https://vk.com/images/places/place.png,59.94079,30.39059,5548140,5548140,–¢–µ–ø–ª–æ–≤—ã–µ –Ω–∞—Å–æ—Å—ã DIMPLEX,21,
237,"–°–ü–±, –ù–æ–≤–≥–æ—Ä–æ–¥—Å–∫–∞—è —É–ª. 23, —Ü–µ–Ω—Ç—Ä–∞–ª—å–Ω—ã–π –≤—Ö–æ–¥, 3 —ç—Ç–∞–∂, –æ—Ñ–∏—Å 344, –®–∫–æ–ª–∞ —Ç–∞–Ω—Ü–µ–≤ ""–≠–∫—Å–ø—Ä–æ–º—Ç""",0,2.0,1.0,1532558678,206,17391372.0,https://pp.userapi.com/c846018/v846018510/f4ccd/0ftSAZqY7wQ.jpg?ava=1,https://vk.com/images/places/place.png,59.94079,30.39059,15771137,15771137,–¶—ã–≥–∞–Ω—Å–∫–∏–π —Ç–∞–Ω–µ—Ü. –®–∫–æ–ª–∞ —Ü—ã–≥–∞–Ω—Å–∫–æ–≥–æ —Ç–∞–Ω—Ü–∞ –≠–∫—Å–ø—Ä–æ–º—Ç,21,
238,"—É–ª. –ù–æ–≤–≥–æ—Ä–æ–¥—Å–∫–∞—è 23, –ú√ñ",0,2.0,1.0,1532565914,206,73283859.0,https://pp.userapi.com/c834103/v834103743/546e3/td5KnHmjL6k.jpg?ava=1,https://vk.com/images/places/place.png,59.94079,30.39059,8851989,8851989,–†–µ—Å—Ç–æ—Ä–∞–Ω —Å–µ–≤–µ—Ä–Ω–æ–π –∫—É—Ö–Ω–∏ –ú√ñ,21,1411110682.0
239,—É–ª–∏—Ü–∞ –ù–æ–≤–≥–æ—Ä–æ–¥—Å–∫–∞—è 26,0,,,1424103746,230,,,https://vk.com/images/places/place.png,59.941689,30.391096,11018759,11018759,"–û–û–û ""–°–æ–ª–µ–∞–Ω—Å —Ç—Ä–µ–≤–µ–ª""",21,
240,,0,,,1444391418,239,,,https://vk.com/images/places/place.png,59.942567,30.383554,13081560,13081560,—é—Ä–∏—è –≥–∞–≥–∞—Ä–∏–Ω–∞ 14 –∫–æ—Ä–ø—É—Å 1,21,
241,–ø–µ—Ä–µ—É–ª–æ–∫ 26,0,,,1373618775,246,,,https://vk.com/images/places/place.png,59.940357,30.383012,5954704,5954704,–ò–Ω—Å—Ç–∏—Ç—É—Ç –æ—Ö—Ä–∞–Ω—ã –∏ —Ç—Ä—É–¥–∞,21,1373618780.0
242,"–ù–æ–≤–≥–æ—Ä–æ–¥—Å–∫–∞—è —É–ª–∏—Ü–∞, 25",0,2.0,1.0,1532572764,264,38195770.0,https://pp.userapi.com/c840720/v840720438/856f4/JJx1_xpyf9s.jpg?ava=1,https://vk.com/images/places/place.png,59.94179,30.391668,2221573,2221573,"–ù–∞—Ç—è–∂–Ω—ã–µ –ø–æ—Ç–æ–ª–∫–∏ –≤ –°–ü–ë ""–ù–æ—Ä–¥ –°–∏–ª–∏–Ω–≥"" —Ç.389-59-89",21,
243,"–ù–æ–≤–≥–æ—Ä–æ–¥—Å–∫–∞—è —É–ª., –¥–æ–º 25, Cocktail of Beauty",0,2.0,1.0,1532567050,264,36468085.0,https://sun9-4.userapi.com/c830709/v830709903/1537be/XscNFiAQYVE.jpg?ava=1,https://vk.com/images/places/place.png,59.94179,30.391668,16630142,16630142,–Æ–ª–∏—è –õ–∞–≤—Ä–µ–Ω—Ç—å–µ–≤–∞‚Ä¢–ú–∞–Ω–∏–∫—é—Ä‚Ä¢–ù–∞—Ä–∞—â–∏–≤–∞–Ω–∏–µ —Ä–µ—Å–Ω–∏—Ü,21,
244,,0,,,1395241276,268,,,https://vk.com/images/places/place.png,59.941866,30.38233,8031264,8031264,"—Å—É–≤–æ—Ä–æ–≤—Å–∫–∏ –ø—Ä., –¥. 63 –∫–≤. 6",21,
245,–°—É–≤–æ—Ä–æ–≤—Å–∫–∏–π –ø—Ä–æ—Å–ø–µ–∫—Ç 50,0,,,1484918259,280,,,https://vk.com/images/places/place.png,59.943468,30.384437,17193309,17193309,–ì–£ –ú–í–î –†–§,21,1484918268.0
246,"–°—É–≤–æ—Ä–æ–≤—Å–∫–∏–π –ø—Ä., –¥.61, –§–æ–Ω–¥ —Å–æ—Ü–∏–∞–ª—å–Ω—ã—Ö –∏–Ω–∏—Ü–∏–∞—Ç–∏–≤ ""–ú–∏—Ä–Ω—ã–µ –õ—é–¥–∏""",0,2.0,1.0,1532563378,296,77810328.0,https://pp.userapi.com/c636121/v636121885/5da/kj3srYJZLxU.jpg?ava=1,https://vk.com/images/places/place.png,59.941164,30.381706,14556286,14556286,–§–æ—Ä—É–º —Ä–æ–¥–∏—Ç–µ–ª–µ–π —Å–ø–æ—Ä—Ç—Å–º–µ–Ω–æ–≤,21,
247,"nail for female, –º. –ü–ª–æ—â–∞–¥—å –í–æ—Å—Å—Ç–∞–Ω–∏—è, –º. –ß–µ—Ä–Ω—ã—à–µ–≤—Å–∫–∞—è",0,2.0,1.0,1532562351,302,90856003.0,https://pp.userapi.com/c840333/v840333789/59a07/5x5PFUI0mTY.jpg?ava=1,https://vk.com/images/places/place.png,59.941145,30.381602,11418110,11418110,nail for female,21,
248,"–°—É–≤–æ—Ä–æ–≤—Å–∫–∏–π, 61",0,2.0,1.0,1532582221,314,133602211.0,https://pp.userapi.com/c836132/v836132627/4c902/2dndHs_4DDQ.jpg?ava=1,https://vk.com/images/places/place.png,59.941524,30.3814,17836745,17836745,"–ù–∞ —Å–≤—è–∑–∏ - 191015, –°–ü–±",21,
249,"–°—É–≤–æ—Ä–æ–≤—Å–∫–∏–π –ø—Ä., –¥. 61, –ø–æ–º. 23–ù, –ò–∑–¥–∞—Ç–µ–ª—å—Å—Ç–≤–æ  ""–ê—Å—Ç–µ—Ä–∏–æ–Ω""",0,2.0,1.0,1534255558,314,139539900.0,https://pp.userapi.com/c840228/v840228510/3d7b9/lg6HSBoEzHM.jpg?ava=1,https://vk.com/images/places/place.png,59.941524,30.3814,21411016,21411016,–ò–∑–¥–∞—Ç–µ–ª—å—Å—Ç–≤–æ –ê—Å—Ç–µ—Ä–∏–æ–Ω,21,
250,,0,,,1384031587,317,,,https://vk.com/images/places/place.png,59.942549,30.381895,6900029,6900029,—Ö–æ—á—É –ø—Ä–æ–≤–µ—Å—Ç–∏ —Å —Ç–æ–±–æ–π –Ω–æ—á–∫—É üòÇ,21,1384031590.0
251,–î–µ–≥—Ç—è—Ä–Ω—ã–π –ø–µ—Ä–µ—É–ª–æ–∫,0,,,1371323664,331,,,https://vk.com/images/places/place.png,59.938841,30.383649,5764793,5764793,_____,21,1377903722.0
252,–ö–∞–≤–∞–ª–µ—Ä–≥–∞—Ä–¥—Å–∫–∞—è 4,0,2.0,1.0,1280742078,335,,,https://vk.com/images/places/restaraunt.png,59.94316,30.38229,3739,3739,–†—É—Å–∞–ª–∫–∞,3,1334523843.0
253,"–°—É–≤–æ—Ä–æ–≤—Å–∫–∏–π –ø—Ä., 61",0,2.0,1.0,1532566938,343,48071002.0,https://pp.userapi.com/c308623/v308623964/525a/KzPzqDC_6Fc.jpg?ava=1,https://vk.com/images/places/place.png,59.941003,30.380885,4426755,4426755,"–ü—Å–∏—Ö–æ–¥—Ä–∞–º–∞ - ""–†–ê–ó–ì–û–í–û–† –° –ú–ï–ß–¢–û–ô""",21,
254,"–°—É–≤–æ—Ä–æ–≤—Å–∫–∏–π –ø—Ä. 61, –ë—É—Ç–∏–∫ Frette",0,2.0,1.0,1532563668,346,51280532.0,https://pp.userapi.com/c625418/v625418546/4c272/J8fW7rsjGtI.jpg?ava=1,https://vk.com/images/places/place.png,59.940636,30.380951,4950725,4950725,Frette,21,
255,"–°—É–≤–æ—Ä–æ–≤—Å–∫–∏–π –ø—Ä. 61, –û—Ñ–∏—Å",0,2.0,1.0,1532571528,346,45631144.0,https://pp.userapi.com/Ow6DH9V-L73RyxGT79JU_TEDGzcC6OdYEG6nxQ/I5npG1Sm8xQ.jpg?ava=1,https://vk.com/images/places/place.png,59.940636,30.380951,4024881,4024881,Loft project T4 Design,21,
256,–°—É–≤–æ—Ä–æ–≤—Å–∫–∏–π –ø—Ä–æ—Å–ø–µ–∫—Ç 59,0,,,1483181039,352,,,https://vk.com/images/places/place.png,59.940567,30.380867,17012855,17012855,–°–∫–∞–æ—Ä–æ–≤—Å–∫–∏–π –ø—Ä–æ—Å–ø–µ–∫—Ç 61,21,1483181042.0
257,4-–∞—è –ª–∏–Ω–∏—è –í.–û. –¥. 45,0,,,1440278405,369,,,https://vk.com/images/places/place.png,59.94126,30.380387,12676155,12676155,Wine Bar 74,21,1504895382.0
258,"–°—É–≤–æ—Ä–æ–≤—Å–∫–∏–π –ø—Ä. 59, –¶–µ–Ω—Ç—Ä ""–î–≤–∏–∂–µ–Ω–∏–µ""",0,2.0,1.0,1532564859,375,43607268.0,https://pp.userapi.com/c317930/g43607268/e_313ddda2.jpg?ava=1,https://vk.com/images/places/place.png,59.940287,30.3806,3629907,3629907,–ò–≥—Ä—ã –≤ —Å–≤–∏–¥–∞–Ω–∏—è. –ü—Ä–æ–≥—Ä–∞–º–º–∞ –∑–Ω–∞–∫–æ–º—Å—Ç–≤. –ú–∞—Å—Ç–µ—Ä—Å–∫–∞—è,21,
259,"–°—É–≤–æ—Ä–æ–≤—Å–∫–∏–π –ø—Ä–æ—Å–ø–µ–∫—Ç 59, –û—Å—Ç–µ–æ–ø–∞—Ç–∏—á–µ—Å–∫–∞—è –≥–∏–º–Ω–∞—Å—Ç–∏–∫–∞. –ü—Å–∏—Ö–æ—Ç–µ—Ä–∞–ø–∏—è.",0,2.0,1.0,1535373602,378,36883323.0,https://pp.userapi.com/c840220/v840220749/ffda/ZTbMF27nFyo.jpg?ava=1,https://vk.com/images/places/place.png,59.940307,30.38052,15869653,15869653,–û—Å—Ç–µ–æ–ø–∞—Ç–∏—á–µ—Å–∫–∞—è –≥–∏–º–Ω–∞—Å—Ç–∏–∫–∞. –ü—Å–∏—Ö–æ–ª–æ–≥.,21,
260,"–°—É–≤–æ—Ä–æ–≤—Å–∫–∏–π –ø—Ä.59, –ü—Ä–æ—Å—Ç—Ä–∞–Ω—Å—Ç–≤–æ ""–î–≤–∏–∂–µ–Ω–∏–µ""",0,2.0,1.0,1352278984,389,45345251.0,https://pp.userapi.com/c604621/v604621240/37064/yfcR8uCZF70.jpg?ava=1,https://vk.com/images/places/place.png,59.940772,30.380107,3977979,3977979,–ü—Ä–∞–∫—Ç–∏–∫–∏ –∑–∞–∫—Ä—ã—Ç—ã–º–∏ –≥–ª–∞–∑–∞–º–∏,21,
261,–°—É–≤–æ—Ä–æ–≤—Å–∫–∏–π –ø—Ä–æ—Å–ø 59,0,2.0,1.0,1532566187,389,29297772.0,https://pp.userapi.com/c5833/g29297772/e_d3592aeb.jpg?ava=1,https://vk.com/images/places/place.png,59.940772,30.380107,1754267,1754267,"–¢—Ä–µ–Ω–∏–Ω–≥–æ–≤–æ-–ø—Ä–æ–¥—é—Å–µ—Ä—Å–∫–∏–π —Ü–µ–Ω—Ç—Ä ""PRO–¥–≤–∏–∂–µ–Ω–∏–µ""",21,
262,"–°—É–≤–æ—Ä–æ–≤—Å–∫–∏–π –ø—Ä. 59, –¶–µ–Ω—Ç—Ä ""–î–≤–∏–∂–µ–Ω–∏–µ""",0,2.0,1.0,1532566614,390,36401409.0,https://pp.userapi.com/c10572/g36401409/e_4bb2fc3c.jpg?ava=1,https://vk.com/images/places/place.png,59.940691,30.380116,1869096,1869096,–ö–ò–ù–û–ü–û–ö–ê–ó–´ –í –î–í–ò–ñ–ï–ù–ò–ò,21,
263,"–°—É–≤–æ—Ä–æ–≤—Å–∫–∏–π –ø—Ä–æ—Å–ø–µ–∫—Ç –¥–æ–º 59, —Ü–µ–Ω—Ç—Ä ""–î–≤–∏–∂–µ–Ω–∏–µ""",0,2.0,1.0,1532563061,390,37506468.0,https://pp.userapi.com/c9854/g37506468/e_ee071877.jpg?ava=1,https://vk.com/images/places/place.png,59.940691,30.380116,2079088,2079088,—Ç–∞–Ω—Ü—ã,21,
264,"–°—É–≤–æ—Ä–æ–≤—Å–∫–∏–π –ø—Ä–æ—Å–ø–µ–∫—Ç, –¥. 59, –¶–† –î–≤–∏–∂–µ–Ω–∏–µ",0,2.0,1.0,1532569885,390,36283594.0,https://pp.userapi.com/c302806/g36283594/e_6a4ef499.jpg?ava=1,https://vk.com/images/places/place.png,59.940691,30.380116,1853504,1853504,–†–µ–ª–∞–∫—Å–∞—Ü–∏—è –Ω–∞ –∫–∞–∂–¥—ã–π –¥–µ–Ω—å,21,
265,"–°—É–≤–æ—Ä–æ–≤—Å–∫–∏–π –ø—Ä–æ—Å–ø–µ–∫—Ç –¥–æ–º 59, –ü—Ä–æ—Å—Ç—Ä–∞–Ω—Å—Ç–≤–æ "" –î–≤–∏–∂–µ–Ω–∏–µ""",0,2.0,1.0,1532560069,390,37989791.0,https://pp.userapi.com/c11334/g37989791/e_44200885.jpg?ava=1,https://vk.com/images/places/place.png,59.940691,30.380116,2179900,2179900,–°–∞—Ç—Å–∞–Ω–≥ - –º–µ–¥–∏—Ç–∞—Ü–∏—è —Å –û–º –ê–Ω–∞–Ω–¥–∞,21,
266,"—É–ª–∏—Ü–∞ –î–∂–æ–Ω–∞ –†–∏–¥–∞, 3 –∫–æ—Ä–ø—É—Å 1",0,,,1490176724,397,,,https://vk.com/images/places/place.png,59.940776,30.379972,17737668,17737668,—Å—É–≤–æ—Ä–æ–≤—Å–∫–∏–π –ø—Ä–æ—Å–ø–µ–∫—Ç 60,21,
267,"–°—É–≤–æ—Ä–æ–≤—Å–∫–∏–π –ø—Ä. –¥.59, –¶–µ–Ω—Ç—Ä —Ü–µ–ª–æ—Å—Ç–Ω–æ–≥–æ —Ä–∞–∑–≤–∏—Ç–∏—è ""–î–≤–∏–∂–µ–Ω–∏–µ""",0,2.0,1.0,1532558981,398,36706985.0,https://pp.userapi.com/c5545/g36706985/e_31a58bbe.jpg?ava=1,https://vk.com/images/places/place.png,59.940201,30.380214,1928378,1928378,PRO –ú—É–∂—á–∏–Ω,21,
268,"–°—É–≤–æ—Ä–æ–≤—Å–∫–∏–π –ø—Ä. –¥.59, –¶–µ–Ω—Ç—Ä —Ü–µ–ª–æ—Å—Ç–Ω–æ–≥–æ —Ä–∞–∑–≤–∏—Ç–∏—è ""–î–≤–∏–∂–µ–Ω–∏–µ""",0,2.0,1.0,1532569324,400,37283737.0,https://pp.userapi.com/e0PfFCq0xdoVHF-R5PzYtXtR80pzivP9NqJacA/q24k-y2p0ag.jpg?ava=1,https://vk.com/images/places/place.png,59.940201,30.380171,2034745,2034745,PRO –ñ–µ–Ω—â–∏–Ω,21,
269,–°—É–≤–æ—Ä–æ–≤—Å–∫–∏–π –ø—Ä–æ—Å–ø. 57,0,2.0,1.0,1280742123,405,,,https://vk.com/images/places/restaraunt.png,59.940483,30.379923,7457,7457,–ì—Ä–µ—Ç–∞,3,
270,–°—É–≤–æ—Ä–æ–≤—Å–∫–∏–π –ø—Ä–æ—Å–ø. 57,0,2.0,1.0,1280742123,411,,,https://vk.com/images/places/restaraunt.png,59.940483,30.379823,8292,8292,–ü—Ä–∞–≤–∏–ª–æ –ë—É—Ä–∞–≤—á–∏–∫–∞,3,
271,"–°—É–≤–æ—Ä–æ–≤—Å–∫–∏–π –ø—Ä–æ—Å–ø–µ–∫—Ç, 55",0,,,1490454498,416,,,https://vk.com/images/places/place.png,59.940691,30.379646,17764486,17764486,—Å—É–≤–æ—Ä,21,
272,–ó–∞—è—á–∏–π –ø–µ—Ä–µ—É–ª–æ–∫ 4–∫3,0,,,1389549810,420,,,https://vk.com/images/places/place.png,59.940201,30.379792,7424025,7424025,–†–µ—Å—Ç–æ—Ä–∞–Ω le mare,21,
273,"–í–∏—Ç–µ–±—Å–∫–∏–π –ø—Ä–æ—Å–ø–µ–∫—Ç, 9–ê",0,,,1535183687,420,,,https://vk.com/images/places/place.png,59.939992,30.379944,21611419,21611419,–°—É–≤–æ—Ä–æ–≤—Å–∫–∏–π –ø—Ä–æ—Å–ø,21,
274,"–°—É–≤–æ—Ä–æ–≤—Å–∫–∏–π –ø—Ä–æ—Å–ø., 36",0,,,1465365866,427,,,https://vk.com/images/places/place.png,59.940828,30.379402,15177251,15177251,–º–µ—Ç—Ä–æ –∑–≤–µ–∑–¥–Ω–∞—è –ª–µ–Ω—Å–æ–≤–µ—Ç–∞,21,1483274051.0
275,,0,,,1489679298,431,,,https://vk.com/images/places/place.png,59.939926,30.379769,17688423,17688423,–í–æ–π—Ç–æ–ª–æ–≤–æ,21,1489679303.0
276,"–°—É–≤–æ—Ä–æ–≤—Å–∫–∏–π –ø—Ä. 57, –ö–∞—Ñ–µ ""–ì–†–ï–ú–ò""",0,2.0,1.0,1534663233,432,154246769.0,https://pp.userapi.com/c840120/v840120691/7bd2b/O-OKiW3AvCk.jpg?ava=1,https://vk.com/images/places/place.png,59.940501,30.379424,19182407,19182407,"–ö–∞—Ñ–µ ""–ì–†–ï–ú–ò"" –≥—Ä—É–∑–∏–Ω—Å–∫–∞—è –∏ –µ–≤—Ä–æ–ø–µ–π—Å–∫–∞—è –∫—É—Ö–Ω—è",21,
277,"–°—É–≤–æ—Ä–æ–≤—Å–∫–∏–π –ø—Ä., –¥. 57",0,2.0,1.0,1532561042,433,61493204.0,https://pp.userapi.com/c311719/v311719921/47a6/WbCIOfAADJY.jpg?ava=1,https://vk.com/images/places/place.png,59.940425,30.379433,6970262,6970262,"–ú–∞–≥–∞–∑–∏–Ω –¥–µ—Ç—Å–∫–æ–π –æ–¥–µ–∂–¥—ã ""Babyshirt""",21,
278,"–°—É–≤–æ—Ä–æ–≤—Å–∫–∏–π –ø—Ä–æ—Å–ø., 55 POKER TIME",0,,,1413403555,433,,,https://vk.com/images/places/place.png,59.940319,30.379487,9861973,9861973,—Å—É–≤–æ—Ä–æ–≤—Å–∫–∏–π 55,21,1508039224.0
279,"–°—É–≤–æ—Ä–æ–≤—Å–∫–∏–π –ø—Ä.55, #SETKA LOUNGE BAR",0,2.0,1.0,1532565789,447,28626141.0,https://vk.com/images/community_50.png?ava=1,https://vk.com/images/places/place.png,59.940217,30.37928,15028352,15028352,–ö–∞–ª—å—è–Ω–Ω–∞—è|–±–∞—Ä —Å–ø–± ¬´SETKA LOUNGE¬ª,21,
280,–°—É–≤–æ—Ä–æ–≤—Å–∫–∏–π –ø—Ä–æ—Å–ø–µ–∫—Ç 51,0,,,1471522078,482,,,https://vk.com/images/places/place.png,59.940118,30.37868,15814593,15814593,–öido –Ω–∞ —Å—É–≤–æ—Ä–æ–≤—Å–∫–æ–º,21,
281,"–ú–æ–∏—Å–µ–µ–Ω–∫–æ —É–ª., 43",3,2.0,1.0,1532578767,21,131731391.0,https://pp.userapi.com/c840231/v840231685/a2b4/e7PgrtetFfk.jpg?ava=1,https://vk.com/images/places/place.png,59.937396,30.393279,16488512,16488512,–ö–æ–≤—Ä–∏–∫–∏ WoodRoom luxury,21,1484156847.0
282,"—É–ª–∏—Ü–∞ –ú–æ–∏—Å–µ–µ–Ω–∫–æ, 41",3,,,1501613424,41,,,https://vk.com/images/places/place.png,59.937426,30.392351,18738219,18738219,–°–∞–Ω–∫—Ç-–ü–µ—Ç–µ—Ä–±—É—Ä–≥ —É–ª –º–æ–∏—Å–µ–µ–Ω–∫–æ 27,21,1534844703.0
283,—É–ª–∏—Ü–∞ –ö—Ä–∞—Å–Ω–æ–≥–æ –¢–µ–∫—Å—Ç–∏–ª—å—â–∏–∫–∞ 17,13,,,1419839989,50,,,https://vk.com/images/places/place.png,59.937791,30.393826,10546872,10546872,–ö—Ä–∞—Å–Ω–æ–≥–æ —Ç–µ–∫—Å—Ç–∏–ª—å—â–∏–∫–∞,21,1527082183.0
284,"—É–ª. –ú–æ–∏—Å–µ–µ–Ω–∫–æ, 41",5,,,1457084543,60,,,https://vk.com/images/places/place.png,59.937012,30.393175,14329834,14329834,–º–æ–∏—Å–µ–Ω–∫–æ 41,21,1527683475.0
285,—É–ª–∏—Ü–∞ –ö—Ä–∞—Å–Ω–æ–≥–æ –¢–µ–∫—Å—Ç–∏–ª—å—â–∏–∫–∞ 17,6,,,1369238840,65,,,https://vk.com/images/places/place.png,59.937964,30.393916,5561758,5561758,—à—Ç—Ä–∞—Ñ —Å—Ç–æ—è–Ω–∫–∞ –º–∞—Ç—å –µ–≥–æ,21,1442255637.0
286,–°–∏–Ω–æ–ø—Å–∫–∞—è –Ω–∞–±–µ—Ä–µ–∂–Ω–∞—è –¥. 72,2,,,1375449062,65,,,https://vk.com/images/places/place.png,59.937119,30.393829,6109368,6109368,–£ —Ç–µ—Ç–∏),21,1482080193.0
287,,4,,,1428353841,74,,,https://vk.com/images/places/place.png,59.937367,30.394333,11499233,11499233,–ü—Ä–æ—Å–ø–µ–∫—Ç –æ–±—É—Ö–æ–≤—Å–∫–æ–π –æ–±–æ—Ä–æ–Ω—ã  43,21,1477396950.0
288,"—É–ª. –ú–æ–∏—Å–µ–µ–Ω–∫–æ, 28–ê",2,,,1407928370,74,,,https://vk.com/images/places/place.png,59.938116,30.392313,9280920,9280920,—Ä—Å,21,1433328932.0
289,—É–ª–∏—Ü–∞ –ö—Ä–∞—Å–Ω–æ–≥–æ –¢–µ–∫—Å—Ç–∏–ª—å—â–∏–∫–∞ 15,9,,,1403078235,89,,,https://vk.com/images/places/place.png,59.938346,30.393331,8819056,8819056,–£—Ñ–º—Å,21,1478602709.0
290,"–°–∏–Ω–æ–ø—Å–∫–∞—è –Ω–∞–±. 78, Buddha-Bar",608,2.0,1.0,1532561967,155,40169847.0,https://pp.userapi.com/c629403/v629403705/32803/8f35H-xBf1g.jpg?ava=1,https://vk.com/images/places/place.png,59.938045,30.395674,2806052,2806052,BUDDHA-BAR St.Petersburg | –ë—É–¥–¥–∞-–ë–∞—Ä,21,1536308525.0
291,–¥—É–º—Å–∫–∞—è,5,,,1484989232,119,,,https://vk.com/images/places/place.png,59.938424,30.394331,17199412,17199412,club lomonosov,21,1510519555.0
292,"—É–ª.–ú–æ–∏—Å–µ–µ–Ω–∫–æ, 39",3,,,1488900363,122,,,https://vk.com/images/places/place.png,59.937301,30.390915,17610736,17610736,–ê–Ω–≥–∞—Ä,21,1520518876.0
293,—É–ª–∏—Ü–∞ –ö—Ä–∞—Å–Ω–æ–≥–æ –¢–µ–∫—Å—Ç–∏–ª—å—â–∏–∫–∞ 15,25,,,1377933926,157,,,https://vk.com/images/places/place.png,59.938968,30.392753,6326275,6326275,–ï–¥–∏–Ω—ã–π –º–∏–≥—Ä–∞—Ü–∏–æ–Ω–Ω—ã–π —Ü–µ–Ω—Ç—Ä,21,1518594552.0
294,"—É–ª. –ú–æ–µ—Å–µ–µ–Ω–∫–æ 39 –∞, –∫—É–∑–Ω–∏—Ü–∞ –ú–∏–∫–æ–ª–∞ –∫—É–∑–Ω–µ—Ü",1,2.0,1.0,1532566268,122,82389772.0,https://pp.userapi.com/c623228/v623228976/132ec/9vP7NyGnbvA.jpg?ava=1,https://vk.com/images/places/place.png,59.936823,30.391407,10570035,10570035,–ö–æ–≤–∞–Ω—ã–µ –ø–æ–¥–∞—Ä–∫–∏ –∏ —Å—É–≤–µ–Ω–∏—Ä—ã –æ—Ç –∫—É–∑–Ω–∏—Ü—ã –≤ –°–ü–±,21,1447153387.0
295,–°–∏–Ω–æ–ø—Å–∫–∞—è –Ω–∞–±–µ—Ä–µ–∂–Ω–∞—è 76A,4,,,1450902207,129,,,https://vk.com/images/places/place.png,59.93783,30.395315,13693884,13693884,Buddha-Bar St.Petersburg,21,1495242340.0
296,,2,,,1497941029,136,,,https://vk.com/images/places/place.png,59.938711,30.393886,18423438,18423438,"Sea Life,Hannover",21,1523724548.0
297,–°–∏–Ω–æ–ø—Å–∫–∞—è 78,12,,,1442731593,165,,,https://vk.com/images/places/place.png,59.938089,30.395821,12926251,12926251,Budha bar,21,1525011311.0
298,"–°–∏–Ω–æ–ø—Å–∫–∞—è –Ω–∞–±.,78",5,,,1466106872,165,,,https://vk.com/images/places/place.png,59.938089,30.395821,15253264,15253264,Buddha-bar Saint-Petersburg,21,1503239058.0
299,"Unnamed Road, Unnamed Road",2,,,1505679965,164,,,https://vk.com/images/places/place.png,59.936114,30.393669,19097723,19097723,Budda Bar —Å–∏–Ω–æ–ø—Å–∫–∞—è –Ω–∞–±–µ—Ä–µ–∂–Ω–∞—è,21,1508553156.0
300,–°–∏–Ω–æ–ø—Å–∫–∞—è –Ω–∞–±–µ—Ä–µ–∂–Ω–∞—è 62,15,,,1397892845,186,,,https://vk.com/images/places/place.png,59.935887,30.392809,8318836,8318836,–ò–¢–∏–î,21,1533299899.0
301,"–°–∞–Ω–∫—Ç-–ü–µ—Ç–µ—Ä–±—É—Ä–≥, –°–∏–Ω–æ–ø—Å–∫–∞—è –Ω–∞–±., 78",1,,,1452713299,165,,,https://vk.com/images/places/place.png,59.938089,30.395821,13862549,13862549,–ë—É–¥–¥–∞,21,1452713303.0
302,"–ø—Ä–æ—Å–ø–µ–∫—Ç –ö–∞—Ä–ª–∞ –ú–∞—Ä–∫—Å–∞, 37",6,,,1490508506,180,,,https://vk.com/images/places/place.png,59.937544,30.396288,17768719,17768719,"–°–∞–Ω–∫—Ç-–ü–µ—Ç–µ—Ä–±—É—Ä–≥, –°–∏–Ω–æ–ø—Å–∫–∞—è –Ω–∞–±–µ—Ä–µ–∂–Ω–∞—è 74",21,1531668419.0
303,"–°–∞–Ω–∫—Ç-–ü–µ—Ç–µ—Ä–±—É—Ä–≥, —É–ª. –ú–æ–∏—Å–µ–µ–Ω–∫–æ –¥. 24, –•–∏–º—á–∏—Å—Ç–∫–∞ Clean-Expert",2,2.0,1.0,1532569010,185,48329352.0,https://sun9-4.userapi.com/c620324/v620324582/fc3d/O4OFU4kgGTc.jpg?ava=1,https://vk.com/images/places/place.png,59.937643,30.389737,4471029,4471029,‚Ä¢‚óè–•–∏–º—á–∏—Å—Ç–∫–∞ –≤ –°–∞–Ω–∫—Ç-–ü–µ—Ç–µ—Ä–±—É—Ä–≥–µ –ö–ª–∏–Ω –≠–∫—Å–ø–µ—Ä—Ç ‚óè‚Ä¢,21,1419339430.0
304,–°–∏–Ω–æ–ø—Å–∫–∞—è –Ω–∞–±–µ—Ä–µ–∂–Ω–∞—è 62,1,,,1388393618,184,,,https://vk.com/images/places/place.png,59.935896,30.392956,7311914,7311914,–ö–æ–Ω—Ü–µ–ø—Ç –°—Ç—Ä–æ–π –°–µ–≤–µ—Ä–æ- –ó–∞–ø–∞–¥,21,1388394275.0
305,–°–∏–Ω–æ–ø—Å–∫–∞—è –Ω–∞–±–µ—Ä–µ–∂–Ω–∞—è 76,3,,,1454018760,206,,,https://vk.com/images/places/place.png,59.938578,30.396151,14002589,14002589,Buddhabarspb,21,1476511559.0
306,"—É–ª–∏—Ü–∞ –ú–æ–∏—Å–µ–µ–Ω–∫–æ, 24–ê",4,2.0,1.0,1532559219,215,38225391.0,https://pp.userapi.com/c604722/v604722850/30539/AZN_UdB-7sQ.jpg?ava=1,https://vk.com/images/places/place.png,59.938998,30.390463,11293987,11293987,"–í–∏–ª–ª–∏ –º–∞—à–∏–Ω–∞. –ú–æ—Ç–æ—Ç—Ä–µ–Ω–∞–∂–µ—Ä, –°–ü–±",21,1509274368.0
307,–°–∏–Ω–æ–ø—Å–∫–∞—è –Ω–∞–±–µ—Ä–µ–∂–Ω–∞—è 64,5,,,1443126753,217,,,https://vk.com/images/places/place.png,59.935611,30.393395,12966116,12966116,–°–∏–Ω–æ–ø—Å–∫–∞—è –Ω–∞–±–µ—Ä–µ–∂–Ω–∞—è 64–∞,21,1525167198.0
308,–°–∏–Ω–æ–ø—Å–∫–∞—è –Ω–∞–±–µ—Ä–µ–∂–Ω–∞—è 62,12,,,1450537893,234,,,https://vk.com/images/places/place.png,59.935446,30.393187,13660429,13660429,"–°–∏–Ω–æ–ø—Å–∫–∞—è –Ω–∞–±–µ—Ä–µ–∂–Ω–∞—è, 60",21,1534944708.0
309,–ú–æ–∏—Å–µ–µ–Ω–∫–æ 22–∞,4,2.0,1.0,1280742023,221,,,https://vk.com/images/places/restaraunt.png,59.937779,30.389099,1477,1477,–¢—Ä–æ–ø–∏–∫–∏,3,1533813459.0
310,—É–ª–∏—Ü–∞ –ù–æ–≤–≥–æ—Ä–æ–¥—Å–∫–∞—è 15,14,,,1388820080,258,,,https://vk.com/images/places/place.png,59.937123,30.388492,7346076,7346076,–ù–æ–≤–≥–æ—Ä–æ–¥—Å–∫–∞—è 13,21,1511512622.0
311,–°–∏–Ω–æ–ø—Å–∫–∞—è –Ω–∞–±–µ—Ä–µ–∂–Ω–∞—è,7,,,1441959334,253,,,https://vk.com/images/places/place.png,59.935867,30.396103,12853621,12853621,St. Petersburg Plaza,21,1518962662.0
312,—É–ª–∏—Ü–∞ –ú–æ–∏—Å–µ–µ–Ω–∫–æ 20,2,,,1406946060,250,,,https://vk.com/images/places/place.png,59.938609,30.389085,9186034,9186034,–î–µ–≥—Ç—è—Ä–Ω—ã–π –ø–µ—Ä–µ—É–ª–æ–∫ 6,21,1528459582.0
313,—É–ª–∏—Ü–∞ –ú–æ–∏—Å–µ–µ–Ω–∫–æ 22,6,,,1368455102,262,,,https://vk.com/images/places/place.png,59.937775,30.388365,5479383,5479383,Bercut,21,1419068460.0
314,–°–∏–Ω–æ–ø—Å–∫–∞—è –Ω–∞–±–µ—Ä–µ–∂–Ω–∞—è 52,41,,,1369307883,363,,,https://vk.com/images/places/place.png,59.93432,30.392153,5568016,5568016,"–ë–¶ –°–∏–Ω–æ–ø—Å–∫–∞—è, 52",21,1533538768.0
315,—É–ª–∏—Ü–∞ –ù–æ–≤–≥–æ—Ä–æ–¥—Å–∫–∞—è,3,,,1368202142,272,,,https://vk.com/images/places/place.png,59.938643,30.388663,5448423,5448423,–†–î#13,21,1461747533.0
316,Gastronom21,2,2.0,1.0,1500454257,281,150540633.0,https://pp.userapi.com/c824504/v824504115/54960/liCZPAAHosA.jpg?ava=1,https://vk.com/images/places/place.png,59.93731,30.38803,18634565,18634565,–ì–∞—Å—Ç—Ä–æ–Ω–æ–º 21,21,1514045680.0
317,"–ú–æ–∏—Å–µ–µ–Ω–∫–æ —É–ª. 22, –§–∞–±—Ä–∏–∫–∞ –ë–µ–±–µ–ª—è",4,2.0,1.0,1532569394,287,40394408.0,https://vk.com/images/community_50.png?ava=1,https://vk.com/images/places/place.png,59.937734,30.387904,2767515,2767515,MUGGERS,21,1435302079.0
318,—É–ª–∏—Ü–∞ –ù–æ–≤–≥–æ—Ä–æ–¥—Å–∫–∞—è 17,3,,,1448121421,285,,,https://vk.com/images/places/place.png,59.939139,30.389015,13430402,13430402,"–°–∞–Ω–∫—Ç-–ü–µ—Ç–µ—Ä–±—É—Ä–≥, —É–ª.–ì–∞–≤—Ä—Å–∫–∞—è,6",21,1487418513.0
319,"–ú–æ–∏—Å–µ–µ–Ω–∫–æ —É–ª., 22",1,,,1450256413,283,,,https://vk.com/images/places/place.png,59.937735,30.387969,13635220,13635220,"–ö–ì–ü ""–ë–µ–±–µ–ª—è"" (–ì–° ""–ê–∫–∞–¥–æ-–¢–µ–ª–µ–∫–æ–º"")",21,1450256422.0
320,—É–ª–∏—Ü–∞ –ú–æ–∏—Å–µ–µ–Ω–∫–æ,6,,,1382600112,297,,,https://vk.com/images/places/place.png,59.938037,30.387803,6755243,6755243,–ú–æ–∏—Å–µ–µ–Ω–∫–æ –¥. 24,21,1530939975.0
321,–°–∏–Ω–æ–ø—Å–∫–∞—è –Ω–∞–±–µ—Ä–µ–∂–Ω–∞—è,3,,,1470683831,297,,,https://vk.com/images/places/place.png,59.934902,30.393649,15724232,15724232,Embankment Of Neva River,21,1499642120.0
322,–°–∏–Ω–æ–ø—Å–∫–∞—è –Ω–∞–±–µ—Ä–µ–∂–Ω–∞—è 54,11,,,1474652038,320,,,https://vk.com/images/places/place.png,59.934731,30.391892,16153791,16153791,"–°–∞–Ω–∫—Ç-–ü–µ—Ç–µ—Ä–±—É—Ä–≥, –°–∏–Ω–æ–ø—Å–∫–∞—è –Ω–∞–±–µ—Ä–µ–∂–Ω–∞—è,56-58",21,1532290086.0
323,"–°–∏–Ω–æ–ø—Å–∫–∞—è –Ω–∞–±–µ—Ä–µ–∂–Ω–∞—è, 54",8,,,1486796676,320,,,https://vk.com/images/places/place.png,59.934709,30.392129,17394075,17394075,Buddah bar,21,1534697968.0
324,—É–ª–∏—Ü–∞ –ú–æ–∏—Å–µ–µ–Ω–∫–æ 22,3,,,1513990294,315,,,https://vk.com/images/places/place.png,59.937573,30.387388,19764372,19764372,–º–æ–∏—Å–µ–µ–Ω–∫–æ 22,21,1522952829.0
325,"–ù–æ–≤–≥–æ—Ä–æ–¥—Å–∫–∞—è —É–ª., 18",3,,,1446481322,367,,,https://vk.com/images/places/place.png,59.937186,30.386493,13273891,13273891,–Ω–æ–≤–≥–æ—Ä–æ–¥—Å–∫–∞—è –º–æ–∏—Å–µ–µ–Ω–∫–æ,21,1481741192.0
326,187600,6,,,1423939395,398,,,https://vk.com/images/places/place.png,59.935971,30.386632,11000623,11000623,"–°–∞–Ω–∫—Ç-–ü–µ—Ç–µ—Ä–±—É—Ä–≥, –ù–æ–≤–≥–æ—Ä–æ–¥—Å–∫–∞—è, –¥. 13",21,1511467017.0
327,"–ú–æ–∏—Å–µ–µ–Ω–∫–æ —É–ª.43, ""Ext - Int""",0,2.0,1.0,1532580157,39,100815665.0,https://pp.userapi.com/c637330/v637330103/603a6/G93VeokaL90.jpg?ava=1,https://vk.com/images/places/place.png,59.937332,30.393599,12809820,12809820,"–ê—Ä—Ö–∏—Ç–µ–∫—Ç—É—Ä–Ω–æ–µ –∞—Ç–µ–ª—å–µ ""Ext - Int""",21,
328,—É–ª. –ú–æ–∏—Å–µ–µ–Ω–∫–æ –¥. 43,0,2.0,1.0,1532570173,45,23803336.0,https://pp.userapi.com/c10760/g23803336/e_76d61584.jpg?ava=1,https://vk.com/images/places/place.png,59.937238,30.393554,3477106,3477106,–°—Ä–æ—á–Ω–æ–µ –∏–∑–≥–æ—Ç–æ–≤–ª–µ–Ω–∏–µ –ø–µ—á–∞—Ç–µ–π –ø–æ –æ—Ç—Ç–∏—Å–∫—É,21,
329,"—É–ª–∏—Ü–∞ –ú–æ–∏—Å–µ–µ–Ω–∫–æ, 39A, –°–¢–£–î–ò–Ø –ë–õ–ï–°–ö–ê !!!",0,2.0,1.0,1532566479,73,95280613.0,https://pp.userapi.com/c639520/v639520465/1df05/AcqwFKOpDuo.jpg?ava=1,https://vk.com/images/places/place.png,59.937223,30.391923,17739603,17739603,–°–¢–£–î–ò–Ø –ë–õ–ï–°–ö–ê **–ü–û–õ–ò–†–û–í–ö–ê**–î–ï–¢–ï–ô–õ–ò–ù–ì**,21,1494842754.0
330,"JDM Garage SPB „Éâ„É™„Éï„Éà „Ç¨„É¨„Éº„Ç∏, JDM Garage SPB Â†±„Ç¨„É¨„Éº„Ç∏",0,2.0,1.0,1532558698,90,19112049.0,https://pp.userapi.com/c824503/v824503343/ad629/du6ejfHoqQI.jpg?ava=1,https://vk.com/images/places/place.png,59.936769,30.39262,12116262,12116262,JDM Garage SPB „Éâ„É™„Éï„Éà „Ç¨„É¨„Éº„Ç∏,21,
331,,0,,,1491544809,103,,,https://vk.com/images/places/place.png,59.938199,30.391717,17874076,17874076,"–∫–æ–ª–ø–∏–Ω—Å–∫–∏–π —Ä-–Ω, –≥ –∫–æ–ª–ø–∏–Ω–æ, —É–ª –°–µ–≤–∞—Å—Ç—å—è–Ω–æ–≤–∞, –¥.24",21,1512884466.0
332,"—É–ª–∏—Ü–∞ –ú–æ–∏—Å–µ–µ–Ω–∫–æ, 39–ê–ì, –¶–µ–Ω—Ç—Ä–∞–ª—å–Ω—ã–π-1",0,2.0,1.0,1534794203,125,117220101.0,https://pp.userapi.com/c841028/v841028381/4fe83/PxelHj4wNnQ.jpg?ava=1,https://vk.com/images/places/place.png,59.936535,30.392086,19747668,19747668,"–î–µ—Ç—Å–∫–æ-—é–Ω–æ—à–µ—Å–∫–∞—è —Ñ—É—Ç–±–æ–ª—å–Ω–∞—è —à–∫–æ–ª–∞ ""–î–µ–ª—å—Ç–∞""",21,1526130719.0
333,–ú–æ—Ç–æ –†–µ–º–æ–Ω—Ç,0,2.0,1.0,1532563080,131,68829066.0,https://vk.com/images/community_50.png?ava=1,https://vk.com/images/places/place.png,59.936728,30.391363,8129318,8129318,–ú–æ—Ç–æ –†–µ–º–æ–Ω—Ç,21,
334,–°–∏–Ω–æ–ø—Å–∫–∞—è –Ω–∞–±–µ—Ä–µ–∂–Ω–∞—è,0,,,1482492563,133,,,https://vk.com/images/places/place.png,59.93695,30.395116,16956160,16956160,—Å–∏–Ω–æ–ø—Å–∫–∞—è –Ω–∞–±–µ–æ–µ–∂–Ω–∞—è,21,1482492567.0
335,"—É–ª–∏—Ü–∞ –ú–æ–∏—Å–µ–µ–Ω–∫–æ, 24–ê, –ì–∞–ª–µ–Ω–æ–§–∞—Ä–º¬Æ",0,2.0,1.0,1534418008,146,34490417.0,https://sun9-2.userapi.com/c831308/v831308521/c1e65/4b0t0tkTiZg.jpg?ava=1,https://vk.com/images/places/place.png,59.937792,30.390476,21479026,21479026,–ì–∞–ª–µ–Ω–æ–§–∞—Ä–º,21,
336,Sinopskaya naberezhnaya,0,,,1461350255,148,,,https://vk.com/images/places/place.png,59.936769,30.395197,14776370,14776370,Sankts,21,1461350351.0
337,"–º–æ–∏—Å–µ–µ–Ω–∫–æ 24 –∞, –§–∞—Ä–º–∞—Ü–µ–≤—Ç–∏—á–µ—Å–∫–∞—è —Ñ–∞–±—Ä–∏–∫–∞",0,2.0,1.0,1361996619,154,50331981.0,https://pp.userapi.com/c308527/v308527938/4fed/qZf_dYpXoLw.jpg?ava=1,https://vk.com/images/places/home.png,59.938536,30.391084,4798796,4798796,–ê–Ω—Ç–∏—Ü–µ–ª–ª—é–ª–∏—Ç–Ω–∞—è –ª–∏–Ω–∏—è –∫–æ—Å–º–µ—Ç–∏–∫–∏ –æ—Ç –ø—Ä–æ–∏–∑–≤–æ–¥–∏—Ç–µ–ª—è,1,
338,"–ë–æ–ª—å—à–∞—è –≥—Ä–∞–∂–¥–∞–Ω—Å–∫–∞—è —É–ª–∏—Ü–∞, 5",0,,,1490468627,167,,,https://vk.com/images/places/place.png,59.937691,30.396055,17766494,17766494,—Ä–µ–∂–Ω–∞—è 74,21,1490468631.0
339,"–°–∞–Ω–∫—Ç-–ü–µ—Ç–µ—Ä–±—É—Ä–≥, –ú–æ–∏—Å–µ–µ–Ω–∫–æ —É–ª. 39",0,2.0,1.0,1532569378,174,48391964.0,https://pp.userapi.com/c626819/v626819059/476a/qTpXppZbWRY.jpg?ava=1,https://vk.com/images/places/place.png,59.936471,30.390792,7696197,7696197,SPBprint.net,21,
340,"—É–ª–∏—Ü–∞ –ö—Ä–∞—Å–Ω–æ–≥–æ –¢–µ–∫—Å—Ç–∏–ª—å—â–∏–∫–∞, 13–í",0,2.0,1.0,1536398310,181,85474844.0,https://pp.userapi.com/c630924/v630924323/222e9/-80K5QxPGTw.jpg?ava=1,https://vk.com/images/places/place.png,59.939168,30.392563,19593798,19593798,–ö–í–û–¢–ê –ù–ê –†–í–ü –°–ü–ë –ö–∞–∑–∞—Ö—Å—Ç–∞–Ω,21,
341,"—É–ª–∏—Ü–∞ –•–ª–æ–ø–∏–Ω–∞, 3",0,,,1535889512,190,,,https://vk.com/images/places/place.png,59.93925,30.393614,21647739,21647739,"–£–ª. –ö—Ä–∞—Å–Ω–æ–≥–æ –¢–µ–∫—Å—Ç–∏–ª—å—â–∏–∫–∞, 13–∞",21,
342,"–°–∏–Ω–æ–ø—Å–∫–∞—è –Ω–∞–±–µ—Ä–µ–∂–Ω–∞—è, 64, Paradise Estate Office",0,2.0,1.0,1533197231,204,1070756.0,https://sun9-6.userapi.com/c830309/v830309382/7e77c/7_yLbFOvF1c.jpg?ava=1,https://vk.com/images/places/place.png,59.93572,30.393183,21500878,21500878,Paradise Estate,21,
343,"–°–∏–Ω–æ–ø—Å–∫–∞—è –Ω–∞–±., 64",0,2.0,1.0,1532576549,220,134549407.0,https://pp.userapi.com/c841123/v841123373/6e8fa/hGu7PmYFxhc.jpg?ava=1,https://vk.com/images/places/place.png,59.935584,30.393376,17991405,17991405,Sherlog | –ü—Ä–æ—Ç–∏–≤–æ—É–≥–æ–Ω–Ω–æ-–ø–æ–∏—Å–∫–æ–≤—ã–π –∫–æ–º–ø–ª–µ–∫—Å,21,
344,—É–ª–∏—Ü–∞ –ú–æ–∏—Å–µ–µ–Ω–∫–æ,0,,,1467538689,221,,,https://vk.com/images/places/place.png,59.937779,30.389099,15391147,15391147,Beautylab by JR SPb,21,1467538698.0
345,"—É–ª–∏—Ü–∞ –ú–æ–∏—Å–µ–µ–Ω–∫–æ, 22–ë, –æ—Ñ–∏—Å 12, Taxi Racer",0,2.0,1.0,1532579587,245,147895123.0,https://pp.userapi.com/c841632/v841632160/c13e/zUAMPIbAQz0.jpg?ava=1,https://vk.com/images/places/place.png,59.937968,30.38873,18546492,18546492,Taxi Racer. –ü–æ–¥–∫–ª—é—á–µ–Ω–∏–µ –∫ —Å–ª—É–∂–±–∞–º —Ç–∞–∫—Å–∏,21,
346,–ú–æ–∏—Å–µ–µ–Ω–∫–æ —É–ª. –¥.39,0,2.0,1.0,1532568687,281,61629620.0,https://pp.userapi.com/c841321/v841321784/775b8/8sW2Rcvxbu4.jpg?ava=1,https://vk.com/images/places/place.png,59.93731,30.38803,7540413,7540413,"–û–û–û""–ê–î–í–ï–†–¢–ö–ê"" | –†–µ–∫–ª–∞–º–Ω–æ–µ –ø—Ä–æ–∏–∑–≤–æ–¥—Å—Ç–≤–æ",21,
347,–ú–æ–∏—Å–µ–µ–Ω–∫–æ —É–ª. –¥. 39,0,2.0,1.0,1532559470,281,71820629.0,https://pp.userapi.com/c844417/v844417180/2a4c/UxcVx_IdV8I.jpg?ava=1,https://vk.com/images/places/place.png,59.93731,30.38803,8592606,8592606,–ë—É–∫–≤—ã –∏–∑ –ø–µ–Ω–æ–ø–ª–∞—Å—Ç–∞,21,
348,"–ú–æ–∏—Å–µ–µ–Ω–∫–æ —É–ª. –¥. 39, –†–µ–∑–∫–∞ –ü–ª–æ—Ç–µ—Ä–æ–º | –ü–ª–æ—Ç—Ç–µ—Ä–Ω–∞—è —Ä–µ–∑–∫–∞ –≤ –°–ø–±",0,2.0,1.0,1532572407,281,76729541.0,https://pp.userapi.com/c840024/v840024488/365cd/kqlAleQ8kR4.jpg?ava=1,https://vk.com/images/places/place.png,59.93731,30.38803,14452795,14452795,–ü–ª–æ—Ç—Ç–µ—Ä–Ω–∞—è —Ä–µ–∑–∫–∞ –≤ –°–ø–±,21,
349,"–¶–ï–ù–¢–† –ü–û–ú–û–©–ò –ú–ò–ì–†–ê–ù–¢–ê–ú –í –°–ê–ù–ö–¢-–ü–ï–¢–ï–†–ë–£–†–ì–ï, –¶–ï–ù–¢–† –ü–û–ú–û–©–ò –ú–ò–ì–†–ê–ù–¢–ê–ú –í –°–ê–ù–ö–¢-–ü–ï–¢–ï–†–ë–£–†–ì–ï –ò –õ–ï–ù–ò–ì–†–ê–î–°–ö–û–ô –û–ë–õ–ê–°–¢–ò",0,2.0,1.0,1532578803,285,153092460.0,https://pp.userapi.com/c840524/v840524838/8368/FexQrFHtwDA.jpg?ava=1,https://vk.com/images/places/place.png,59.938703,30.38847,19020918,19020918,–¶–ï–ù–¢–† –ü–û–ú–û–©–ò –ú–ò–ì–†–ê–ù–¢–ê–ú –í –°–ê–ù–ö–¢-–ü–ï–¢–ï–†–ë–£–†–ì–ï,21,
350,"–ú–æ–∏—Å–µ–µ–Ω–∫–æ –¥.22 —Ç–µ–ª. 8904-553-31-01, –û–û–û""–ê–ª—å–ø–∞—Å""",0,2.0,1.0,1532562515,287,90891799.0,https://pp.userapi.com/c623920/v623920444/292d7/LuZkiPrygbA.jpg?ava=1,https://vk.com/images/places/place.png,59.937734,30.387904,11422788,11422788,–¢—Ä—É–¥–æ–≤–æ–π –ø–∞—Ç–µ–Ω—Ç –≤ –°–ü–±,21,1494823913.0
351,"Flow Agency, Flow Agency - –º–∞—Ä–∫–µ—Ç–∏–Ω–≥–æ–≤–æ–µ –∞–≥–µ–Ω—Ç—Å—Ç–≤–æ",0,2.0,1.0,1533722885,287,161910208.0,https://pp.userapi.com/c846124/v846124296/8bb2c/zR7VdTzAapE.jpg?ava=1,https://vk.com/images/places/place.png,59.937734,30.387904,20252203,20252203,Flow Agency,21,
352,–ù–æ–≤–≥–æ—Ä–æ–¥—Å–∫–∞—è —É–ª.,0,2.0,1.0,1532562760,334,73872160.0,https://vk.com/images/community_50.png?ava=1,https://vk.com/images/places/place.png,59.936913,30.387191,14979601,14979601,–°—É–≤–æ—Ä–æ–≤—Ü—ã 3 –†–î–ù,21,
353,"Forshe, –û–ü–ì",0,314.0,2.0,1532561412,341,59983190.0,https://pp.userapi.com/c636625/v636625605/2c6ce/2fp41h3ahOk.jpg?ava=1,https://vk.com/images/places/place.png,59.937382,30.386943,7094341,7094341,Forshe,21,
354,"–ì–û–í–ù–û–ß–ê–¢–°–ö–ê–Ø –£–õ–ò–¶–ê, –ì–û–í–ù–û",0,2.0,1.0,1532579711,341,112651565.0,https://pp.userapi.com/c628729/v628729187/324e8/8aqqoOsJ-3Y.jpg?ava=1,https://vk.com/images/places/place.png,59.937382,30.386943,13952861,13952861,–ì–û–í–ù–û–ß–ê–¢ –ê–≤–∞—Ç–∞—Ä–∏–∏,21,
355,"–ù–æ–≤–≥–æ—Ä–æ–¥—Å–∫–∞—è —É–ª–∏—Ü–∞, 13",0,,,1505394949,352,,,https://vk.com/images/places/place.png,59.935376,30.388456,19072839,19072839,–ù–ü–§ –ó–∞–≤–æ–¥ –ò–∑–º–µ—Ä–æ–Ω,21,1505394952.0
356,"Laserday. –ù–∞—Ä—É–∂–Ω–∞—è —Ä–µ–∫–ª–∞–º–∞. –ë–µ–≥—É—â–∏–µ —Å—Ç—Ä–æ–∫–∏, –°–∞–Ω–∫—Ç-–ü–µ—Ç–µ—Ä–±—É—Ä–≥, —É–ª.–ù–æ–≤–≥–æ—Ä–æ–¥—Å–∫–∞—è –¥.13",0,2.0,1.0,1532567617,355,62785032.0,https://pp.userapi.com/c620327/v620327371/e44c/xqO2G3LgbGw.jpg?ava=1,https://vk.com/images/places/place.png,59.93621,30.387266,9638959,9638959,Laserday. –ù–∞—Ä—É–∂–Ω–∞—è —Ä–µ–∫–ª–∞–º–∞. –ë–µ–≥—É—â–∏–µ —Å—Ç—Ä–æ–∫–∏,21,
357,"–°–∏–Ω–æ–ø—Å–∫–∞—è –Ω–∞–±., ITID | Institute of Television, Business and Design",0,2.0,1.0,1532577108,370,155104923.0,https://pp.userapi.com/c824410/v824410561/cd5e/bZAG2z5pfII.jpg?ava=1,https://vk.com/images/places/place.png,59.93424,30.392449,19296100,19296100,–ö–ò–ù–û /// –†–ï–ñ–ò–°–°–£–†–ê /// –ò–¢–∏–î,21,
358,"–°–∏–Ω–æ–ø—Å–∫–∞—è –Ω–∞–±., –º–µ—Ç—Ä–æ –ø–ª. –ê–ª–µ–∫—Å–∞–Ω–¥—Ä–∞ –ù–µ–≤—Å–∫–æ–≥–æ 1",0,2.0,1.0,1532580700,371,116247381.0,https://pp.userapi.com/c638426/v638426892/1eb41/QDab8czLGNc.jpg?ava=1,https://vk.com/images/places/place.png,59.934227,30.392432,17370301,17370301,–ú–∞–Ω–∏–∫—é—Ä –°–ü–ë,21,
359,"–ù–æ–≤–≥–æ—Ä–æ–¥—Å–∫–∞—è —É–ª., 18",0,2.0,1.0,1532577385,375,143631452.0,https://pp.userapi.com/c836133/v836133633/3a4f5/wI-vj2mHKsM.jpg?ava=1,https://vk.com/images/places/place.png,59.937056,30.386383,17988115,17988115,Baby pranks - –æ–Ω–ª–∞–π–Ω –º–∞–≥–∞–∑–∏–Ω –¥–µ—Ç—Å–∫–∏—Ö —Ç–æ–≤–∞—Ä–æ–≤,21,
360,"""–ü–°–ë ""–ñ–ò–õ–°–¢–†–û–ô"", ""–ü–°–ë –ñ–ò–õ–°–¢–†–û–ô""",0,2.0,1.0,1532581204,432,129403040.0,https://pp.userapi.com/c837624/v837624875/177a/wvpHlN377AY.jpg?ava=1,https://vk.com/images/places/place.png,59.936458,30.385613,16155910,16155910,"""–ü–°–ë ""–ñ–ò–õ–°–¢–†–û–ô""",21,
361,—É–ª–∏—Ü–∞ –ö—Ä–∞—Å–Ω–æ–≥–æ –¢–µ–∫—Å—Ç–∏–ª—å—â–∏–∫–∞ 15,25,,,1377933926,53,,,https://vk.com/images/places/place.png,59.938968,30.392753,6326275,6326275,–ï–¥–∏–Ω—ã–π –º–∏–≥—Ä–∞—Ü–∏–æ–Ω–Ω—ã–π —Ü–µ–Ω—Ç—Ä,21,1518594552.0
362,—É–ª–∏—Ü–∞ –ö—Ä–∞—Å–Ω–æ–≥–æ –¢–µ–∫—Å—Ç–∏–ª—å—â–∏–∫–∞ 10,5,,,1440677374,87,,,https://vk.com/images/places/place.png,59.940007,30.394114,12718776,12718776,Red –∑–∞–≤–µ–¥–µ–Ω–∏–µ,21,1535357589.0
363,"—É–ª. –ö—Ä–∞—Å–Ω–æ–≥–æ –¢–µ–∫—Å—Ç–∏–ª—å—â–∏–∫–∞, –¥.10/12, –ª–∏—Ç–µ—Ä–∞ –í, –ù–µ–≤—Å–∫–∞—è –†—É–∫–æ–¥–µ–ª—å–Ω–∏—Ü–∞",29,2.0,1.0,1532568898,127,54881991.0,https://pp.userapi.com/c638531/v638531818/375e1/Zis35x5_bcw.jpg?ava=1,https://vk.com/images/places/place.png,59.940316,30.394498,6350846,6350846,–ù–µ–≤—Å–∫–∞—è –†—É–∫–æ–¥–µ–ª—å–Ω–∏—Ü–∞ (–ü–ù–ö –ò–ú. –ö–ò–†–û–í–ê),21,1528287586.0
364,,2,,,1497941029,92,,,https://vk.com/images/places/place.png,59.938711,30.393886,18423438,18423438,"Sea Life,Hannover",21,1523724548.0
365,–ö—Ä–∞—Å–Ω–æ–≥–æ –¢–µ–∫—Å—Ç–∏–ª—å—â–∏–∫–∞ 10,10,2.0,1.0,1280742078,107,,,https://vk.com/images/places/restaraunt.png,59.939956,30.394677,5063,5063,Buffet Soft,3,1439474482.0
366,–£–ª–∏—Ü–∞ –ö—Ä–∞—Å–Ω–æ–≥–æ –¢–µ–∫—Å—Ç–∏–ª—å—â–∏–∫–∞ 10-12,1,,,1495541765,101,,,https://vk.com/images/places/place.png,59.939979,30.394509,18221823,18221823,–í–∏–∑–æ–≤—ã–π —Ü–µ–Ω—Ç—Ä,21,1495541768.0
367,–£–ª–∏—Ü–∞ –ö—Ä–∞—Å–Ω–æ–≥–æ –¢–µ–∫—Å—Ç–∏–ª—å—â–∏–∫–∞ 10-12,1,,,1502983808,101,,,https://vk.com/images/places/place.png,59.939979,30.394509,18860650,18860650,–ú–¶ –ù–ò–ò –æ–Ω–∫–æ–ª–æ–≥–∏–∏ –∏–º.–ù.–ù.–ü–µ—Ç—Ä–æ–≤–∞,21,1518926480.0
368,—É–ª–∏—Ü–∞ –ö—Ä–∞—Å–Ω–æ–≥–æ –¢–µ–∫—Å—Ç–∏–ª—å—â–∏–∫–∞ 15,9,,,1403078235,121,,,https://vk.com/images/places/place.png,59.938346,30.393331,8819056,8819056,–£—Ñ–º—Å,21,1478602709.0
369,"–ö—Ä–∞—Å–Ω–æ–≥–æ —Ç–µ–∫—Å—Ç–∏–ª—å—â–∏–∫–∞, 17",12,,,1392468813,135,,,https://vk.com/images/places/place.png,59.940082,30.39511,7742142,7742142,–ü—Ä—è–¥–∏–ª—å–Ω–æ-–Ω–∏—Ç–æ—á–Ω—ã–π –∫–æ–º–±–∏–Ω–∞—Ç –∏–º–µ–Ω–∏ –°.–ú.–ö–∏—Ä–æ–≤–∞,21,1516973521.0
370,–¥—É–º—Å–∫–∞—è,5,,,1484989232,132,,,https://vk.com/images/places/place.png,59.938424,30.394331,17199412,17199412,club lomonosov,21,1510519555.0
371,"–°–∏–Ω–æ–ø—Å–∫–∞—è –Ω–∞–±. 78, Buddha-Bar",608,2.0,1.0,1532561967,212,40169847.0,https://pp.userapi.com/c629403/v629403705/32803/8f35H-xBf1g.jpg?ava=1,https://vk.com/images/places/place.png,59.938045,30.395674,2806052,2806052,BUDDHA-BAR St.Petersburg | –ë—É–¥–¥–∞-–ë–∞—Ä,21,1536308525.0
372,"—É–ª–∏—Ü–∞ –ú–æ–∏—Å–µ–µ–Ω–∫–æ, 24–ê",4,2.0,1.0,1532559219,152,38225391.0,https://pp.userapi.com/c604722/v604722850/30539/AZN_UdB-7sQ.jpg?ava=1,https://vk.com/images/places/place.png,59.938998,30.390463,11293987,11293987,"–í–∏–ª–ª–∏ –º–∞—à–∏–Ω–∞. –ú–æ—Ç–æ—Ç—Ä–µ–Ω–∞–∂–µ—Ä, –°–ü–±",21,1509274368.0
373,"—É–ª. –ú–æ–∏—Å–µ–µ–Ω–∫–æ, 28–ê",2,,,1407928370,151,,,https://vk.com/images/places/place.png,59.938116,30.392313,9280920,9280920,—Ä—Å,21,1433328932.0
374,—É–ª–∏—Ü–∞ –ö—Ä–∞—Å–Ω–æ–≥–æ –¢–µ–∫—Å—Ç–∏–ª—å—â–∏–∫–∞ 12,33,,,1420214980,211,,,https://vk.com/images/places/place.png,59.940727,30.395838,10577630,10577630,–°–∏–Ω–æ–ø—Å–∫–∞—è –Ω–∞–±–µ—Ä–µ–∂–Ω–∞—è 78,21,1534606115.0
375,—É–ª–∏—Ü–∞ –ù–æ–≤–≥–æ—Ä–æ–¥—Å–∫–∞—è 23,7,,,1500988176,166,,,https://vk.com/images/places/place.png,59.940609,30.391226,18682145,18682145,–†–µ—Å—Ç–æ—Ä–∞–Ω —Å–µ–≤–µ—Ä–Ω–æ–π –∫—É—Ö–Ω–∏ M√ñ,21,1524989572.0
376,—É–ª–∏—Ü–∞ –ö—Ä–∞—Å–Ω–æ–≥–æ –¢–µ–∫—Å—Ç–∏–ª—å—â–∏–∫–∞ 17,6,,,1369238840,169,,,https://vk.com/images/places/place.png,59.937964,30.393916,5561758,5561758,—à—Ç—Ä–∞—Ñ —Å—Ç–æ—è–Ω–∫–∞ –º–∞—Ç—å –µ–≥–æ,21,1442255637.0
377,—É–ª–∏—Ü–∞ –ö—Ä–∞—Å–Ω–æ–≥–æ –¢–µ–∫—Å—Ç–∏–ª—å—â–∏–∫–∞ 17,13,,,1419839989,187,,,https://vk.com/images/places/place.png,59.937791,30.393826,10546872,10546872,–ö—Ä–∞—Å–Ω–æ–≥–æ —Ç–µ–∫—Å—Ç–∏–ª—å—â–∏–∫–∞,21,1527082183.0
378,–§–æ–Ω–∞—Ä–Ω—ã–π 3,1,,,1445088482,183,,,https://vk.com/images/places/place.png,59.941054,30.393633,13145637,13145637,An_store —à–æ—É—Ä—É–º,21,1446230252.0
379,–°–∏–Ω–æ–ø—Å–∫–∞—è –Ω–∞–±–µ—Ä–µ–∂–Ω–∞—è,6,,,1411724397,193,,,https://vk.com/images/places/place.png,59.939482,30.396536,9682614,9682614,–ú–µ–∂—Ä–∞–π–æ–Ω–Ω–∞—è –∏–Ω—Å–ø–µ–∫—Ü–∏—è –§–µ–¥–µ—Ä–∞–ª—å–Ω–æ–π –Ω–∞–ª–æ–≥–æ–≤–æ–π —Å–ª—É–∂–±—ã ‚Ññ 15 –ø–æ –°–∞–Ω–∫—Ç-–ü–µ—Ç–µ—Ä–±—É—Ä–≥—É,21,1483097748.0
380,,1,,,1435773846,186,,,https://vk.com/images/places/place.png,59.939509,30.3964,12234106,12234106,–ú–ò–§–ù–° 15,21,1467029710.0
381,–°–∏–Ω–æ–ø—Å–∫–∞—è –Ω–∞–±–µ—Ä–µ–∂–Ω–∞—è 76,3,,,1454018760,196,,,https://vk.com/images/places/place.png,59.938578,30.396151,14002589,14002589,Buddhabarspb,21,1476511559.0
382,–°–∏–Ω–æ–ø—Å–∫–∞—è 78,12,,,1442731593,214,,,https://vk.com/images/places/place.png,59.938089,30.395821,12926251,12926251,Budha bar,21,1525011311.0
383,—É–ª–∏—Ü–∞ –ö—Ä–∞—Å–Ω–æ–≥–æ –¢–µ–∫—Å—Ç–∏–ª—å—â–∏–∫–∞ 12,6,,,1439032450,205,,,https://vk.com/images/places/place.png,59.940204,30.396412,12549014,12549014,–ï–¥–∏–Ω—ã–π –º–µ–¥–∏—Ü–∏–Ω—Å–∫–∏–π —Ü–µ–Ω—Ç—Ä,21,1510147195.0
384,–ù–æ–≤–≥–æ—Ä–æ–¥—Å–∫–∞—è 23,1,,,1454755845,206,,,https://vk.com/images/places/place.png,59.939687,30.396726,14083849,14083849,My baby studio,21,1502428729.0
385,"–°–∏–Ω–æ–ø—Å–∫–∞—è –Ω–∞–±.,78",5,,,1466106872,214,,,https://vk.com/images/places/place.png,59.938089,30.395821,15253264,15253264,Buddha-bar Saint-Petersburg,21,1503239058.0
386,—É–ª–∏—Ü–∞ –ö—Ä–∞—Å–Ω–æ–≥–æ –¢–µ–∫—Å—Ç–∏–ª—å—â–∏–∫–∞ 12,9,,,1428391707,222,,,https://vk.com/images/places/place.png,59.94056,30.396343,11501032,11501032,–ù–∞–ª–æ–≥–æ–≤–∞—è –∏–Ω—Å–ø–µ–∫—Ü–∏—è –ò–§–ù–° ‚Ññ15,21,1513773450.0
387,–°–∏–Ω–æ–ø—Å–∫–∞—è –Ω–∞–±–µ—Ä–µ–∂–Ω–∞—è 76A,4,,,1450902207,217,,,https://vk.com/images/places/place.png,59.93783,30.395315,13693884,13693884,Buddha-Bar St.Petersburg,21,1495242340.0
388,"–°–∞–Ω–∫—Ç-–ü–µ—Ç–µ—Ä–±—É—Ä–≥, –°–∏–Ω–æ–ø—Å–∫–∞—è –Ω–∞–±., 78",1,,,1452713299,214,,,https://vk.com/images/places/place.png,59.938089,30.395821,13862549,13862549,–ë—É–¥–¥–∞,21,1452713303.0
389,"—É–ª–∏—Ü–∞ –ú–æ–∏—Å–µ–µ–Ω–∫–æ, 41",3,,,1501613424,226,,,https://vk.com/images/places/place.png,59.937426,30.392351,18738219,18738219,–°–∞–Ω–∫—Ç-–ü–µ—Ç–µ—Ä–±—É—Ä–≥ —É–ª –º–æ–∏—Å–µ–µ–Ω–∫–æ 27,21,1534844703.0
390,"–ú–æ–∏—Å–µ–µ–Ω–∫–æ —É–ª., 43",3,2.0,1.0,1532578767,226,131731391.0,https://pp.userapi.com/c840231/v840231685/a2b4/e7PgrtetFfk.jpg?ava=1,https://vk.com/images/places/place.png,59.937396,30.393279,16488512,16488512,–ö–æ–≤—Ä–∏–∫–∏ WoodRoom luxury,21,1484156847.0
391,—É–ª–∏—Ü–∞ –ù–æ–≤–≥–æ—Ä–æ–¥—Å–∫–∞—è 17,3,,,1448121421,227,,,https://vk.com/images/places/place.png,59.939139,30.389015,13430402,13430402,"–°–∞–Ω–∫—Ç-–ü–µ—Ç–µ—Ä–±—É—Ä–≥, —É–ª.–ì–∞–≤—Ä—Å–∫–∞—è,6",21,1487418513.0
392,,4,,,1428353841,240,,,https://vk.com/images/places/place.png,59.937367,30.394333,11499233,11499233,–ü—Ä–æ—Å–ø–µ–∫—Ç –æ–±—É—Ö–æ–≤—Å–∫–æ–π –æ–±–æ—Ä–æ–Ω—ã  43,21,1477396950.0
393,—É–ª–∏—Ü–∞ –ú–æ–∏—Å–µ–µ–Ω–∫–æ 20,2,,,1406946060,239,,,https://vk.com/images/places/place.png,59.938609,30.389085,9186034,9186034,–î–µ–≥—Ç—è—Ä–Ω—ã–π –ø–µ—Ä–µ—É–ª–æ–∫ 6,21,1528459582.0
394,—É–ª–∏—Ü–∞ –ù–æ–≤–≥–æ—Ä–æ–¥—Å–∫–∞—è,3,,,1368202142,259,,,https://vk.com/images/places/place.png,59.938643,30.388663,5448423,5448423,–†–î#13,21,1461747533.0
395,–°–∏–Ω–æ–ø—Å–∫–∞—è –Ω–∞–±–µ—Ä–µ–∂–Ω–∞—è –¥. 72,2,,,1375449062,260,,,https://vk.com/images/places/place.png,59.937119,30.393829,6109368,6109368,–£ —Ç–µ—Ç–∏),21,1482080193.0
396,"—É–ª. –ú–æ–∏—Å–µ–µ–Ω–∫–æ, 41",5,,,1457084543,268,,,https://vk.com/images/places/place.png,59.937012,30.393175,14329834,14329834,–º–æ–∏—Å–µ–Ω–∫–æ 41,21,1527683475.0
397,"—É–ª.–ú–æ–∏—Å–µ–µ–Ω–∫–æ, 39",3,,,1488900363,264,,,https://vk.com/images/places/place.png,59.937301,30.390915,17610736,17610736,–ê–Ω–≥–∞—Ä,21,1520518876.0
398,"–ø—Ä–æ—Å–ø–µ–∫—Ç –ö–∞—Ä–ª–∞ –ú–∞—Ä–∫—Å–∞, 37",6,,,1490508506,276,,,https://vk.com/images/places/place.png,59.937544,30.396288,17768719,17768719,"–°–∞–Ω–∫—Ç-–ü–µ—Ç–µ—Ä–±—É—Ä–≥, –°–∏–Ω–æ–ø—Å–∫–∞—è –Ω–∞–±–µ—Ä–µ–∂–Ω–∞—è 74",21,1531668419.0
399,"–°–∞–Ω–∫—Ç-–ü–µ—Ç–µ—Ä–±—É—Ä–≥, —É–ª. –ú–æ–∏—Å–µ–µ–Ω–∫–æ –¥. 24, –•–∏–º—á–∏—Å—Ç–∫–∞ Clean-Expert",2,2.0,1.0,1532569010,271,48329352.0,https://sun9-4.userapi.com/c620324/v620324582/fc3d/O4OFU4kgGTc.jpg?ava=1,https://vk.com/images/places/place.png,59.937643,30.389737,4471029,4471029,‚Ä¢‚óè–•–∏–º—á–∏—Å—Ç–∫–∞ –≤ –°–∞–Ω–∫—Ç-–ü–µ—Ç–µ—Ä–±—É—Ä–≥–µ –ö–ª–∏–Ω –≠–∫—Å–ø–µ—Ä—Ç ‚óè‚Ä¢,21,1419339430.0
400,–ú–æ–∏—Å–µ–µ–Ω–∫–æ 22–∞,4,2.0,1.0,1280742023,286,,,https://vk.com/images/places/restaraunt.png,59.937779,30.389099,1477,1477,–¢—Ä–æ–ø–∏–∫–∏,3,1533813459.0
401,"—É–ª. –ú–æ–µ—Å–µ–µ–Ω–∫–æ 39 –∞, –∫—É–∑–Ω–∏—Ü–∞ –ú–∏–∫–æ–ª–∞ –∫—É–∑–Ω–µ—Ü",1,2.0,1.0,1532566268,303,82389772.0,https://pp.userapi.com/c623228/v623228976/132ec/9vP7NyGnbvA.jpg?ava=1,https://vk.com/images/places/place.png,59.936823,30.391407,10570035,10570035,–ö–æ–≤–∞–Ω—ã–µ –ø–æ–¥–∞—Ä–∫–∏ –∏ —Å—É–≤–µ–Ω–∏—Ä—ã –æ—Ç –∫—É–∑–Ω–∏—Ü—ã –≤ –°–ü–±,21,1447153387.0
402,—É–ª–∏—Ü–∞ –ú–æ–∏—Å–µ–µ–Ω–∫–æ 22,6,,,1368455102,319,,,https://vk.com/images/places/place.png,59.937775,30.388365,5479383,5479383,Bercut,21,1419068460.0
403,—É–ª–∏—Ü–∞ –ú–æ–∏—Å–µ–µ–Ω–∫–æ,6,,,1382600112,330,,,https://vk.com/images/places/place.png,59.938037,30.387803,6755243,6755243,–ú–æ–∏—Å–µ–µ–Ω–∫–æ –¥. 24,21,1530939975.0
404,"–ú–æ–∏—Å–µ–µ–Ω–∫–æ —É–ª. 22, –§–∞–±—Ä–∏–∫–∞ –ë–µ–±–µ–ª—è",4,2.0,1.0,1532569394,343,40394408.0,https://vk.com/images/community_50.png?ava=1,https://vk.com/images/places/place.png,59.937734,30.387904,2767515,2767515,MUGGERS,21,1435302079.0
405,"–ú–æ–∏—Å–µ–µ–Ω–∫–æ —É–ª., 22",1,,,1450256413,340,,,https://vk.com/images/places/place.png,59.937735,30.387969,13635220,13635220,"–ö–ì–ü ""–ë–µ–±–µ–ª—è"" (–ì–° ""–ê–∫–∞–¥–æ-–¢–µ–ª–µ–∫–æ–º"")",21,1450256422.0
406,"Unnamed Road, Unnamed Road",2,,,1505679965,370,,,https://vk.com/images/places/place.png,59.936114,30.393669,19097723,19097723,Budda Bar —Å–∏–Ω–æ–ø—Å–∫–∞—è –Ω–∞–±–µ—Ä–µ–∂–Ω–∞—è,21,1508553156.0
407,—É–ª–∏—Ü–∞ –ú–æ–∏—Å–µ–µ–Ω–∫–æ 22,3,,,1513990294,377,,,https://vk.com/images/places/place.png,59.937573,30.387388,19764372,19764372,–º–æ–∏—Å–µ–µ–Ω–∫–æ 22,21,1522952829.0
408,–°–∏–Ω–æ–ø—Å–∫–∞—è –Ω–∞–±–µ—Ä–µ–∂–Ω–∞—è,7,,,1441959334,430,,,https://vk.com/images/places/place.png,59.935867,30.396103,12853621,12853621,St. Petersburg Plaza,21,1518962662.0
409,"—É–ª–∏—Ü–∞ –•–ª–æ–ø–∏–Ω–∞, 3",0,,,1535889512,36,,,https://vk.com/images/places/place.png,59.93925,30.393614,21647739,21647739,"–£–ª. –ö—Ä–∞—Å–Ω–æ–≥–æ –¢–µ–∫—Å—Ç–∏–ª—å—â–∏–∫–∞, 13–∞",21,
410,"—É–ª–∏—Ü–∞ –ö—Ä–∞—Å–Ω–æ–≥–æ –¢–µ–∫—Å—Ç–∏–ª—å—â–∏–∫–∞, 13–í",0,2.0,1.0,1536398310,39,85474844.0,https://pp.userapi.com/c630924/v630924323/222e9/-80K5QxPGTw.jpg?ava=1,https://vk.com/images/places/place.png,59.939168,30.392563,19593798,19593798,–ö–í–û–¢–ê –ù–ê –†–í–ü –°–ü–ë –ö–∞–∑–∞—Ö—Å—Ç–∞–Ω,21,
411,—É–ª–∏—Ü–∞ –ö—Ä–∞—Å–Ω–æ–≥–æ –¢–µ–∫—Å—Ç–∏–ª—å—â–∏–∫–∞ 9,0,,,1482953419,86,,,https://vk.com/images/places/place.png,59.9402,30.393224,16996770,16996770,–î–æ–º –ò–≤–∞–Ω–≥–∞—è,21,1482953423.0
412,—É–ª–∏—Ü–∞ –∫—Ä–∞—Å–Ω–æ–≥–æ —Ç–µ–∫—Å—Ç–∏–ª—å—â–∏–∫–∞ .,0,2.0,1.0,1532583125,90,130101974.0,https://pp.userapi.com/c636017/v636017531/34f09/vCZcGr4GLNo.jpg?ava=1,https://vk.com/images/places/place.png,59.940096,30.394,16778846,16778846,"–®–£–ì–ê–†–ò–ù–ì, –î–ï–ü–ò–õ–Ø–¶–ò–Ø, –ë–†–û–í–ò –°–ü–ë –¶–ï–ù–¢–†–ê–õ–¨–ù–´–ô –†–ê–ô–û–ù",21,
413,"–ù–æ–≤–≥–æ—Ä–æ–¥—Å–∫–∞—è —É–ª–∏—Ü–∞, –¥–æ–º 23, –æ—Ñ–∏—Å 253, –ë–¶ ¬´–ë–∞–∑–µ–ª—å¬ª",0,2.0,1.0,1533285765,104,39014267.0,https://pp.userapi.com/c848636/v848636291/1f2f/CtceWavmt_0.jpg?ava=1,https://vk.com/images/places/place.png,59.940359,30.393294,9359842,9359842,–Æ—Ä–∏–¥–∏—á–µ—Å–∫–∞—è –∫–æ–º–ø–∞–Ω–∏—è ¬´–ì–µ—Ä–º–µ—Å-–ò–Ω—Ñ–æ¬ª | –∞–¥–≤–æ–∫–∞—Ç—ã,21,
414,"–ö—Ä–∞—Å–Ω–æ–≥–æ –¢–µ–∫—Å—Ç–∏–ª—å—â–∏–∫–∞ —É–ª., 9-11",0,2.0,1.0,1532563203,119,40222576.0,https://pp.userapi.com/04vqPVeIl5YQkhSmwApSEU2WDr8wzon-8fTjZA/m6vS9duP-2c.jpg?ava=1,https://vk.com/images/places/place.png,59.940398,30.393995,2716153,2716153,Red –ó–∞–≤–µ–¥–µ–Ω–∏–µ,21,
415,"—É–ª–∏—Ü–∞ –ö—Ä–∞—Å–Ω–æ–≥–æ –¢–µ–∫—Å—Ç–∏–ª—å—â–∏–∫–∞, 10-12–°, –∫—Ä–∞—Å–Ω–æ–≥–æ —Ç–µ–∫—Å—Ç–∏–ª—å—â–∏–∫–∞ 10-12",0,2.0,1.0,1533289487,121,12144461.0,https://sun9-6.userapi.com/c830309/v830309152/13616d/VBHtZTTzF5k.jpg?ava=1,https://vk.com/images/places/place.png,59.939289,30.395218,19100648,19100648,–ú—É—Å–ª–∏–Ω–æ–≤—ã–µ –ø–µ–ª–µ–Ω–∫–∏ Mother &amp; kid –º—É—Å–ª–∏–Ω,21,
416,"–º–æ–∏—Å–µ–µ–Ω–∫–æ 24 –∞, –§–∞—Ä–º–∞—Ü–µ–≤—Ç–∏—á–µ—Å–∫–∞—è —Ñ–∞–±—Ä–∏–∫–∞",0,2.0,1.0,1361996619,147,50331981.0,https://pp.userapi.com/c308527/v308527938/4fed/qZf_dYpXoLw.jpg?ava=1,https://vk.com/images/places/home.png,59.938536,30.391084,4798796,4798796,–ê–Ω—Ç–∏—Ü–µ–ª–ª—é–ª–∏—Ç–Ω–∞—è –ª–∏–Ω–∏—è –∫–æ—Å–º–µ—Ç–∏–∫–∏ –æ—Ç –ø—Ä–æ–∏–∑–≤–æ–¥–∏—Ç–µ–ª—è,1,
417,"–ù–æ–≤–≥–æ—Ä–æ–¥—Å–∫–∞—è —É–ª. –¥–æ–º 23 –æ—Ñ–∏—Å 112, ""–Æ—Ä–∏–¥–∏—á–µ—Å–∫–∏–µ –∞–¥—Ä–µ—Å–∞ 365""",0,2.0,1.0,1532577508,150,151543040.0,https://pp.userapi.com/c841620/v841620498/10226/dxMDX66PYjs.jpg?ava=1,https://vk.com/images/places/place.png,59.940655,30.39191,18785150,18785150,–Æ—Ä–∏–¥–∏—á–µ—Å–∫–∏–µ –∞–¥—Ä–µ—Å–∞ 365,21,
418,"–ù–æ–≤–≥–æ—Ä–æ–¥—Å–∫–∞—è 23, –ß–µ—Ä–Ω—ã—à–µ–≤—Å–∫–∞—è, –í–æ—Å—Å—Ç–∞–Ω–∏—è, –ø–ª. –ê–ª–µ–∫—Å–∞–Ω–¥—Ä–æ-–ù–µ–≤—Å–∫–æ–≥–æ",0,2.0,1.0,1532578842,154,129264436.0,https://pp.userapi.com/c637520/v637520997/10993/zkYsl-e9Zb4.jpg?ava=1,https://vk.com/images/places/place.png,59.940409,30.391099,16136894,16136894,"–ñ–ö ""–ê–ª–µ–∫—Å–∞–Ω–¥—Ä–∏—è""",21,
419,,0,,,1491544809,155,,,https://vk.com/images/places/place.png,59.938199,30.391717,17874076,17874076,"–∫–æ–ª–ø–∏–Ω—Å–∫–∏–π —Ä-–Ω, –≥ –∫–æ–ª–ø–∏–Ω–æ, —É–ª –°–µ–≤–∞—Å—Ç—å—è–Ω–æ–≤–∞, –¥.24",21,1512884466.0
420,"–ù–æ–≤–≥–æ—Ä–æ–¥—Å–∫–∞—è —É–ª–∏—Ü–∞, 23",0,,,1476819843,158,,,https://vk.com/images/places/place.png,59.940831,30.392577,16378980,16378980,–ª–∞–≥–µ—Ä—å –≤–æ–ª–Ω–∞,21,
421,"—É–ª. –ö—Ä–∞—Å–Ω–æ–≥–æ –¢–µ–∫—Å—Ç–∏–ª—å—â–∏–∫–∞, 9",0,,,1391683045,158,,,https://vk.com/images/places/place.png,59.940576,30.394743,7658838,7658838,–†–æ—Å—Ä–∏–µ—Å—Ç—Ä,21,1391683048.0
422,"–°–∏–Ω–æ–ø—Å–∫–∞—è –Ω–∞–±., 32/35",0,2.0,1.0,1532710800,162,161766825.0,https://pp.userapi.com/c845420/v845420915/34774/2-5KPJjYr-8.jpg?ava=1,https://vk.com/images/places/place.png,59.940391,30.395249,20156276,20156276,–ú–û–ó–ì–û–í–ó–†–´–í,21,
423,—É–ª–∏—Ü–∞ –ù–æ–≤–≥–æ—Ä–æ–¥—Å–∫–∞—è 21,0,,,1500987301,176,,,https://vk.com/images/places/place.png,59.940734,30.391256,18682035,18682035,–†–µ—Å—Ç–æ—Ä–∞–Ω —Å–µ–≤–µ—Ä–Ω–æ–π –∫—É—Ö,21,
424,"–ù–æ–≤–≥–æ—Ä–æ–¥—Å–∫–∞—è —É–ª., –¥.23, –ë–¶ ""–ë–∞–∑–µ–ª—å""",0,2.0,1.0,1532565596,177,29724071.0,https://pp.userapi.com/c625825/v625825985/3f5d2/87xdL2keZOI.jpg?ava=1,https://vk.com/images/places/place.png,59.940835,30.391533,8893138,8893138,| –ü–µ—Ä–µ–ø–ª–∞–Ω–∏—Ä–æ–≤–∫–∞ | –ü—Ä–æ–µ–∫—Ç–∏—Ä–æ–≤–∞–Ω–∏–µ | –°–æ–≥–ª–∞—Å–æ–≤–∞–Ω–∏–µ,21,
425,–ù–æ–≤–≥–æ—Ä–æ–¥—Å–∫–∞—è —É–ª.,0,2.0,1.0,1532558636,177,18885043.0,https://pp.userapi.com/c837331/v837331565/28d66/75ttkPsFs_Q.jpg?ava=1,https://vk.com/images/places/place.png,59.940835,30.391533,4083603,4083603,–ê–¥–≤–æ–∫–∞—Ç—Å–∫–∏–π –∫–∞–±–∏–Ω–µ—Ç –ö–∞–∑–∞–∫–æ–≤–∞ –ü–∞–≤–ª–∞ –ò–≥–æ—Ä–µ–≤–∏—á–∞,21,
426,"–ù–æ–≤–≥–æ—Ä–æ–¥—Å–∫–∞—è —É–ª. –¥–æ–º 23, –æ—Ñ–∏—Å 207, –ò–Ω–≤–µ—Å—Ç–∏—Ü–∏–æ–Ω–Ω–∞—è –∫–æ–º–ø–∞–Ω–∏—è –ê–º–ü–∏–†",0,2.0,1.0,1532560293,177,74114696.0,https://pp.userapi.com/c618416/v618416742/11637/6mFdSnjeKro.jpg?ava=1,https://vk.com/images/places/place.png,59.940835,30.391533,9008235,9008235,–ê–º–ü–∏–† –ò–Ω–≤–µ—Å—Ç–∏—Ü–∏–æ–Ω–Ω–∞—è –∫–æ–º–ø–∞–Ω–∏—è,21,
427,,0,,,1470551581,181,,,https://vk.com/images/places/place.png,59.940812,30.394798,15707516,15707516,–ï–¥–∏–Ω—ã–π –º–µ–¥–∏,21,1470551586.0
428,–®–æ—É—Ä—É–º An_store,0,,,1445088414,186,,,https://vk.com/images/places/place.png,59.941079,30.393689,13145629,13145629,–§–æ–Ω–∞—Ä–Ω—ã–π,21,
429,–°–∏–Ω–æ–ø—Å–∫–∞—è –Ω–∞–±–µ—Ä–µ–∂–Ω–∞—è,0,,,1375563126,202,,,https://vk.com/images/places/place.png,59.940134,30.396405,6118628,6118628,–°–∏–Ω–æ–ø—Å–∫–∞—è 78 –∫ 2,21,
430,"–ù–æ–≤–≥–æ—Ä–æ–¥—Å–∫–∞—è —É–ª–∏—Ü–∞, 23. –æ—Ñ–∏—Å. 332-–ê, –£–º–Ω–∞—è –ê–≤—Ç–æ—à–∫–æ–ª–∞ - –≥–ª–∞–≤–Ω—ã–π –æ—Ñ–∏—Å",0,2.0,1.0,1536131040,203,128013322.0,https://pp.userapi.com/c846124/v846124508/a249e/wuGTgrKyZVw.jpg?ava=1,https://vk.com/images/places/place.png,59.940896,30.390857,15950991,15950991,–£–º–Ω–∞—è–ê–≤—Ç–æ—à–∫–æ–ª–∞ + –£—á–∏–ü–î–î = –ø—Ä–∞–≤–∞ —Å 1 —Ä–∞–∑–∞!,21,
431,"—É–ª–∏—Ü–∞ –ê–Ω—Ç–æ–Ω–æ–≤–∞-–û–≤—Å–µ–µ–Ω–∫–æ, 5 –∫–æ—Ä–ø—É—Å 2",0,,,1469812352,228,,,https://vk.com/images/places/place.png,59.939021,30.397075,15631790,15631790,Saab –°–∏–º—Å–∫–∞—è –Ω–∞–±–µ—Ä–µ–∂–Ω–∞—è,21,1469812357.0
432,"—É–ª–∏—Ü–∞ –ú–æ–∏—Å–µ–µ–Ω–∫–æ, 24–ê, –ì–∞–ª–µ–Ω–æ–§–∞—Ä–º¬Æ",0,2.0,1.0,1534418008,231,34490417.0,https://sun9-2.userapi.com/c831308/v831308521/c1e65/4b0t0tkTiZg.jpg?ava=1,https://vk.com/images/places/place.png,59.937792,30.390476,21479026,21479026,–ì–∞–ª–µ–Ω–æ–§–∞—Ä–º,21,
433,"–ú–æ–∏—Å–µ–µ–Ω–∫–æ —É–ª.43, ""Ext - Int""",0,2.0,1.0,1532580157,235,100815665.0,https://pp.userapi.com/c637330/v637330103/603a6/G93VeokaL90.jpg?ava=1,https://vk.com/images/places/place.png,59.937332,30.393599,12809820,12809820,"–ê—Ä—Ö–∏—Ç–µ–∫—Ç—É—Ä–Ω–æ–µ –∞—Ç–µ–ª—å–µ ""Ext - Int""",21,
434,—É–ª. –ú–æ–∏—Å–µ–µ–Ω–∫–æ –¥. 43,0,2.0,1.0,1532570173,245,23803336.0,https://pp.userapi.com/c10760/g23803336/e_76d61584.jpg?ava=1,https://vk.com/images/places/place.png,59.937238,30.393554,3477106,3477106,–°—Ä–æ—á–Ω–æ–µ –∏–∑–≥–æ—Ç–æ–≤–ª–µ–Ω–∏–µ –ø–µ—á–∞—Ç–µ–π –ø–æ –æ—Ç—Ç–∏—Å–∫—É,21,
435,"—É–ª–∏—Ü–∞ –ú–æ–∏—Å–µ–µ–Ω–∫–æ, 39A, –°–¢–£–î–ò–Ø –ë–õ–ï–°–ö–ê !!!",0,2.0,1.0,1532566479,253,95280613.0,https://pp.userapi.com/c639520/v639520465/1df05/AcqwFKOpDuo.jpg?ava=1,https://vk.com/images/places/place.png,59.937223,30.391923,17739603,17739603,–°–¢–£–î–ò–Ø –ë–õ–ï–°–ö–ê **–ü–û–õ–ò–†–û–í–ö–ê**–î–ï–¢–ï–ô–õ–ò–ù–ì**,21,1494842754.0
436,"–ë–æ–ª—å—à–∞—è –≥—Ä–∞–∂–¥–∞–Ω—Å–∫–∞—è —É–ª–∏—Ü–∞, 5",0,,,1490468627,255,,,https://vk.com/images/places/place.png,59.937691,30.396055,17766494,17766494,—Ä–µ–∂–Ω–∞—è 74,21,1490468631.0
437,–°–∏–Ω–æ–ø—Å–∫–∞—è –Ω–∞–±–µ—Ä–µ–∂–Ω–∞—è,0,,,1447539325,266,,,https://vk.com/images/places/place.png,59.938638,30.397574,13374998,13374998,–î–µ–≤—É—à–∫–∞ –í–ª–∞–¥–∞,21,1447539328.0
438,"–¶–ï–ù–¢–† –ü–û–ú–û–©–ò –ú–ò–ì–†–ê–ù–¢–ê–ú –í –°–ê–ù–ö–¢-–ü–ï–¢–ï–†–ë–£–†–ì–ï, –¶–ï–ù–¢–† –ü–û–ú–û–©–ò –ú–ò–ì–†–ê–ù–¢–ê–ú –í –°–ê–ù–ö–¢-–ü–ï–¢–ï–†–ë–£–†–ì–ï –ò –õ–ï–ù–ò–ì–†–ê–î–°–ö–û–ô –û–ë–õ–ê–°–¢–ò",0,2.0,1.0,1532578803,267,153092460.0,https://pp.userapi.com/c840524/v840524838/8368/FexQrFHtwDA.jpg?ava=1,https://vk.com/images/places/place.png,59.938703,30.38847,19020918,19020918,–¶–ï–ù–¢–† –ü–û–ú–û–©–ò –ú–ò–ì–†–ê–ù–¢–ê–ú –í –°–ê–ù–ö–¢-–ü–ï–¢–ï–†–ë–£–†–ì–ï,21,
439,—É–ª–∏—Ü–∞ –ú–æ–∏—Å–µ–µ–Ω–∫–æ,0,,,1467538689,286,,,https://vk.com/images/places/place.png,59.937779,30.389099,15391147,15391147,Beautylab by JR SPb,21,1467538698.0
440,"—É–ª–∏—Ü–∞ –ú–æ–∏—Å–µ–µ–Ω–∫–æ, 22–ë, –æ—Ñ–∏—Å 12, Taxi Racer",0,2.0,1.0,1532579587,290,147895123.0,https://pp.userapi.com/c841632/v841632160/c13e/zUAMPIbAQz0.jpg?ava=1,https://vk.com/images/places/place.png,59.937968,30.38873,18546492,18546492,Taxi Racer. –ü–æ–¥–∫–ª—é—á–µ–Ω–∏–µ –∫ —Å–ª—É–∂–±–∞–º —Ç–∞–∫—Å–∏,21,
441,"JDM Garage SPB „Éâ„É™„Éï„Éà „Ç¨„É¨„Éº„Ç∏, JDM Garage SPB Â†±„Ç¨„É¨„Éº„Ç∏",0,2.0,1.0,1532558698,296,19112049.0,https://pp.userapi.com/c824503/v824503343/ad629/du6ejfHoqQI.jpg?ava=1,https://vk.com/images/places/place.png,59.936769,30.39262,12116262,12116262,JDM Garage SPB „Éâ„É™„Éï„Éà „Ç¨„É¨„Éº„Ç∏,21,
442,–°–∏–Ω–æ–ø—Å–∫–∞—è –Ω–∞–±–µ—Ä–µ–∂–Ω–∞—è,0,,,1482492563,298,,,https://vk.com/images/places/place.png,59.93695,30.395116,16956160,16956160,—Å–∏–Ω–æ–ø—Å–∫–∞—è –Ω–∞–±–µ–æ–µ–∂–Ω–∞—è,21,1482492567.0
443,–ú–æ—Ç–æ –†–µ–º–æ–Ω—Ç,0,2.0,1.0,1532563080,314,68829066.0,https://vk.com/images/community_50.png?ava=1,https://vk.com/images/places/place.png,59.936728,30.391363,8129318,8129318,–ú–æ—Ç–æ –†–µ–º–æ–Ω—Ç,21,
444,Sinopskaya naberezhnaya,0,,,1461350255,318,,,https://vk.com/images/places/place.png,59.936769,30.395197,14776370,14776370,Sankts,21,1461350351.0
445,"—É–ª–∏—Ü–∞ –ú–æ–∏—Å–µ–µ–Ω–∫–æ, 39–ê–ì, –¶–µ–Ω—Ç—Ä–∞–ª—å–Ω—ã–π-1",0,2.0,1.0,1534794203,326,117220101.0,https://pp.userapi.com/c841028/v841028381/4fe83/PxelHj4wNnQ.jpg?ava=1,https://vk.com/images/places/place.png,59.936535,30.392086,19747668,19747668,"–î–µ—Ç—Å–∫–æ-—é–Ω–æ—à–µ—Å–∫–∞—è —Ñ—É—Ç–±–æ–ª—å–Ω–∞—è —à–∫–æ–ª–∞ ""–î–µ–ª—å—Ç–∞""",21,1526130719.0
446,"Flow Agency, Flow Agency - –º–∞—Ä–∫–µ—Ç–∏–Ω–≥–æ–≤–æ–µ –∞–≥–µ–Ω—Ç—Å—Ç–≤–æ",0,2.0,1.0,1533722885,343,161910208.0,https://pp.userapi.com/c846124/v846124296/8bb2c/zR7VdTzAapE.jpg?ava=1,https://vk.com/images/places/place.png,59.937734,30.387904,20252203,20252203,Flow Agency,21,
447,"–ú–æ–∏—Å–µ–µ–Ω–∫–æ –¥.22 —Ç–µ–ª. 8904-553-31-01, –û–û–û""–ê–ª—å–ø–∞—Å""",0,2.0,1.0,1532562515,343,90891799.0,https://pp.userapi.com/c623920/v623920444/292d7/LuZkiPrygbA.jpg?ava=1,https://vk.com/images/places/place.png,59.937734,30.387904,11422788,11422788,–¢—Ä—É–¥–æ–≤–æ–π –ø–∞—Ç–µ–Ω—Ç –≤ –°–ü–±,21,1494823913.0
448,"""–ü–ª–∞–Ω–µ—Ç–∞ –¢–∞–Ω—Ü–∞"", –¢–∞–Ω—Ü–µ–≤–∞–ª—å–Ω–∞—è —Å—Ç—É–¥–∏—è ""–ü–ª–∞–Ω–µ—Ç–∞ –¢–∞–Ω—Ü–∞""",1,2.0,1.0,1532578494,4299,100166466.0,https://pp.userapi.com/c629411/v629411412/30920/agfg7XyCzcY.jpg?ava=1,https://vk.com/images/places/place.png,59.939095,30.315868,12625845,12625845,"""–ü–ª–∞–Ω–µ—Ç–∞ –¢–∞–Ω—Ü–∞""",21,1515598007.0
449,"–ü–ª–∞—Ç—å—è. EA. EsenyA fashion. –í –æ—Ñ–∏—Å. –ù–∞ —Å–≤–∏–¥–∞–Ω–∏–µ, –ù–µ–¥–∞–ª–µ–∫–æ –æ—Ç –º –ø—Ä.–ë–æ–ª—å—à–µ–≤–∏–∫–æ–≤",0,2.0,1.0,1532559546,4299,67079851.0,https://pp.userapi.com/GLuaxDtXnbV0FpTNplp2E1mFk2VoFxKy6WQGhw/C7bg21BuS7w.jpg?ava=1,https://vk.com/images/places/place.png,59.939095,30.315868,8564212,8564212,–ü–ª–∞—Ç—å—è. EA. EsenyA fashion. –í –æ—Ñ–∏—Å. –ù–∞ —Å–≤–∏–¥–∞–Ω–∏–µ,21,
450,–§–æ–Ω–∞—Ä–Ω—ã–π 3,1,,,1445088482,42,,,https://vk.com/images/places/place.png,59.941054,30.393633,13145637,13145637,An_store —à–æ—É—Ä—É–º,21,1446230252.0
451,"—É–ª. –ö—Ä–∞—Å–Ω–æ–≥–æ –¢–µ–∫—Å—Ç–∏–ª—å—â–∏–∫–∞, 10‚Äì12",343,2.0,1.0,1533197320,112,12047395.0,https://sun9-4.userapi.com/c831209/v831209410/ebcf9/dIa0ZABU4Nw.jpg?ava=1,https://vk.com/images/places/place.png,59.941388,30.395068,3160205,3160205,–ï–î–ò–ù–´–ô –¶–ï–ù–¢–† –î–û–ö–£–ú–ï–ù–¢–û–í,21,1536643860.0
452,"—É–ª–∏—Ü–∞ –ì—Ä–∏–±–∞–∫–∏–Ω—ã—Ö, 30",1,,,1519282755,76,,,https://vk.com/images/places/place.png,59.941659,30.39423,20173316,20173316,–¢–µ–∫—Å—Ç–∏–ª—å—â–∏–∫–æ–≤ 4,21,1519282758.0
453,–ù–æ–≤–≥–æ—Ä–æ–¥—Å–∫–∞—è 27,24,2.0,1.0,1280742123,113,,,https://vk.com/images/places/restaraunt.png,59.942277,30.392476,6265,6265,–û—Ö–æ—Ç–Ω–∏—á–∏–π –∫–ª—É–±,3,1535387573.0
454,–Ω–∞–±. –°–∏–Ω–æ–ø—Å–∫–∞—è 78,768,,,1367962687,149,,,https://vk.com/images/places/restaraunt.png,59.941471,30.395721,5423908,5423908,Buddha-bar,3,1533925491.0
455,"—É–ª. –ö—Ä–∞—Å–Ω–æ–≥–æ –¢–µ–∫—Å—Ç–∏–ª—å—â–∏–∫–∞, –¥.10/12, –ª–∏—Ç–µ—Ä–∞ –í, –ù–µ–≤—Å–∫–∞—è –†—É–∫–æ–¥–µ–ª—å–Ω–∏—Ü–∞",29,2.0,1.0,1532568898,135,54881991.0,https://pp.userapi.com/c638531/v638531818/375e1/Zis35x5_bcw.jpg?ava=1,https://vk.com/images/places/place.png,59.940316,30.394498,6350846,6350846,–ù–µ–≤—Å–∫–∞—è –†—É–∫–æ–¥–µ–ª—å–Ω–∏—Ü–∞ (–ü–ù–ö –ò–ú. –ö–ò–†–û–í–ê),21,1528287586.0
456,—É–ª–∏—Ü–∞ –ö—Ä–∞—Å–Ω–æ–≥–æ –¢–µ–∫—Å—Ç–∏–ª—å—â–∏–∫–∞ 12,15,,,1414652322,119,,,https://vk.com/images/places/place.png,59.941446,30.395174,9993717,9993717,–£–§–ú–° –†–û–°–°–ò–ò –ü–û –°–ü–ë –ò –õ–û,21,1534579867.0
457,,4,,,1496398519,106,,,https://vk.com/images/places/place.png,59.941585,30.394875,18293119,18293119,–£–ª–∏—Ü–∞ –ö—Ä–∞—Å–Ω–æ–≥–æ —Ç–µ–∫—Å—Ç–∏–ª—å—â–∏–∫–∞,21,1520405547.0
458,–ö—Ä–∞—Å–Ω–æ–≥–æ –¢–µ–∫—Å—Ç–∏–ª—å—â–∏–∫–∞ —É–ª. –¥–æ–º 10,3,2.0,1.0,1532560747,105,35711303.0,https://pp.userapi.com/xHWKebgb9fXSld1evXOApkEoSRyxg8VPggBHzA/clK5kTlG1xI.jpg?ava=1,https://vk.com/images/places/place.png,59.94156,30.394875,6584092,6584092,–†–µ–≥–∏—Å—Ç—Ä–∞—Ü–∏—è —Ñ–∏—Ä–º –û–û–û –ò–ü Online,21,1477998403.0
459,–ö—Ä–∞—Å–Ω–æ–≥–æ –¢–µ–∫—Å—Ç–∏–ª—å—â–∏–∫–∞ —É–ª. –¥–æ–º 10,2,2.0,1.0,1532560917,105,35733507.0,https://pp.userapi.com/c5181/g35733507/e_6b384965.jpg?ava=1,https://vk.com/images/places/place.png,59.94156,30.394875,6581331,6581331,–õ–∏–∫–≤–∏–¥–∞—Ü–∏—è —Ñ–∏—Ä–º –û–û–û –ò–ü,21,1498715201.0
460,—É–ª–∏—Ü–∞ –ù–æ–≤–≥–æ—Ä–æ–¥—Å–∫–∞—è,23,,,1385826126,134,,,https://vk.com/images/places/place.png,59.942474,30.392486,7073365,7073365,"–ù–æ–≤–≥–æ—Ä–æ–¥—Å–∫–∞—è, 23",21,1535088256.0
461,"–ï–¥–∏–Ω—ã–π –¶–µ–Ω—Ç—Ä –î–æ–∫—É–º–µ–Ω—Ç–æ–≤, –ö—Ä–∞—Å–Ω–æ–≥–æ –¢–µ–∫—Å—Ç–∏–ª—å—â–∏–∫–∞ —É–ª. 10",1,2.0,1.0,1532572715,105,49564722.0,https://vk.com/images/deactivated_50.png?ava=1,https://vk.com/images/places/place.png,59.94156,30.394875,4672938,4672938,–û—Ñ–æ—Ä–º–ª–µ–Ω–∏–µ –ó–∞–≥—Ä–∞–Ω–ø–∞—Å–ø–æ—Ä—Ç–∞ –∏ –í–∏–∑—ã.,21,1457179109.0
462,—É–ª–∏—Ü–∞ –ù–æ–≤–≥–æ—Ä–æ–¥—Å–∫–∞—è,22,,,1421503377,136,,,https://vk.com/images/places/place.png,59.940896,30.390732,10722041,10722041,–ë–∏–∑–Ω–µ—Å —Ü–µ–Ω—Ç—Ä –ë–∞–∑–µ–ª—å,21,1535136871.0
463,—É–ª–∏—Ü–∞ –ö—Ä–∞—Å–Ω–æ–≥–æ –¢–µ–∫—Å—Ç–∏–ª—å—â–∏–∫–∞ 2–∫2,6,,,1474816475,119,,,https://vk.com/images/places/place.png,59.941913,30.394819,16169408,16169408,Glossphoto,21,1507230400.0
464,—É–ª–∏—Ü–∞ –ù–æ–≤–≥–æ—Ä–æ–¥—Å–∫–∞—è 26,3,,,1424103690,119,,,https://vk.com/images/places/place.png,59.941634,30.391007,11018746,11018746,Soleans travel,21,1506410047.0
465,—É–ª–∏—Ü–∞ –ö—Ä–∞—Å–Ω–æ–≥–æ –¢–µ–∫—Å—Ç–∏–ª—å—â–∏–∫–∞ 12,33,,,1420214980,167,,,https://vk.com/images/places/place.png,59.940727,30.395838,10577630,10577630,–°–∏–Ω–æ–ø—Å–∫–∞—è –Ω–∞–±–µ—Ä–µ–∂–Ω–∞—è 78,21,1534606115.0
466,—É–ª–∏—Ü–∞ –ö—Ä–∞—Å–Ω–æ–≥–æ –¢–µ–∫—Å—Ç–∏–ª—å—â–∏–∫–∞ 12,31,,,1415775446,165,,,https://vk.com/images/places/place.png,59.940817,30.39587,10119904,10119904,—É–ª. –ö—Ä–∞—Å–Ω–æ–≥–æ –¢–µ–∫—Å—Ç–∏–ª—å—â–∏–∫–∞,21,1534578260.0
467,—É–ª–∏—Ü–∞ –ù–æ–≤–≥–æ—Ä–æ–¥—Å–∫–∞—è 23,7,,,1500988176,127,,,https://vk.com/images/places/place.png,59.940609,30.391226,18682145,18682145,–†–µ—Å—Ç–æ—Ä–∞–Ω —Å–µ–≤–µ—Ä–Ω–æ–π –∫—É—Ö–Ω–∏ M√ñ,21,1524989572.0
468,—É–ª–∏—Ü–∞ –ù–æ–≤–≥–æ—Ä–æ–¥—Å–∫–∞—è,3,,,1471194275,123,,,https://vk.com/images/places/place.png,59.941443,30.39085,15777641,15777641,Teak house,21,1505721866.0
469,—É–ª–∏—Ü–∞ –ö—Ä–∞—Å–Ω–æ–≥–æ –¢–µ–∫—Å—Ç–∏–ª—å—â–∏–∫–∞ 2,44,,,1370270982,200,,,https://vk.com/images/places/place.png,59.942494,30.395759,5666213,5666213,–û–ê–û –°–±–µ—Ä–±–∞–Ω–∫ –†–æ—Å—Å–∏–∏,21,1527862560.0
470,—É–ª–∏—Ü–∞ –ù–æ–≤–≥–æ—Ä–æ–¥—Å–∫–∞—è,3,,,1471272335,135,,,https://vk.com/images/places/place.png,59.941049,30.390679,15786793,15786793,–ë–∞–∑–µ–ª—å,21,1507560149.0
471,–ù–æ–≤–≥–æ—Ä–æ–¥—Å–∫–∞—è 26,1,,,1473347906,140,,,https://vk.com/images/places/place.png,59.942283,30.391477,16016697,16016697,–ù–æ–≤–≥–æ—Ä–æ–¥—Å–∫–∞—è 26,21,1523185190.0
472,"–°–ü–±, –ù–æ–≤–≥–æ—Ä–æ–¥—Å–∫–∞—è —É–ª–∏—Ü–∞ –¥–æ–º.23, –ë–¶ ""–ë–∞–∑–µ–ª—å"", 3 —ç—Ç–∞–∂, –æ—Ñ–∏—Å 344, –®–∫–æ–ª–∞ —Ç–∞–Ω—Ü–µ–≤ ""–≠–∫—Å–ø—Ä–æ–º—Ç""",3,2.0,1.0,1532558067,148,202876.0,https://pp.userapi.com/c824603/v824603560/182308/R7TIW5WPfGM.jpg?ava=1,https://vk.com/images/places/place.png,59.94079,30.39059,2829399,2829399,"–®–∫–æ–ª–∞ —Ç–∞–Ω—Ü–µ–≤ ""–≠–∫—Å–ø—Ä–æ–º—Ç"", —Ç–∞–Ω—Ü–µ–≤–∞–ª—å–Ω–∞—è —Å—Ç—É–¥–∏—è!",21,1519569099.0
473,"–°–ü–±, –ù–æ–≤–≥–æ—Ä–æ–¥—Å–∫–∞—è —É–ª., 23, –ë–¶ ""–ë–∞–∑–µ–ª—å"", —Ü–µ–Ω—Ç—Ä–∞–ª—å–Ω—ã–π –≤—Ö–æ–¥, 3 —ç—Ç–∞–∂., –®–∫–æ–ª–∞ —Ç–∞–Ω—Ü–µ–≤ ""–≠–∫—Å–ø—Ä–æ–º—Ç""",1,2.0,1.0,1532558736,148,10566094.0,https://pp.userapi.com/c636516/v636516149/1cc99/N1MfzLNDDMY.jpg?ava=1,https://vk.com/images/places/place.png,59.94079,30.39059,2177897,2177897,"–°–≤–∞–¥–µ–±–Ω—ã–π —Ç–∞–Ω–µ—Ü –∂–µ–Ω–∏—Ö–∞ –∏ –Ω–µ–≤–µ—Å—Ç—ã, –ø–æ—Å—Ç–∞–Ω–æ–≤–∫–∞",21,1374245454.0
474,"–°–ü–±, –ù–æ–≤–≥–æ—Ä–æ–¥—Å–∫–∞—è —É–ª., –¥–æ–º 23, –ë–¶ ""–ë–∞–∑–µ–ª—å"", 3 —ç—Ç–∞–∂, –æ—Ñ–∏—Å 344, –®–∫–æ–ª–∞ —Ç–∞–Ω—Ü–µ–≤ ""–≠–∫—Å–ø—Ä–æ–º—Ç""",1,2.0,1.0,1532558508,148,10554095.0,https://pp.userapi.com/c845220/v845220337/f854c/HrptI2miCVw.jpg?ava=1,https://vk.com/images/places/place.png,59.94079,30.39059,15771151,15771151,"–¢–∞–Ω—Ü—ã –¥–ª—è –¥–µ—Ç–µ–π —à–∫–æ–ª–∞! –î–µ—Ç—Å–∫–∏–µ —Ç–∞–Ω—Ü—ã, –∫—Ä—É–∂–∫–∏!",21,1481576131.0
475,"–°–ü–±, –ù–æ–≤–≥–æ—Ä–æ–¥—Å–∫–∞—è —É–ª–∏—Ü–∞ –¥–æ–º.23, –ë–¶ ""–ë–∞–∑–µ–ª—å"", 3 —ç—Ç–∞–∂, –æ—Ñ–∏—Å 344, –®–∫–æ–ª–∞ —Ç–∞–Ω—Ü–µ–≤ ""–≠–∫—Å–ø—Ä–æ–º—Ç""",1,2.0,1.0,1532558709,148,10855713.0,https://pp.userapi.com/c850528/v850528083/913e/rk2drKPVDE4.jpg?ava=1,https://vk.com/images/places/place.png,59.94079,30.39059,15771146,15771146,"–®–ö–û–õ–ê –¢–ê–ù–¶–ê –ñ–ò–í–û–¢–ê. –í–æ—Å—Ç–æ—á–Ω—ã–π —Ç–∞–Ω–µ—Ü, —Å—Ç—É–¥–∏—è.",21,1509146198.0
476,"–¢—É–ª—å—Å–∫–∞—è —É–ª., 11",1,,,1443011470,148,,,https://vk.com/images/places/place.png,59.942635,30.39324,12953857,12953857,–ª–µ–≤—à–∞ –°-–ü–±,21,1474629602.0
477,"–Ω–æ–≤–≥–æ—Ä–æ–¥—Å–∫–∞—è 23, —á–µ—Ä–Ω—ã—à–µ–≤—Å–∫–∞—è",1,2.0,1.0,1532558652,148,13035133.0,https://pp.userapi.com/c840539/v840539993/21b94/bgOMwMbQUIQ.jpg?ava=1,https://vk.com/images/places/place.png,59.94079,30.39059,6210244,6210244,PILIM nail studio,21,1524515236.0
478,—É–ª–∏—Ü–∞ –ö–æ—Å—Ç—Ä–æ–º—Å–∫–∞—è 4,78,,,1375534552,223,,,https://vk.com/images/places/place.png,59.942582,30.389973,6115678,6115678,–†–æ–¥–¥–æ–º N13,21,1533901529.0
479,—É–ª–∏—Ü–∞ –ö—Ä–∞—Å–Ω–æ–≥–æ –¢–µ–∫—Å—Ç–∏–ª—å—â–∏–∫–∞ 10,5,,,1440677374,155,,,https://vk.com/images/places/place.png,59.940007,30.394114,12718776,12718776,Red –∑–∞–≤–µ–¥–µ–Ω–∏–µ,21,1535357589.0
480,—É–ª–∏—Ü–∞ –¢—É–ª—å—Å–∫–∞—è 13,3,,,1495381500,154,,,https://vk.com/images/places/place.png,59.942675,30.393464,18208460,18208460,"–õ–µ–Ω–∏–Ω–≥—Ä–∞–¥—Å–∫–∞—è –æ–±–ª–∞—Å—Ç—å, –í—Å–µ–≤–æ–ª–æ–∂—Å–∫–∏–π —Ä–∞–π–æ–Ω, –°–ù–¢ ""–ó–∞–æ–∑–µ—Ä–Ω–æ–µ""",21,1526034811.0
481,"–ù–æ–≤–≥–æ—Ä–æ–¥—Å–∫–∞—è —É–ª–∏—Ü–∞, 23",2,,,1504515418,160,,,https://vk.com/images/places/place.png,59.940857,30.390306,18998352,18998352,—Å—É–ø–µ—Ä–º–∞—Ä–∫–µ—Ç –õ–µ–Ω—Ç–∞,21,1537130212.0
482,"–ö—Ä–∞—Å–Ω–æ–≥–æ —Ç–µ–∫—Å—Ç–∏–ª—å—â–∏–∫–∞, 17",12,,,1392468813,177,,,https://vk.com/images/places/place.png,59.940082,30.39511,7742142,7742142,–ü—Ä—è–¥–∏–ª—å–Ω–æ-–Ω–∏—Ç–æ—á–Ω—ã–π –∫–æ–º–±–∏–Ω–∞—Ç –∏–º–µ–Ω–∏ –°.–ú.–ö–∏—Ä–æ–≤–∞,21,1516973521.0
483,—É–ª–∏—Ü–∞ –ö—Ä–∞—Å–Ω–æ–≥–æ –¢–µ–∫—Å—Ç–∏–ª—å—â–∏–∫–∞ 2,2,,,1390290551,161,,,https://vk.com/images/places/place.png,59.942296,30.395176,7499850,7499850,–§–†–° –ª—é–±–∏–º—ã–π,21,1411727077.0
484,–ö—Ä–∞—Å–Ω–æ–≥–æ –¢–µ–∫—Å—Ç–∏–ª—å—â–∏–∫–∞ 10,10,2.0,1.0,1280742078,174,,,https://vk.com/images/places/restaraunt.png,59.939956,30.394677,5063,5063,Buffet Soft,3,1439474482.0
485,—É–ª–∏—Ü–∞ –¢—É–ª—å—Å–∫–∞—è,11,,,1500746786,176,,,https://vk.com/images/places/place.png,59.942872,30.393521,18660205,18660205,"–°—Ç—Ä–µ–ª—å–Ω–∞, –î–≤–æ—Ä–µ—Ü –ü–µ—Ç—Ä–∞ I",21,1534499575.0
486,—É–ª–∏—Ü–∞ –¢—É–ª—å—Å–∫–∞—è,7,,,1504947070,175,,,https://vk.com/images/places/place.png,59.942508,30.395073,19033776,19033776,"–ö—Ä–∞—Å–Ω–æ–≥–æ —Ç–µ–∫—Å—Ç–∏–ª—å—â–∏–∫–∞, –¥.2",21,1522477376.0
487,,1,,,1504089387,166,,,https://vk.com/images/places/place.png,59.940936,30.390161,18960637,18960637,"–¢–≤–µ—Ä—Å–∫–∞—è —É–ª., 10 –°—Ç—É–¥–∏—è –î—ã—Ö–∞–Ω–∏–µ –¢–µ–ª–∞",21,1504089395.0
488,–£–ª–∏—Ü–∞ –ö—Ä–∞—Å–Ω–æ–≥–æ –¢–µ–∫—Å—Ç–∏–ª—å—â–∏–∫–∞ 10-12,1,,,1502983808,167,,,https://vk.com/images/places/place.png,59.939979,30.394509,18860650,18860650,–ú–¶ –ù–ò–ò –æ–Ω–∫–æ–ª–æ–≥–∏–∏ –∏–º.–ù.–ù.–ü–µ—Ç—Ä–æ–≤–∞,21,1518926480.0
489,–£–ª–∏—Ü–∞ –ö—Ä–∞—Å–Ω–æ–≥–æ –¢–µ–∫—Å—Ç–∏–ª—å—â–∏–∫–∞ 10-12,1,,,1495541765,167,,,https://vk.com/images/places/place.png,59.939979,30.394509,18221823,18221823,–í–∏–∑–æ–≤—ã–π —Ü–µ–Ω—Ç—Ä,21,1495541768.0
490,—É–ª–∏—Ü–∞ –ö—Ä–∞—Å–Ω–æ–≥–æ –¢–µ–∫—Å—Ç–∏–ª—å—â–∏–∫–∞ 12,9,,,1428391707,200,,,https://vk.com/images/places/place.png,59.94056,30.396343,11501032,11501032,–ù–∞–ª–æ–≥–æ–≤–∞—è –∏–Ω—Å–ø–µ–∫—Ü–∏—è –ò–§–ù–° ‚Ññ15,21,1513773450.0
491,—É–ª–∏—Ü–∞ –ö—Ä–∞—Å–Ω–æ–≥–æ –¢–µ–∫—Å—Ç–∏–ª—å—â–∏–∫–∞ 12,17,,,1447451448,222,,,https://vk.com/images/places/place.png,59.940941,30.396993,13367633,13367633,–ë—É–¥–¥–∞ –±–∞—Ä 3 –≥–æ–¥–∞! –í–∞–∞—É!!!,21,1511029331.0
492,–°–º–æ–ª—å–Ω–∞—è –Ω–∞–±–µ—Ä–µ–∂–Ω–∞—è,24,,,1456695644,240,,,https://vk.com/images/places/place.png,59.94094,30.397315,14291119,14291119,Bydda bar,21,1527369248.0
493,,1,,,1493628911,200,,,https://vk.com/images/places/place.png,59.940716,30.396458,18050691,18050691,—Å–∏–Ω–æ–ø—Å–∫–∞—è –Ω–∞–±–µ—Ä–∫–∂–Ω–∞—è 78,21,1499496451.0
494,—É–ª–∏—Ü–∞ –ö—Ä–∞—Å–Ω–æ–≥–æ –¢–µ–∫—Å—Ç–∏–ª—å—â–∏–∫–∞ 15,25,,,1377933926,259,,,https://vk.com/images/places/place.png,59.938968,30.392753,6326275,6326275,–ï–¥–∏–Ω—ã–π –º–∏–≥—Ä–∞—Ü–∏–æ–Ω–Ω—ã–π —Ü–µ–Ω—Ç—Ä,21,1518594552.0
495,—É–ª–∏—Ü–∞ –ö—Ä–∞—Å–Ω–æ–≥–æ –¢–µ–∫—Å—Ç–∏–ª—å—â–∏–∫–∞ 12,6,,,1439032450,223,,,https://vk.com/images/places/place.png,59.940204,30.396412,12549014,12549014,–ï–¥–∏–Ω—ã–π –º–µ–¥–∏—Ü–∏–Ω—Å–∫–∏–π —Ü–µ–Ω—Ç—Ä,21,1510147195.0
496,Tul'skaya ulitsa 9,12,,,1493677424,241,,,https://vk.com/images/places/place.png,59.94314,30.39074,18056573,18056573,"–°–∞–Ω–∫—Ç-–ø–µ—Ç–µ—Ä–±—É—Ä–≥, –¢—É–ª—å—Å–∫–∞—è",21,1537304866.0
497,"–ö–æ—Å—Ç—Ä–æ–º—Å–∫–∞—è —É–ª., 4",7,,,1431282566,234,,,https://vk.com/images/places/place.png,59.94224,30.389291,11797868,11797868,–∫–æ—Å—Ç—Ä–æ–º—Å–∫–∞—è —É–ª–∏—Ü–∞ 4,21,1520673262.0
498,—É–ª–∏—Ü–∞ –ö–æ—Å—Ç—Ä–æ–º—Å–∫–∞—è 5‚Äì7,16,,,1424284391,255,,,https://vk.com/images/places/place.png,59.942926,30.389818,11040933,11040933,–†–æ–¥–¥–æ–º 13,21,1535176675.0
499,,25,,,1469252357,306,,,https://vk.com/images/places/place.png,59.940958,30.387586,15570956,15570956,–°–∞–Ω–∫—Ç-–ü–µ—Ç–µ—Ä–±—É—Ä–≥üôà‚ô•Ô∏è,21,1534181201.0
500,–ö–≤–∞—Ä–µ–Ω–≥–∏ –ø–µ—Ä–µ—É–ª–æ–∫ 2,6,,,1399349256,266,,,https://vk.com/images/places/place.png,59.94102,30.397807,8459992,8459992,–ö—Ä–∞—Å–Ω—ã—Ö —Ç–µ–∫—Å—Ç–∏–ª—å—â–∏–∫–æ–≤,21,1536152235.0
501,"–ö–æ—Å—Ç—Ä–æ–º—Å–∫–∞—è —É–ª., 7",6,,,1388518939,267,,,https://vk.com/images/places/place.png,59.942937,30.389541,7321927,7321927,—Ç—É–ª—å—Å–∫–∞—è 3,21,1517509107.0
502,–°–∏–Ω–æ–ø—Å–∫–∞—è –Ω–∞–±–µ—Ä–µ–∂–Ω–∞—è,6,,,1411724397,280,,,https://vk.com/images/places/place.png,59.939482,30.396536,9682614,9682614,–ú–µ–∂—Ä–∞–π–æ–Ω–Ω–∞—è –∏–Ω—Å–ø–µ–∫—Ü–∏—è –§–µ–¥–µ—Ä–∞–ª—å–Ω–æ–π –Ω–∞–ª–æ–≥–æ–≤–æ–π —Å–ª—É–∂–±—ã ‚Ññ 15 –ø–æ –°–∞–Ω–∫—Ç-–ü–µ—Ç–µ—Ä–±—É—Ä–≥—É,21,1483097748.0
503,,1,,,1435773846,272,,,https://vk.com/images/places/place.png,59.939509,30.3964,12234106,12234106,–ú–ò–§–ù–° 15,21,1467029710.0
504,–ù–æ–≤–≥–æ—Ä–æ–¥—Å–∫–∞—è 23,1,,,1454755845,272,,,https://vk.com/images/places/place.png,59.939687,30.396726,14083849,14083849,My baby studio,21,1502428729.0
505,"—É–ª–∏—Ü–∞ –ú–æ–∏—Å–µ–µ–Ω–∫–æ, 24–ê",4,2.0,1.0,1532559219,293,38225391.0,https://pp.userapi.com/c604722/v604722850/30539/AZN_UdB-7sQ.jpg?ava=1,https://vk.com/images/places/place.png,59.938998,30.390463,11293987,11293987,"–í–∏–ª–ª–∏ –º–∞—à–∏–Ω–∞. –ú–æ—Ç–æ—Ç—Ä–µ–Ω–∞–∂–µ—Ä, –°–ü–±",21,1509274368.0
506,,2,,,1497941029,291,,,https://vk.com/images/places/place.png,59.938711,30.393886,18423438,18423438,"Sea Life,Hannover",21,1523724548.0
507,—É–ª–∏—Ü–∞ –ö—Ä–∞—Å–Ω–æ–≥–æ –¢–µ–∫—Å—Ç–∏–ª—å—â–∏–∫–∞ 15,9,,,1403078235,328,,,https://vk.com/images/places/place.png,59.938346,30.393331,8819056,8819056,–£—Ñ–º—Å,21,1478602709.0
508,–¥—É–º—Å–∫–∞—è,5,,,1484989232,327,,,https://vk.com/images/places/place.png,59.938424,30.394331,17199412,17199412,club lomonosov,21,1510519555.0
509,—É–ª–∏—Ü–∞ –ù–æ–≤–≥–æ—Ä–æ–¥—Å–∫–∞—è 17,3,,,1448121421,329,,,https://vk.com/images/places/place.png,59.939139,30.389015,13430402,13430402,"–°–∞–Ω–∫—Ç-–ü–µ—Ç–µ—Ä–±—É—Ä–≥, —É–ª.–ì–∞–≤—Ä—Å–∫–∞—è,6",21,1487418513.0
510,"—É–ª. –ú–æ–∏—Å–µ–µ–Ω–∫–æ, 28–ê",2,,,1407928370,356,,,https://vk.com/images/places/place.png,59.938116,30.392313,9280920,9280920,—Ä—Å,21,1433328932.0
511,—É–ª–∏—Ü–∞ –ö—Ä–∞—Å–Ω–æ–≥–æ –¢–µ–∫—Å—Ç–∏–ª—å—â–∏–∫–∞ 17,13,,,1419839989,392,,,https://vk.com/images/places/place.png,59.937791,30.393826,10546872,10546872,–ö—Ä–∞—Å–Ω–æ–≥–æ —Ç–µ–∫—Å—Ç–∏–ª—å—â–∏–∫–∞,21,1527082183.0
512,—É–ª–∏—Ü–∞ –ö—Ä–∞—Å–Ω–æ–≥–æ –¢–µ–∫—Å—Ç–∏–ª—å—â–∏–∫–∞ 17,6,,,1369238840,374,,,https://vk.com/images/places/place.png,59.937964,30.393916,5561758,5561758,—à—Ç—Ä–∞—Ñ —Å—Ç–æ—è–Ω–∫–∞ –º–∞—Ç—å –µ–≥–æ,21,1442255637.0
513,—É–ª–∏—Ü–∞ –ö–∏—Ä–æ—á–Ω–∞—è,4,,,1399438537,382,,,https://vk.com/images/places/place.png,59.93986,30.386821,8469394,8469394,–ì–µ–Ω–µ–∑–∏—Å —Ü–µ–Ω—Ç—Ä —Ä–µ–ø—Ä–æ–¥—É–∫—Ü–∏–∏,21,1533193209.0
514,—É–ª. –ö—Ä–∞—Å–Ω–æ–≥–æ –¢–µ–∫—Å—Ç–∏–ª—å—â–∏–∫–∞ –¥. 7,0,2.0,1.0,1532565061,32,65417821.0,https://pp.userapi.com/c630717/v630717563/2084f/c41PL7abZaQ.jpg?ava=1,https://vk.com/images/places/place.png,59.941416,30.39359,7925918,7925918,–ö–ï–ô–¢–ï–†–ò–ù–ì –°–ü–ë | –ö–£–õ–ò–ù–ê–†–ù–´–ï –ö–£–†–°–´,21,1458668805.0
515,–®–æ—É—Ä—É–º An_store,0,,,1445088414,42,,,https://vk.com/images/places/place.png,59.941079,30.393689,13145629,13145629,–§–æ–Ω–∞—Ä–Ω—ã–π,21,
516,"–ù–æ–≤–≥–æ—Ä–æ–¥—Å–∫–∞—è —É–ª–∏—Ü–∞, 23",0,,,1476819843,58,,,https://vk.com/images/places/place.png,59.940831,30.392577,16378980,16378980,–ª–∞–≥–µ—Ä—å –≤–æ–ª–Ω–∞,21,
517,"–ù–æ–≤–≥–æ—Ä–æ–¥—Å–∫–∞—è —É–ª., –¥–æ–º 25, Cocktail of Beauty",0,2.0,1.0,1532567050,94,36468085.0,https://sun9-4.userapi.com/c830709/v830709903/1537be/XscNFiAQYVE.jpg?ava=1,https://vk.com/images/places/place.png,59.94179,30.391668,16630142,16630142,–Æ–ª–∏—è –õ–∞–≤—Ä–µ–Ω—Ç—å–µ–≤–∞‚Ä¢–ú–∞–Ω–∏–∫—é—Ä‚Ä¢–ù–∞—Ä–∞—â–∏–≤–∞–Ω–∏–µ —Ä–µ—Å–Ω–∏—Ü,21,
518,"–ù–æ–≤–≥–æ—Ä–æ–¥—Å–∫–∞—è —É–ª–∏—Ü–∞, 25",0,2.0,1.0,1532572764,94,38195770.0,https://pp.userapi.com/c840720/v840720438/856f4/JJx1_xpyf9s.jpg?ava=1,https://vk.com/images/places/place.png,59.94179,30.391668,2221573,2221573,"–ù–∞—Ç—è–∂–Ω—ã–µ –ø–æ—Ç–æ–ª–∫–∏ –≤ –°–ü–ë ""–ù–æ—Ä–¥ –°–∏–ª–∏–Ω–≥"" —Ç.389-59-89",21,
519,"–ù–æ–≤–≥–æ—Ä–æ–¥—Å–∫–∞—è —É–ª. –¥–æ–º 23 –æ—Ñ–∏—Å 112, ""–Æ—Ä–∏–¥–∏—á–µ—Å–∫–∏–µ –∞–¥—Ä–µ—Å–∞ 365""",0,2.0,1.0,1532577508,95,151543040.0,https://pp.userapi.com/c841620/v841620498/10226/dxMDX66PYjs.jpg?ava=1,https://vk.com/images/places/place.png,59.940655,30.39191,18785150,18785150,–Æ—Ä–∏–¥–∏—á–µ—Å–∫–∏–µ –∞–¥—Ä–µ—Å–∞ 365,21,
520,"–ù–æ–≤–≥–æ—Ä–æ–¥—Å–∫–∞—è —É–ª., –¥.23, –ë–¶ ""–ë–∞–∑–µ–ª—å""",0,2.0,1.0,1532565596,99,29724071.0,https://pp.userapi.com/c625825/v625825985/3f5d2/87xdL2keZOI.jpg?ava=1,https://vk.com/images/places/place.png,59.940835,30.391533,8893138,8893138,| –ü–µ—Ä–µ–ø–ª–∞–Ω–∏—Ä–æ–≤–∫–∞ | –ü—Ä–æ–µ–∫—Ç–∏—Ä–æ–≤–∞–Ω–∏–µ | –°–æ–≥–ª–∞—Å–æ–≤–∞–Ω–∏–µ,21,
521,"–ù–æ–≤–≥–æ—Ä–æ–¥—Å–∫–∞—è —É–ª. –¥–æ–º 23, –æ—Ñ–∏—Å 207, –ò–Ω–≤–µ—Å—Ç–∏—Ü–∏–æ–Ω–Ω–∞—è –∫–æ–º–ø–∞–Ω–∏—è –ê–º–ü–∏–†",0,2.0,1.0,1532560293,99,74114696.0,https://pp.userapi.com/c618416/v618416742/11637/6mFdSnjeKro.jpg?ava=1,https://vk.com/images/places/place.png,59.940835,30.391533,9008235,9008235,–ê–º–ü–∏–† –ò–Ω–≤–µ—Å—Ç–∏—Ü–∏–æ–Ω–Ω–∞—è –∫–æ–º–ø–∞–Ω–∏—è,21,
522,–ù–æ–≤–≥–æ—Ä–æ–¥—Å–∫–∞—è —É–ª.,0,2.0,1.0,1532558636,99,18885043.0,https://pp.userapi.com/c837331/v837331565/28d66/75ttkPsFs_Q.jpg?ava=1,https://vk.com/images/places/place.png,59.940835,30.391533,4083603,4083603,–ê–¥–≤–æ–∫–∞—Ç—Å–∫–∏–π –∫–∞–±–∏–Ω–µ—Ç –ö–∞–∑–∞–∫–æ–≤–∞ –ü–∞–≤–ª–∞ –ò–≥–æ—Ä–µ–≤–∏—á–∞,21,
523,"—É–ª –∫—Ä–∞—Å–Ω—ã—Ö —Ç–µ–∫—Å—Ç–∏–ª—å—â–∏–∫–æ–≤ –¥10 -12, –ó–∞–∫–∞–∂–µ–º ,–ø–æ–ª—É—á–∏–º,–¥–æ—Å—Ç–∞–≤–∏–º.",0,2.0,1.0,1362902746,105,50796235.0,https://pp.userapi.com/E2mcDlPYtEJeiK5k9slnzBQRO9gnDHkT6wJu0Q/S_5xD_S7zRY.jpg?ava=1,https://vk.com/images/places/work.png,59.94156,30.394875,4871076,4871076,#–ï–ì–†–ü –æ–Ω–ª–∞–π–Ω —Å—Ä–æ—á–Ω–æ.–ö—Ç–æ —Ö–æ–∑—è–∏–Ω –Ω–µ–¥–≤–∏–∂–∏–º–æ—Å—Ç–∏.,2,
524,–ö—Ä–∞—Å–Ω–æ–≥–æ –¢–µ–∫—Å—Ç–∏–ª—å—â–∏–∫–∞ 10,0,2.0,1.0,1532568770,105,57879650.0,https://pp.userapi.com/c302202/v302202254/3a24/xYpFGusuUOA.jpg?ava=1,https://vk.com/images/places/place.png,59.94156,30.394875,6341858,6341858,iservice_spb,21,
525,"–ù–æ–≤–≥–æ—Ä–æ–¥—Å–∫–∞—è —É–ª–∏—Ü–∞, –¥–æ–º 23, –æ—Ñ–∏—Å 253, –ë–¶ ¬´–ë–∞–∑–µ–ª—å¬ª",0,2.0,1.0,1533285765,105,39014267.0,https://pp.userapi.com/c848636/v848636291/1f2f/CtceWavmt_0.jpg?ava=1,https://vk.com/images/places/place.png,59.940359,30.393294,9359842,9359842,–Æ—Ä–∏–¥–∏—á–µ—Å–∫–∞—è –∫–æ–º–ø–∞–Ω–∏—è ¬´–ì–µ—Ä–º–µ—Å-–ò–Ω—Ñ–æ¬ª | –∞–¥–≤–æ–∫–∞—Ç—ã,21,
526,"–ù–æ–≤–≥–æ—Ä–æ–¥—Å–∫–∞—è 27, –†–µ—Å—Ç–æ—Ä–∞–Ω –û—Ö–æ—Ç–Ω–∏—á–∏–π –∫–ª—É–±",0,2.0,1.0,1532563213,107,39281664.0,https://pp.userapi.com/c11336/g39281664/e_929fc9aa.jpg?ava=1,https://vk.com/images/places/place.png,59.9422,30.392342,2486358,2486358,–Ø–•–¢–ê –ü–ê–¢–ò!–ò—â–µ–º –∫—Ä–∞—Å–∏–≤—ã—Ö –∏ –≤–µ—Å–µ–ª—ã—Ö –¥–µ–≤—É—à–µ–∫!!,21,
527,,0,,,1470551581,111,,,https://vk.com/images/places/place.png,59.940812,30.394798,15707516,15707516,–ï–¥–∏–Ω—ã–π –º–µ–¥–∏,21,1470551586.0
528,"–ù–æ–≤–≥–æ—Ä–æ–¥—Å–∫–∞—è —É–ª., –ë–∏–±–ª–∏–æ—Ç–µ–∫–∞ –∏–º.–ê.–ò. –ì–µ—Ä—Ü–µ–Ω–∞",0,2.0,1.0,1532561752,112,24190174.0,https://pp.userapi.com/c840729/v840729751/2fd99/6Qdm3tHs_HI.jpg?ava=1,https://vk.com/images/places/place.png,59.942259,30.392384,2126333,2126333,–ö–ª—É–± –ª—é–±–∏—Ç–µ–ª–µ–π —Ñ–∞–Ω—Ç–∞—Å—Ç–∏–∫–∏ –∏ —Ñ—ç–Ω—Ç–µ–∑–∏ ¬´–õ—é–§–§¬ª,21,
529,"–ö—Ä–∞—Å–Ω–æ–≥–æ –¢–µ–∫—Å—Ç–∏–ª—å—â–∏–∫–∞ —É–ª., 9-11",0,2.0,1.0,1532563203,113,40222576.0,https://pp.userapi.com/04vqPVeIl5YQkhSmwApSEU2WDr8wzon-8fTjZA/m6vS9duP-2c.jpg?ava=1,https://vk.com/images/places/place.png,59.940398,30.393995,2716153,2716153,Red –ó–∞–≤–µ–¥–µ–Ω–∏–µ,21,
530,"–≥. –°–∞–Ω–∫—Ç-–ü–µ—Ç–µ—Ä–±—É—Ä–≥, —É–ª–∏—Ü–∞ –ù–æ–≤–≥–æ—Ä–æ–¥—Å–∫–∞—è, –¥–æ–º 27, –ê–ù ""–ü—è—Ç–™ –£–≥–ª–æ–≤–™""",0,2.0,1.0,1534426184,115,106849596.0,https://pp.userapi.com/c626420/v626420147/3b482/31rmKTTgFVQ.jpg?ava=1,https://vk.com/images/places/place.png,59.942264,30.392297,14044187,14044187,"–ê–ù ""–ü—è—Ç–™ –£–≥–ª–æ–≤–™""/–°–ü–ë/ –ú—É—Ä–º–∞–Ω—Å–∫",21,
531,—É–ª–∏—Ü–∞ –ù–æ–≤–≥–æ—Ä–æ–¥—Å–∫–∞—è 26,0,,,1424103746,117,,,https://vk.com/images/places/place.png,59.941689,30.391096,11018759,11018759,"–û–û–û ""–°–æ–ª–µ–∞–Ω—Å —Ç—Ä–µ–≤–µ–ª""",21,
532,—É–ª–∏—Ü–∞ –ù–æ–≤–≥–æ—Ä–æ–¥—Å–∫–∞—è 21,0,,,1500987301,118,,,https://vk.com/images/places/place.png,59.940734,30.391256,18682035,18682035,–†–µ—Å—Ç–æ—Ä–∞–Ω —Å–µ–≤–µ—Ä–Ω–æ–π –∫—É—Ö,21,
533,"–ù–æ–≤–≥–æ—Ä–æ–¥—Å–∫–∞—è —É–ª., 27, –ë–∏–±–ª–∏–æ—Ç–µ–∫–∞ –∏–º. –ê.–ò. –ì–µ—Ä—Ü–µ–Ω–∞",0,2.0,1.0,1532576039,119,62416788.0,https://pp.userapi.com/Mm8Q35mJW6NXOOe0_ypOkItX2jo8Xy4CmXxNeA/wd_qcN-S8ZA.jpg?ava=1,https://vk.com/images/places/place.png,59.942291,30.393869,7114945,7114945,"–§–∞–Ω—Ç–∞—Å—Ç–∏—á–µ—Å–∫–∞—è –≥–æ—Å—Ç–∏–Ω–∞—è –ö–ª—É–±–∞ ""–õ—é–§–§""",21,1492502898.0
534,—É–ª–∏—Ü–∞ –ö—Ä–∞—Å–Ω–æ–≥–æ –¢–µ–∫—Å—Ç–∏–ª—å—â–∏–∫–∞ 9,0,,,1482953419,122,,,https://vk.com/images/places/place.png,59.9402,30.393224,16996770,16996770,–î–æ–º –ò–≤–∞–Ω–≥–∞—è,21,1482953423.0
535,"—É–ª. –ö—Ä–∞—Å–Ω–æ–≥–æ –¢–µ–∫—Å—Ç–∏–ª—å—â–∏–∫–∞, 9",0,,,1391683045,123,,,https://vk.com/images/places/place.png,59.940576,30.394743,7658838,7658838,–†–æ—Å—Ä–∏–µ—Å—Ç—Ä,21,1391683048.0
536,"–ù–æ–≤–≥–æ—Ä–æ–¥—Å–∫–∞—è —É–ª–∏—Ü–∞, 23. –æ—Ñ–∏—Å. 332-–ê, –£–º–Ω–∞—è –ê–≤—Ç–æ—à–∫–æ–ª–∞ - –≥–ª–∞–≤–Ω—ã–π –æ—Ñ–∏—Å",0,2.0,1.0,1536131040,130,128013322.0,https://pp.userapi.com/c846124/v846124508/a249e/wuGTgrKyZVw.jpg?ava=1,https://vk.com/images/places/place.png,59.940896,30.390857,15950991,15950991,–£–º–Ω–∞—è–ê–≤—Ç–æ—à–∫–æ–ª–∞ + –£—á–∏–ü–î–î = –ø—Ä–∞–≤–∞ —Å 1 —Ä–∞–∑–∞!,21,
537,—É–ª–∏—Ü–∞ –∫—Ä–∞—Å–Ω–æ–≥–æ —Ç–µ–∫—Å—Ç–∏–ª—å—â–∏–∫–∞ .,0,2.0,1.0,1532583125,143,130101974.0,https://pp.userapi.com/c636017/v636017531/34f09/vCZcGr4GLNo.jpg?ava=1,https://vk.com/images/places/place.png,59.940096,30.394,16778846,16778846,"–®–£–ì–ê–†–ò–ù–ì, –î–ï–ü–ò–õ–Ø–¶–ò–Ø, –ë–†–û–í–ò –°–ü–ë –¶–ï–ù–¢–†–ê–õ–¨–ù–´–ô –†–ê–ô–û–ù",21,
538,"–ù–æ–≤–≥–æ—Ä–æ–¥—Å–∫–∞—è 23, –ß–µ—Ä–Ω—ã—à–µ–≤—Å–∫–∞—è, –í–æ—Å—Å—Ç–∞–Ω–∏—è, –ø–ª. –ê–ª–µ–∫—Å–∞–Ω–¥—Ä–æ-–ù–µ–≤—Å–∫–æ–≥–æ",0,2.0,1.0,1532578842,147,129264436.0,https://pp.userapi.com/c637520/v637520997/10993/zkYsl-e9Zb4.jpg?ava=1,https://vk.com/images/places/place.png,59.940409,30.391099,16136894,16136894,"–ñ–ö ""–ê–ª–µ–∫—Å–∞–Ω–¥—Ä–∏—è""",21,
539,"–ù–æ–≤–≥–æ—Ä–æ–¥—Å–∫–∞—è —É–ª. –¥–æ–º 23, –æ—Ñ–∏—Å 209, –ê–º–ü–∏–†-–ò–Ω–≤–µ—Å—Ç",0,2.0,1.0,1532574111,148,30491684.0,https://pp.userapi.com/c322323/v322323836/797f/olTY4l2kFRk.jpg?ava=1,https://vk.com/images/places/place.png,59.94079,30.39059,11721937,11721937,–ê–º–ü–∏–† - –ò–Ω–≤–µ—Å—Ç–∏—Ü–∏–æ–Ω–Ω–∞—è –∫–æ–º–ø–∞–Ω–∏—è,21,
540,"—É–ª. –ù–æ–≤–≥–æ—Ä–æ–¥—Å–∫–∞—è 23, –ú√ñ",0,2.0,1.0,1532565914,148,73283859.0,https://pp.userapi.com/c834103/v834103743/546e3/td5KnHmjL6k.jpg?ava=1,https://vk.com/images/places/place.png,59.94079,30.39059,8851989,8851989,–†–µ—Å—Ç–æ—Ä–∞–Ω —Å–µ–≤–µ—Ä–Ω–æ–π –∫—É—Ö–Ω–∏ –ú√ñ,21,1411110682.0
541,"—É–ª. –ù–æ–≤–≥–æ—Ä–æ–¥—Å–∫–∞—è, –¥ 23, TMEnergy",0,2.0,1.0,1534396033,148,53955858.0,https://pp.userapi.com/uvPWiUJTn9pPKK8W69cQZSZb9peeqLS6ks4nHQ/gTTY6Bn9LyU.jpg?ava=1,https://vk.com/images/places/place.png,59.94079,30.39059,5548140,5548140,–¢–µ–ø–ª–æ–≤—ã–µ –Ω–∞—Å–æ—Å—ã DIMPLEX,21,
542,"—É–ª. –ù–æ–≤–≥–æ—Ä–æ–¥—Å–∫–∞—è –¥. 23. –æ—Ñ 343, –°—Ç—É–¥–∏—è –ø–µ—á–∞—Ç–∏ B&amp;S",0,2.0,1.0,1536238188,148,157867592.0,https://pp.userapi.com/c841426/v841426814/43fb9/P21B9E-rOYM.jpg?ava=1,https://vk.com/images/places/place.png,59.94079,30.39059,19751766,19751766,"–°—Ç—É–¥–∏—è –ø–µ—á–∞—Ç–∏ B&amp;S print: –¥–∏–∑–∞–π–Ω, –ø–æ–ª–∏–≥—Ä–∞—Ñ–∏—è.",21,
543,"–°–ü–±, –ù–æ–≤–≥–æ—Ä–æ–¥—Å–∫–∞—è —É–ª. 23, —Ü–µ–Ω—Ç—Ä–∞–ª—å–Ω—ã–π –≤—Ö–æ–¥, 3 —ç—Ç–∞–∂, –æ—Ñ–∏—Å 344, –®–∫–æ–ª–∞ —Ç–∞–Ω—Ü–µ–≤ ""–≠–∫—Å–ø—Ä–æ–º—Ç""",0,2.0,1.0,1532558678,148,17391372.0,https://pp.userapi.com/c846018/v846018510/f4ccd/0ftSAZqY7wQ.jpg?ava=1,https://vk.com/images/places/place.png,59.94079,30.39059,15771137,15771137,–¶—ã–≥–∞–Ω—Å–∫–∏–π —Ç–∞–Ω–µ—Ü. –®–∫–æ–ª–∞ —Ü—ã–≥–∞–Ω—Å–∫–æ–≥–æ —Ç–∞–Ω—Ü–∞ –≠–∫—Å–ø—Ä–æ–º—Ç,21,
544,"–ù–æ–≤–≥–æ—Ä–æ–¥—Å–∫–∞—è —É–ª–∏—Ü–∞, 23, –õ–µ–Ω—Ç–∞",0,2.0,1.0,1537082392,152,135299238.0,https://pp.userapi.com/c845420/v845420106/eee61/yHT_ac0G8XM.jpg?ava=1,https://vk.com/images/places/place.png,59.940888,30.390436,21673991,21673991,Pilim Nail Studio SPb,21,
545,"–ù–æ–≤–≥–æ—Ä–æ–¥—Å–∫–∞—è —É–ª–∏—Ü–∞, 23, –õ–µ–Ω—Ç–∞",0,2.0,1.0,1533211567,152,102538517.0,https://pp.userapi.com/ch_dtqwDo7u1pH-6NteKF0Qu3r4zaypLlbE2ig/3_ooqQg4Htc.jpg?ava=1,https://vk.com/images/places/place.png,59.940888,30.390436,14920016,14920016,UPROFI ‚Ä¢ –ü–æ–¥–∫–ª—é—á–∞–µ–º –∫ Uber ‚Ä¢ –Ø–Ω–¥–µ–∫—Å –¢–∞–∫—Å–∏ ‚Ä¢ Gett,21,
546,"–°–∏–Ω–æ–ø—Å–∫–∞—è –Ω–∞–±., 32/35",0,2.0,1.0,1532710800,158,161766825.0,https://pp.userapi.com/c845420/v845420915/34774/2-5KPJjYr-8.jpg?ava=1,https://vk.com/images/places/place.png,59.940391,30.395249,20156276,20156276,–ú–û–ó–ì–û–í–ó–†–´–í,21,
547,—É–ª–∏—Ü–∞ –ö–æ—Å—Ç—Ä–æ–º—Å–∫–∞—è,0,,,1535562486,181,,,https://vk.com/images/places/place.png,59.941795,30.389949,21631591,21631591,Sankt-,21,
548,"—É–ª. –ö—Ä–∞—Å–Ω–æ–≥–æ –¢–µ–∫—Å—Ç–∏–ª—å—â–∏–∫–∞, 2",0,,,1438603609,182,,,https://vk.com/images/places/place.png,59.942232,30.395754,12506169,12506169,—Ü–µ–Ω—Ç—Ä–∞–ª—å–Ω—ã–π –æ—Ñ–∏—Å —Å–±–µ—Ä–±–∞–Ω–∫–∞,21,1438603613.0
549,—É–ª–∏—Ü–∞ –ö—Ä–∞—Å–Ω–æ–≥–æ –¢–µ–∫—Å—Ç–∏–ª—å—â–∏–∫–∞ 12,0,,,1399543000,184,,,https://vk.com/images/places/place.png,59.941254,30.396373,8479935,8479935,–†–∞—Å—á–µ—Ç–Ω—ã–π —Ü–µ–Ω—Ç—Ä,21,1399543181.0
550,–°–∏–Ω–æ–ø—Å–∫–∞—è –Ω–∞–±–µ—Ä–µ–∂–Ω–∞—è,0,,,1375563126,227,,,https://vk.com/images/places/place.png,59.940134,30.396405,6118628,6118628,–°–∏–Ω–æ–ø—Å–∫–∞—è 78 –∫ 2,21,
551,"—É–ª–∏—Ü–∞ –•–ª–æ–ø–∏–Ω–∞, 3",0,,,1535889512,230,,,https://vk.com/images/places/place.png,59.93925,30.393614,21647739,21647739,"–£–ª. –ö—Ä–∞—Å–Ω–æ–≥–æ –¢–µ–∫—Å—Ç–∏–ª—å—â–∏–∫–∞, 13–∞",21,
552,"—É–ª–∏—Ü–∞ –ö—Ä–∞—Å–Ω–æ–≥–æ –¢–µ–∫—Å—Ç–∏–ª—å—â–∏–∫–∞, 13–í",0,2.0,1.0,1536398310,238,85474844.0,https://pp.userapi.com/c630924/v630924323/222e9/-80K5QxPGTw.jpg?ava=1,https://vk.com/images/places/place.png,59.939168,30.392563,19593798,19593798,–ö–í–û–¢–ê –ù–ê –†–í–ü –°–ü–ë –ö–∞–∑–∞—Ö—Å—Ç–∞–Ω,21,
553,"—É–ª–∏—Ü–∞ –ö—Ä–∞—Å–Ω–æ–≥–æ –¢–µ–∫—Å—Ç–∏–ª—å—â–∏–∫–∞, 10-12–°, –∫—Ä–∞—Å–Ω–æ–≥–æ —Ç–µ–∫—Å—Ç–∏–ª—å—â–∏–∫–∞ 10-12",0,2.0,1.0,1533289487,254,12144461.0,https://sun9-6.userapi.com/c830309/v830309152/13616d/VBHtZTTzF5k.jpg?ava=1,https://vk.com/images/places/place.png,59.939289,30.395218,19100648,19100648,–ú—É—Å–ª–∏–Ω–æ–≤—ã–µ –ø–µ–ª–µ–Ω–∫–∏ Mother &amp; kid –º—É—Å–ª–∏–Ω,21,
554,"—É–ª. –ë–æ–Ω—á-–ë—Ä—É–µ–≤–∏—á–∞, 5",0,,,1407795387,256,,,https://vk.com/images/places/place.png,59.94355,30.392075,9268053,9268053,"–æ—Å—Ç–∞–Ω–æ–≤–∫–∞ ""–£–ª. –ë–æ–Ω—á-–ë—Ä—É–µ–≤–∏—á–∞""",21,1480057194.0
555,—É–ª–∏—Ü–∞ –¢—É–ª—å—Å–∫–∞—è 7,0,,,1465147899,275,,,https://vk.com/images/places/place.png,59.94334,30.390234,15155043,15155043,–°—É—à–∏ wok 2 –°–æ–≤–µ—Ç—Å–∫–∞—è,21,1465147902.0
556,—É–ª–∏—Ü–∞ –ö–æ—Å—Ç—Ä–æ–º—Å–∫–∞—è,0,,,1481756935,275,,,https://vk.com/images/places/place.png,59.943268,30.390036,16889713,16889713,–¢—É–ª—å—Å–∫–∞—è 7,21,1481756947.0
557,"—É–ª. –°–æ—Ñ—å–∏ –ö–æ–≤–∞–ª–µ–≤—Å–∫–æ–π, 16 –∫–æ—Ä–ø—É—Å 3",0,,,1464207490,277,,,https://vk.com/images/places/place.png,59.94176,30.397948,15063418,15063418,–ë–æ–ª—Ç—à–µ–æ—Ö—Ç–∏–Ω—Å–∫–∏–π –º–æ—Å—Ç,21,1464207497.0
558,"–£–ª–∏—Ü–∞ –ë–æ–Ω—á-–ë—Ä—É–µ–≤–∏—á–∞ –¥.3, —Ä–µ—Å—Ç–æ—Ä–∞–Ω ""–®—Ç–∏–±–ª–µ—Ç—Ç–æ""",0,2.0,1.0,1532560729,290,64263065.0,https://vk.com/images/community_50.png?ava=1,https://vk.com/images/places/place.png,59.943773,30.391372,7401222,7401222,–ë–∞–Ω–∫–µ—Ç–Ω—ã–π –∑–∞–ª,21,
559,"–º–æ–∏—Å–µ–µ–Ω–∫–æ 24 –∞, –§–∞—Ä–º–∞—Ü–µ–≤—Ç–∏—á–µ—Å–∫–∞—è —Ñ–∞–±—Ä–∏–∫–∞",0,2.0,1.0,1361996619,326,50331981.0,https://pp.userapi.com/c308527/v308527938/4fed/qZf_dYpXoLw.jpg?ava=1,https://vk.com/images/places/home.png,59.938536,30.391084,4798796,4798796,–ê–Ω—Ç–∏—Ü–µ–ª–ª—é–ª–∏—Ç–Ω–∞—è –ª–∏–Ω–∏—è –∫–æ—Å–º–µ—Ç–∏–∫–∏ –æ—Ç –ø—Ä–æ–∏–∑–≤–æ–¥–∏—Ç–µ–ª—è,1,
560,,0,,,1491544809,352,,,https://vk.com/images/places/place.png,59.938199,30.391717,17874076,17874076,"–∫–æ–ª–ø–∏–Ω—Å–∫–∏–π —Ä-–Ω, –≥ –∫–æ–ª–ø–∏–Ω–æ, —É–ª –°–µ–≤–∞—Å—Ç—å—è–Ω–æ–≤–∞, –¥.24",21,1512884466.0
561,"""–ü–ª–∞–Ω–µ—Ç–∞ –¢–∞–Ω—Ü–∞"", –¢–∞–Ω—Ü–µ–≤–∞–ª—å–Ω–∞—è —Å—Ç—É–¥–∏—è ""–ü–ª–∞–Ω–µ—Ç–∞ –¢–∞–Ω—Ü–∞""",1,2.0,1.0,1532578494,4306,100166466.0,https://pp.userapi.com/c629411/v629411412/30920/agfg7XyCzcY.jpg?ava=1,https://vk.com/images/places/place.png,59.939095,30.315868,12625845,12625845,"""–ü–ª–∞–Ω–µ—Ç–∞ –¢–∞–Ω—Ü–∞""",21,1515598007.0
562,"–ü–ª–∞—Ç—å—è. EA. EsenyA fashion. –í –æ—Ñ–∏—Å. –ù–∞ —Å–≤–∏–¥–∞–Ω–∏–µ, –ù–µ–¥–∞–ª–µ–∫–æ –æ—Ç –º –ø—Ä.–ë–æ–ª—å—à–µ–≤–∏–∫–æ–≤",0,2.0,1.0,1532559546,4306,67079851.0,https://pp.userapi.com/GLuaxDtXnbV0FpTNplp2E1mFk2VoFxKy6WQGhw/C7bg21BuS7w.jpg?ava=1,https://vk.com/images/places/place.png,59.939095,30.315868,8564212,8564212,–ü–ª–∞—Ç—å—è. EA. EsenyA fashion. –í –æ—Ñ–∏—Å. –ù–∞ —Å–≤–∏–¥–∞–Ω–∏–µ,21,
